{"type": "FeatureCollection", "features": [{"type": "Feature", "properties": {"area_ha": 0.1, "mean": 0.2846}, "geometry": {"type": "Polygon", "coordinates": [[[120.56294136671721, 31.477051072000002], [120.56252018673237, 31.47677968], [120.56336254670205, 31.476870144], [120.56294136671721, 31.477051072000002]]]}}, {"type": "Feature", "properties": {"area_ha": 0.0, "mean": null}, "geometry": {"type": "Polygon", "coordinates": [[[120.54314590742987, 31.475332256], [120.54304061243367, 31.475241792000002], [120.54314590742987, 31.475241792000002], [120.54314590742987, 31.475332256]]]}}, {"type": "Feature", "properties": {"area_ha": 0.0, "mean": null}, "geometry": {"type": "Polygon", "coordinates": [[[120.54283002244125, 31.475151328], [120.54272472744503, 31.475060864], [120.54283002244125, 31.475060864], [120.54283002244125, 31.475151328]]]}}, {"type": "Feature", "properties": {"area_ha": 0.0, "mean": null}, "geometry": {"type": "Polygon", "coordinates": [[[120.58178917103866, 31.471442304], [120.58168387604246, 31.47135184], [120.58178917103866, 31.47135184], [120.58178917103866, 31.471442304]]]}}, {"type": "Feature", "properties": {"area_ha": 0.0, "mean": null}, "geometry": {"type": "Polygon", "coordinates": [[[120.53745997763457, 31.470809056], [120.53735468263837, 31.470718592], [120.53745997763457, 31.470718592], [120.53745997763457, 31.470809056]]]}}, {"type": "Feature", "properties": {"area_ha": 0.0, "mean": null}, "geometry": {"type": "Polygon", "coordinates": [[[120.53377465276725, 31.470085344], [120.53366935777105, 31.46999488], [120.53377465276725, 31.46999488], [120.53377465276725, 31.470085344]]]}}, {"type": "Feature", "properties": {"area_ha": 0.02, "mean": 0.1399}, "geometry": {"type": "Polygon", "coordinates": [[[120.6013740403336, 31.457691776], [120.60126874533738, 31.45732992], [120.6013740403336, 31.45732992], [120.6013740403336, 31.457691776]]]}}, {"type": "Feature", "properties": {"area_ha": 0.02, "mean": 0.2199}, "geometry": {"type": "Polygon", "coordinates": [[[120.6013740403336, 31.457239456], [120.60126874533738, 31.456787136], [120.6013740403336, 31.456787136], [120.6013740403336, 31.457239456]]]}}, {"type": "Feature", "properties": {"area_ha": 0.01, "mean": 0.1138}, "geometry": {"type": "Polygon", "coordinates": [[[120.60126874533738, 31.456787136], [120.60116345034118, 31.456515744], [120.60126874533738, 31.456515744], [120.60126874533738, 31.456787136]]]}}, {"type": "Feature", "properties": {"area_ha": 0.0, "mean": null}, "geometry": {"type": "Polygon", "coordinates": [[[120.60116345034118, 31.456515744], [120.60105815534496, 31.45642528], [120.60116345034118, 31.45642528], [120.60116345034118, 31.456515744]]]}}, {"type": "Feature", "properties": {"area_ha": 0.0, "mean": null}, "geometry": {"type": "Polygon", "coordinates": [[[120.60105815534496, 31.45642528], [120.60095286034876, 31.456334816000002], [120.60105815534496, 31.456334816000002], [120.60105815534496, 31.45642528]]]}}, {"type": "Feature", "properties": {"area_ha": 0.06, "mean": 0.1943}, "geometry": {"type": "Polygon", "coordinates": [[[120.60095286034876, 31.455611104], [120.60063697536013, 31.455158784], [120.60084756535254, 31.455068320000002], [120.60095286034876, 31.455611104]]]}}, {"type": "Feature", "properties": {"area_ha": 0.01, "mean": 0.1383}, "geometry": {"type": "Polygon", "coordinates": [[[120.60084756535254, 31.454977856], [120.60074227035633, 31.454796928], [120.60084756535254, 31.454796928], [120.60084756535254, 31.454977856]]]}}, {"type": "Feature", "properties": {"area_ha": 0.0, "mean": null}, "geometry": {"type": "Polygon", "coordinates": [[[120.60179522031842, 31.445207744], [120.60168992532222, 31.44511728], [120.60179522031842, 31.44511728], [120.60179522031842, 31.445207744]]]}}, {"type": "Feature", "properties": {"area_ha": 0.35, "mean": 0.2615}, "geometry": {"type": "Polygon", "coordinates": [[[120.58515861091736, 31.434442528], [120.58505331592116, 31.433809280000002], [120.58610626588325, 31.433718816], [120.58515861091736, 31.434442528]]]}}, {"type": "Feature", "properties": {"area_ha": 0.0, "mean": null}, "geometry": {"type": "Polygon", "coordinates": [[[120.59916284541319, 31.433176032], [120.59905755041699, 31.433085568], [120.59916284541319, 31.433085568], [120.59916284541319, 31.433176032]]]}}, {"type": "Feature", "properties": {"area_ha": 0.04, "mean": 0.1297}, "geometry": {"type": "Polygon", "coordinates": [[[120.59905755041699, 31.43290464], [120.59884696042457, 31.432995104], [120.59884696042457, 31.432723712], [120.59905755041699, 31.43290464]]]}}, {"type": "Feature", "properties": {"area_ha": 0.0, "mean": null}, "geometry": {"type": "Polygon", "coordinates": [[[120.58863334579227, 31.432633248000002], [120.58852805079606, 31.432542784], [120.58863334579227, 31.432542784], [120.58863334579227, 31.432633248000002]]]}}, {"type": "Feature", "properties": {"area_ha": 0.01, "mean": 0.0989}, "geometry": {"type": "Polygon", "coordinates": [[[120.60242699029568, 31.432633248000002], [120.60221640030326, 31.432542784], [120.60242699029568, 31.432542784], [120.60242699029568, 31.432633248000002]]]}}, {"type": "Feature", "properties": {"area_ha": 0.04, "mean": 0.1479}, "geometry": {"type": "Polygon", "coordinates": [[[120.59905755041699, 31.432723712], [120.59884696042457, 31.43245232], [120.59905755041699, 31.432361856], [120.59905755041699, 31.432723712]]]}}, {"type": "Feature", "properties": {"area_ha": 0.01, "mean": 0.0996}, "geometry": {"type": "Polygon", "coordinates": [[[120.59895225542078, 31.432361856], [120.59884696042457, 31.432090464], [120.59895225542078, 31.432090464], [120.59895225542078, 31.432361856]]]}}, {"type": "Feature", "properties": {"area_ha": 0.23, "mean": 0.1706}, "geometry": {"type": "Polygon", "coordinates": [[[120.58947570576194, 31.43245232], [120.58852805079606, 31.43245232], [120.58873864078848, 31.432000000000002], [120.58947570576194, 31.43245232]]]}}, {"type": "Feature", "properties": {"area_ha": 0.06, "mean": 0.1548}, "geometry": {"type": "Polygon", "coordinates": [[[120.59884696042457, 31.431909536], [120.59853107543594, 31.431366752], [120.59874166542836, 31.431366752], [120.59884696042457, 31.431909536]]]}}, {"type": "Feature", "properties": {"area_ha": 0.01, "mean": 0.2007}, "geometry": {"type": "Polygon", "coordinates": [[[120.59842578043973, 31.431276288], [120.59832048544352, 31.43109536], [120.59842578043973, 31.43109536], [120.59842578043973, 31.431276288]]]}}, {"type": "Feature", "properties": {"area_ha": 0.0, "mean": null}, "geometry": {"type": "Polygon", "coordinates": [[[120.59853107543594, 31.43109536], [120.59842578043973, 31.431004896], [120.59853107543594, 31.431004896], [120.59853107543594, 31.43109536]]]}}, {"type": "Feature", "properties": {"area_ha": 0.0, "mean": null}, "geometry": {"type": "Polygon", "coordinates": [[[120.59863637043215, 31.431004896], [120.59853107543594, 31.430914432], [120.59863637043215, 31.430914432], [120.59863637043215, 31.431004896]]]}}, {"type": "Feature", "properties": {"area_ha": 0.0, "mean": null}, "geometry": {"type": "Polygon", "coordinates": [[[120.60621761015922, 31.42883376], [120.606112315163, 31.428743296], [120.60621761015922, 31.428743296], [120.60621761015922, 31.42883376]]]}}, {"type": "Feature", "properties": {"area_ha": 0.01, "mean": 0.3158}, "geometry": {"type": "Polygon", "coordinates": [[[120.606112315163, 31.428743296], [120.6060070201668, 31.428562368], [120.606112315163, 31.428562368], [120.606112315163, 31.428743296]]]}}, {"type": "Feature", "properties": {"area_ha": 0.04, "mean": 0.151}, "geometry": {"type": "Polygon", "coordinates": [[[120.57231262137984, 31.428743296], [120.571891441395, 31.42883376], [120.57231262137984, 31.428471904000002], [120.57231262137984, 31.428743296]]]}}, {"type": "Feature", "properties": {"area_ha": 0.0, "mean": null}, "geometry": {"type": "Polygon", "coordinates": [[[120.6060070201668, 31.428562368], [120.60590172517058, 31.428471904000002], [120.6060070201668, 31.428471904000002], [120.6060070201668, 31.428562368]]]}}, {"type": "Feature", "properties": {"area_ha": 0.0, "mean": null}, "geometry": {"type": "Polygon", "coordinates": [[[120.60569113517816, 31.428290976], [120.60558584018196, 31.428200512], [120.60569113517816, 31.428200512], [120.60569113517816, 31.428290976]]]}}, {"type": "Feature", "properties": {"area_ha": 0.02, "mean": 0.2966}, "geometry": {"type": "Polygon", "coordinates": [[[120.60590172517058, 31.428019584], [120.60579643017438, 31.427657728], [120.60590172517058, 31.427657728], [120.60590172517058, 31.428019584]]]}}, {"type": "Feature", "properties": {"area_ha": 0.03, "mean": 0.2763}, "geometry": {"type": "Polygon", "coordinates": [[[120.57378675132676, 31.427838656], [120.57368145633056, 31.427567264], [120.57389204632298, 31.427567264], [120.57378675132676, 31.427838656]]]}}, {"type": "Feature", "properties": {"area_ha": 0.0, "mean": null}, "geometry": {"type": "Polygon", "coordinates": [[[120.52187631819561, 31.427567264], [120.52177102319939, 31.4274768], [120.52187631819561, 31.4274768], [120.52187631819561, 31.427567264]]]}}, {"type": "Feature", "properties": {"area_ha": 0.04, "mean": 0.1611}, "geometry": {"type": "Polygon", "coordinates": [[[120.57684030621684, 31.427386336], [120.57578735625474, 31.427205408], [120.57684030621684, 31.427295872000002], [120.57684030621684, 31.427386336]]]}}, {"type": "Feature", "properties": {"area_ha": 0.02, "mean": 0.2365}, "geometry": {"type": "Polygon", "coordinates": [[[120.57568206125853, 31.427295872000002], [120.57536617626991, 31.427114944], [120.57568206125853, 31.427205408], [120.57568206125853, 31.427295872000002]]]}}, {"type": "Feature", "properties": {"area_ha": 0.0, "mean": null}, "geometry": {"type": "Polygon", "coordinates": [[[120.57473440629265, 31.427114944], [120.57462911129645, 31.42702448], [120.57473440629265, 31.42702448], [120.57473440629265, 31.427114944]]]}}, {"type": "Feature", "properties": {"area_ha": 0.02, "mean": 0.2155}, "geometry": {"type": "Polygon", "coordinates": [[[120.57536617626991, 31.427114944], [120.57494499628507, 31.42702448], [120.57536617626991, 31.42702448], [120.57536617626991, 31.427114944]]]}}, {"type": "Feature", "properties": {"area_ha": 0.0, "mean": null}, "geometry": {"type": "Polygon", "coordinates": [[[120.5411453025019, 31.4252152], [120.54104000750569, 31.425124736], [120.5411453025019, 31.425124736], [120.5411453025019, 31.4252152]]]}}, {"type": "Feature", "properties": {"area_ha": 0.0, "mean": null}, "geometry": {"type": "Polygon", "coordinates": [[[120.59926814040941, 31.425034272], [120.59916284541319, 31.424943808000002], [120.59926814040941, 31.424943808000002], [120.59926814040941, 31.425034272]]]}}, {"type": "Feature", "properties": {"area_ha": 0.0, "mean": null}, "geometry": {"type": "Polygon", "coordinates": [[[120.5411453025019, 31.424853344], [120.54104000750569, 31.42476288], [120.5411453025019, 31.42476288], [120.5411453025019, 31.424853344]]]}}, {"type": "Feature", "properties": {"area_ha": 0.0, "mean": null}, "geometry": {"type": "Polygon", "coordinates": [[[120.58147328605004, 31.424220096], [120.58136799105384, 31.424129632], [120.58147328605004, 31.424129632], [120.58147328605004, 31.424220096]]]}}, {"type": "Feature", "properties": {"area_ha": 0.0, "mean": null}, "geometry": {"type": "Polygon", "coordinates": [[[120.58157858104624, 31.424129632], [120.58147328605004, 31.424039168], [120.58157858104624, 31.424039168], [120.58157858104624, 31.424129632]]]}}, {"type": "Feature", "properties": {"area_ha": 0.0, "mean": null}, "geometry": {"type": "Polygon", "coordinates": [[[120.58168387604246, 31.424039168], [120.58157858104624, 31.423948704], [120.58168387604246, 31.423948704], [120.58168387604246, 31.424039168]]]}}, {"type": "Feature", "properties": {"area_ha": 0.0, "mean": null}, "geometry": {"type": "Polygon", "coordinates": [[[120.54935831220622, 31.423134528000002], [120.54925301721, 31.423044064], [120.54935831220622, 31.423044064], [120.54935831220622, 31.423134528000002]]]}}, {"type": "Feature", "properties": {"area_ha": 0.0, "mean": null}, "geometry": {"type": "Polygon", "coordinates": [[[120.54946360720243, 31.423044064], [120.54935831220622, 31.4229536], [120.54946360720243, 31.4229536], [120.54946360720243, 31.423044064]]]}}, {"type": "Feature", "properties": {"area_ha": 0.01, "mean": 0.1067}, "geometry": {"type": "Polygon", "coordinates": [[[120.54967419719485, 31.4229536], [120.54946360720243, 31.422863136], [120.54967419719485, 31.422863136], [120.54967419719485, 31.4229536]]]}}, {"type": "Feature", "properties": {"area_ha": 0.0, "mean": null}, "geometry": {"type": "Polygon", "coordinates": [[[120.58031504109174, 31.42250128], [120.58020974609553, 31.422410816], [120.58031504109174, 31.422410816], [120.58031504109174, 31.42250128]]]}}, {"type": "Feature", "properties": {"area_ha": 0.0, "mean": null}, "geometry": {"type": "Polygon", "coordinates": [[[120.58052563108416, 31.422410816], [120.58042033608795, 31.422320352], [120.58052563108416, 31.422320352], [120.58052563108416, 31.422410816]]]}}, {"type": "Feature", "properties": {"area_ha": 0.0, "mean": null}, "geometry": {"type": "Polygon", "coordinates": [[[120.58063092608037, 31.422320352], [120.58052563108416, 31.422229888], [120.58063092608037, 31.422229888], [120.58063092608037, 31.422320352]]]}}, {"type": "Feature", "properties": {"area_ha": 0.0, "mean": null}, "geometry": {"type": "Polygon", "coordinates": [[[120.5934769156179, 31.422320352], [120.59337162062168, 31.422229888], [120.5934769156179, 31.422229888], [120.5934769156179, 31.422320352]]]}}, {"type": "Feature", "properties": {"area_ha": 0.0, "mean": null}, "geometry": {"type": "Polygon", "coordinates": [[[120.58073622107658, 31.422229888], [120.58063092608037, 31.422139424], [120.58073622107658, 31.422139424], [120.58073622107658, 31.422229888]]]}}, {"type": "Feature", "properties": {"area_ha": 0.0, "mean": null}, "geometry": {"type": "Polygon", "coordinates": [[[120.59337162062168, 31.422229888], [120.59326632562548, 31.422139424], [120.59337162062168, 31.422139424], [120.59337162062168, 31.422229888]]]}}, {"type": "Feature", "properties": {"area_ha": 0.0, "mean": null}, "geometry": {"type": "Polygon", "coordinates": [[[120.58600097088704, 31.420782464000002], [120.58589567589082, 31.420692], [120.58600097088704, 31.420692], [120.58600097088704, 31.420782464000002]]]}}, {"type": "Feature", "properties": {"area_ha": 0.0, "mean": null}, "geometry": {"type": "Polygon", "coordinates": [[[120.5867380358605, 31.420420608], [120.58663274086429, 31.420330144], [120.5867380358605, 31.420330144], [120.5867380358605, 31.420420608]]]}}, {"type": "Feature", "properties": {"area_ha": 0.0, "mean": null}, "geometry": {"type": "Polygon", "coordinates": [[[120.58694862585293, 31.420330144], [120.58684333085671, 31.42023968], [120.58694862585293, 31.42023968], [120.58694862585293, 31.420330144]]]}}, {"type": "Feature", "properties": {"area_ha": 0.01, "mean": 0.3471}, "geometry": {"type": "Polygon", "coordinates": [[[120.58747510083397, 31.42023968], [120.58726451084155, 31.420149216], [120.58747510083397, 31.420149216], [120.58747510083397, 31.42023968]]]}}, {"type": "Feature", "properties": {"area_ha": 0.09, "mean": 0.2056}, "geometry": {"type": "Polygon", "coordinates": [[[120.58378977596665, 31.420420608], [120.58347389097801, 31.420058752], [120.58378977596665, 31.419877824], [120.58378977596665, 31.420420608]]]}}, {"type": "Feature", "properties": {"area_ha": 0.0, "mean": null}, "geometry": {"type": "Polygon", "coordinates": [[[120.58410566095527, 31.41978736], [120.58400036595907, 31.419696896], [120.58410566095527, 31.419696896], [120.58410566095527, 31.41978736]]]}}, {"type": "Feature", "properties": {"area_ha": 0.0, "mean": null}, "geometry": {"type": "Polygon", "coordinates": [[[120.58400036595907, 31.419696896], [120.58389507096285, 31.419606432000002], [120.58400036595907, 31.419606432000002], [120.58400036595907, 31.419696896]]]}}, {"type": "Feature", "properties": {"area_ha": 0.01, "mean": 0.316}, "geometry": {"type": "Polygon", "coordinates": [[[120.58473743093253, 31.419606432000002], [120.58463213593632, 31.419425504], [120.58473743093253, 31.419425504], [120.58473743093253, 31.419606432000002]]]}}, {"type": "Feature", "properties": {"area_ha": 0.0, "mean": null}, "geometry": {"type": "Polygon", "coordinates": [[[120.58515861091736, 31.419244576], [120.58505331592116, 31.419154112], [120.58515861091736, 31.419154112], [120.58515861091736, 31.419244576]]]}}, {"type": "Feature", "properties": {"area_ha": 0.0, "mean": null}, "geometry": {"type": "Polygon", "coordinates": [[[120.585474495906, 31.419063648], [120.58536920090978, 31.418973184], [120.585474495906, 31.418973184], [120.585474495906, 31.419063648]]]}}, {"type": "Feature", "properties": {"area_ha": 0.01, "mean": 0.2384}, "geometry": {"type": "Polygon", "coordinates": [[[120.58600097088704, 31.418973184], [120.58579038089462, 31.41888272], [120.58600097088704, 31.41888272], [120.58600097088704, 31.418973184]]]}}, {"type": "Feature", "properties": {"area_ha": 0.0, "mean": null}, "geometry": {"type": "Polygon", "coordinates": [[[120.58610626588325, 31.41888272], [120.58600097088704, 31.418792256], [120.58610626588325, 31.418792256], [120.58610626588325, 31.41888272]]]}}, {"type": "Feature", "properties": {"area_ha": 0.0, "mean": null}, "geometry": {"type": "Polygon", "coordinates": [[[120.58621156087946, 31.418792256], [120.58610626588325, 31.418701792], [120.58621156087946, 31.418701792], [120.58621156087946, 31.418792256]]]}}, {"type": "Feature", "properties": {"area_ha": 0.0, "mean": null}, "geometry": {"type": "Polygon", "coordinates": [[[120.58968629575436, 31.418701792], [120.58958100075816, 31.418611328], [120.58968629575436, 31.418611328], [120.58968629575436, 31.418701792]]]}}, {"type": "Feature", "properties": {"area_ha": 0.01, "mean": 0.2685}, "geometry": {"type": "Polygon", "coordinates": [[[120.58631685587567, 31.418701792], [120.58621156087946, 31.418520864], [120.58631685587567, 31.418520864], [120.58631685587567, 31.418701792]]]}}, {"type": "Feature", "properties": {"area_ha": 0.01, "mean": 0.2455}, "geometry": {"type": "Polygon", "coordinates": [[[120.58652744586809, 31.418430400000002], [120.58631685587567, 31.418339936], [120.58652744586809, 31.418339936], [120.58652744586809, 31.418430400000002]]]}}, {"type": "Feature", "properties": {"area_ha": 0.01, "mean": 0.2949}, "geometry": {"type": "Polygon", "coordinates": [[[120.58684333085671, 31.418339936], [120.58663274086429, 31.418249472], [120.58684333085671, 31.418249472], [120.58684333085671, 31.418339936]]]}}, {"type": "Feature", "properties": {"area_ha": 0.0, "mean": null}, "geometry": {"type": "Polygon", "coordinates": [[[120.58694862585293, 31.418249472], [120.58684333085671, 31.418159008], [120.58694862585293, 31.418159008], [120.58694862585293, 31.418249472]]]}}, {"type": "Feature", "properties": {"area_ha": 0.0, "mean": null}, "geometry": {"type": "Polygon", "coordinates": [[[120.59094983570887, 31.41797808], [120.59084454071267, 31.417887616], [120.59094983570887, 31.417887616], [120.59094983570887, 31.41797808]]]}}, {"type": "Feature", "properties": {"area_ha": 0.0, "mean": null}, "geometry": {"type": "Polygon", "coordinates": [[[120.5888439357847, 31.41752576], [120.58873864078848, 31.417435296], [120.5888439357847, 31.417435296], [120.5888439357847, 31.41752576]]]}}, {"type": "Feature", "properties": {"area_ha": 0.21, "mean": 0.1364}, "geometry": {"type": "Polygon", "coordinates": [[[120.59147631068993, 31.417706688], [120.59084454071267, 31.417344832], [120.59179219567855, 31.417254368000002], [120.59147631068993, 31.417706688]]]}}, {"type": "Feature", "properties": {"area_ha": 0.0, "mean": null}, "geometry": {"type": "Polygon", "coordinates": [[[120.59189749067475, 31.417254368000002], [120.59179219567855, 31.417163904], [120.59189749067475, 31.417163904], [120.59189749067475, 31.417254368000002]]]}}, {"type": "Feature", "properties": {"area_ha": 0.0, "mean": null}, "geometry": {"type": "Polygon", "coordinates": [[[120.59221337566339, 31.416892512], [120.59210808066717, 31.416802048], [120.59221337566339, 31.416802048], [120.59221337566339, 31.416892512]]]}}, {"type": "Feature", "properties": {"area_ha": 0.0, "mean": null}, "geometry": {"type": "Polygon", "coordinates": [[[120.59042336072783, 31.41662112], [120.59031806573162, 31.416530656], [120.59042336072783, 31.416530656], [120.59042336072783, 31.41662112]]]}}, {"type": "Feature", "properties": {"area_ha": 0.0, "mean": null}, "geometry": {"type": "Polygon", "coordinates": [[[120.5923186706596, 31.41662112], [120.59221337566339, 31.416530656], [120.5923186706596, 31.416530656], [120.5923186706596, 31.41662112]]]}}, {"type": "Feature", "properties": {"area_ha": 0.0, "mean": null}, "geometry": {"type": "Polygon", "coordinates": [[[120.59052865572404, 31.416530656], [120.59042336072783, 31.416440192], [120.59052865572404, 31.416440192], [120.59052865572404, 31.416530656]]]}}, {"type": "Feature", "properties": {"area_ha": 0.0, "mean": null}, "geometry": {"type": "Polygon", "coordinates": [[[120.5924239656558, 31.416530656], [120.5923186706596, 31.416440192], [120.5924239656558, 31.416440192], [120.5924239656558, 31.416530656]]]}}, {"type": "Feature", "properties": {"area_ha": 0.0, "mean": null}, "geometry": {"type": "Polygon", "coordinates": [[[120.59094983570887, 31.416259264], [120.59084454071267, 31.4161688], [120.59094983570887, 31.4161688], [120.59094983570887, 31.416259264]]]}}, {"type": "Feature", "properties": {"area_ha": 0.0, "mean": null}, "geometry": {"type": "Polygon", "coordinates": [[[120.59105513070509, 31.4161688], [120.59094983570887, 31.416078336], [120.59105513070509, 31.416078336], [120.59105513070509, 31.4161688]]]}}, {"type": "Feature", "properties": {"area_ha": 0.0, "mean": null}, "geometry": {"type": "Polygon", "coordinates": [[[120.59305573563306, 31.416078336], [120.59295044063686, 31.415987872], [120.59305573563306, 31.415987872], [120.59305573563306, 31.416078336]]]}}, {"type": "Feature", "properties": {"area_ha": 0.01, "mean": 0.2233}, "geometry": {"type": "Polygon", "coordinates": [[[120.59147631068993, 31.415987872], [120.59116042570129, 31.415897408], [120.59147631068993, 31.415897408], [120.59147631068993, 31.415987872]]]}}, {"type": "Feature", "properties": {"area_ha": 0.0, "mean": null}, "geometry": {"type": "Polygon", "coordinates": [[[120.59158160568613, 31.415897408], [120.59147631068993, 31.415806944], [120.59158160568613, 31.415806944], [120.59158160568613, 31.415897408]]]}}, {"type": "Feature", "properties": {"area_ha": 0.0, "mean": null}, "geometry": {"type": "Polygon", "coordinates": [[[120.59168690068233, 31.415806944], [120.59158160568613, 31.41571648], [120.59168690068233, 31.41571648], [120.59168690068233, 31.415806944]]]}}, {"type": "Feature", "properties": {"area_ha": 0.0, "mean": null}, "geometry": {"type": "Polygon", "coordinates": [[[120.54261943244883, 31.415445088000002], [120.54251413745261, 31.415354624], [120.54261943244883, 31.415354624], [120.54261943244883, 31.415445088000002]]]}}, {"type": "Feature", "properties": {"area_ha": 0.0, "mean": null}, "geometry": {"type": "Polygon", "coordinates": [[[120.5946351605762, 31.414721376], [120.59452986557999, 31.414630912], [120.5946351605762, 31.414630912], [120.5946351605762, 31.414721376]]]}}, {"type": "Feature", "properties": {"area_ha": 0.0, "mean": null}, "geometry": {"type": "Polygon", "coordinates": [[[120.5947404555724, 31.414630912], [120.5946351605762, 31.414540448], [120.5947404555724, 31.414540448], [120.5947404555724, 31.414630912]]]}}, {"type": "Feature", "properties": {"area_ha": 0.0, "mean": null}, "geometry": {"type": "Polygon", "coordinates": [[[120.59505634056103, 31.414540448], [120.59495104556483, 31.414449984], [120.59505634056103, 31.414449984], [120.59505634056103, 31.414540448]]]}}, {"type": "Feature", "properties": {"area_ha": 0.0, "mean": null}, "geometry": {"type": "Polygon", "coordinates": [[[120.59400339059894, 31.414449984], [120.59389809560274, 31.41435952], [120.59400339059894, 31.41435952], [120.59400339059894, 31.414449984]]]}}, {"type": "Feature", "properties": {"area_ha": 0.0, "mean": null}, "geometry": {"type": "Polygon", "coordinates": [[[120.59516163555725, 31.414449984], [120.59505634056103, 31.41435952], [120.59516163555725, 31.41435952], [120.59516163555725, 31.414449984]]]}}, {"type": "Feature", "properties": {"area_ha": 0.0, "mean": null}, "geometry": {"type": "Polygon", "coordinates": [[[120.59410868559515, 31.41435952], [120.59400339059894, 31.414269056000002], [120.59410868559515, 31.414269056000002], [120.59410868559515, 31.41435952]]]}}, {"type": "Feature", "properties": {"area_ha": 0.0, "mean": null}, "geometry": {"type": "Polygon", "coordinates": [[[120.59526693055345, 31.41435952], [120.59516163555725, 31.414269056000002], [120.59526693055345, 31.414269056000002], [120.59526693055345, 31.41435952]]]}}, {"type": "Feature", "properties": {"area_ha": 0.0, "mean": null}, "geometry": {"type": "Polygon", "coordinates": [[[120.59421398059136, 31.414269056000002], [120.59410868559515, 31.414178592], [120.59421398059136, 31.414178592], [120.59421398059136, 31.414269056000002]]]}}, {"type": "Feature", "properties": {"area_ha": 0.0, "mean": null}, "geometry": {"type": "Polygon", "coordinates": [[[120.59547752054587, 31.414269056000002], [120.59537222554967, 31.414178592], [120.59547752054587, 31.414178592], [120.59547752054587, 31.414269056000002]]]}}, {"type": "Feature", "properties": {"area_ha": 0.0, "mean": null}, "geometry": {"type": "Polygon", "coordinates": [[[120.59452986557999, 31.413997664], [120.59442457058378, 31.4139072], [120.59452986557999, 31.4139072], [120.59452986557999, 31.413997664]]]}}, {"type": "Feature", "properties": {"area_ha": 0.0, "mean": null}, "geometry": {"type": "Polygon", "coordinates": [[[120.5946351605762, 31.4139072], [120.59452986557999, 31.413816736], [120.5946351605762, 31.413816736], [120.5946351605762, 31.4139072]]]}}, {"type": "Feature", "properties": {"area_ha": 0.0, "mean": null}, "geometry": {"type": "Polygon", "coordinates": [[[120.59610929052313, 31.4139072], [120.59600399552691, 31.413816736], [120.59610929052313, 31.413816736], [120.59610929052313, 31.4139072]]]}}, {"type": "Feature", "properties": {"area_ha": 0.01, "mean": 0.1397}, "geometry": {"type": "Polygon", "coordinates": [[[120.59726753548144, 31.413273952], [120.59705694548902, 31.413183488], [120.59726753548144, 31.413183488], [120.59726753548144, 31.413273952]]]}}, {"type": "Feature", "properties": {"area_ha": 0.03, "mean": 0.1547}, "geometry": {"type": "Polygon", "coordinates": [[[120.59884696042457, 31.412821632], [120.59853107543594, 31.412640704], [120.59884696042457, 31.412640704], [120.59884696042457, 31.412821632]]]}}, {"type": "Feature", "properties": {"area_ha": 0.0, "mean": null}, "geometry": {"type": "Polygon", "coordinates": [[[120.59747812547384, 31.412640704], [120.59737283047764, 31.41255024], [120.59747812547384, 31.41255024], [120.59747812547384, 31.412640704]]]}}, {"type": "Feature", "properties": {"area_ha": 0.01, "mean": 0.1881}, "geometry": {"type": "Polygon", "coordinates": [[[120.54272472744503, 31.412640704], [120.54261943244883, 31.412459776], [120.54272472744503, 31.412459776], [120.54272472744503, 31.412640704]]]}}, {"type": "Feature", "properties": {"area_ha": 0.01, "mean": 0.2235}, "geometry": {"type": "Polygon", "coordinates": [[[120.59768871546626, 31.41255024], [120.59747812547384, 31.412459776], [120.59768871546626, 31.412459776], [120.59768871546626, 31.41255024]]]}}, {"type": "Feature", "properties": {"area_ha": 0.0, "mean": null}, "geometry": {"type": "Polygon", "coordinates": [[[120.59789930545868, 31.412459776], [120.59779401046248, 31.412369312], [120.59789930545868, 31.412369312], [120.59789930545868, 31.412459776]]]}}, {"type": "Feature", "properties": {"area_ha": 0.02, "mean": 0.2915}, "geometry": {"type": "Polygon", "coordinates": [[[120.5982151904473, 31.412369312], [120.5980046004549, 31.412278848], [120.5982151904473, 31.412188384], [120.5982151904473, 31.412369312]]]}}, {"type": "Feature", "properties": {"area_ha": 0.05, "mean": 0.1178}, "geometry": {"type": "Polygon", "coordinates": [[[120.6003210903715, 31.4116456], [120.60000520538287, 31.411555136], [120.60042638536771, 31.411374208], [120.6003210903715, 31.4116456]]]}}, {"type": "Feature", "properties": {"area_ha": 0.16, "mean": 0.1316}, "geometry": {"type": "Polygon", "coordinates": [[[120.59979461539045, 31.411736064], [120.59968932039425, 31.411012352], [120.60011050037907, 31.411012352], [120.59979461539045, 31.411736064]]]}}, {"type": "Feature", "properties": {"area_ha": 0.01, "mean": 0.1417}, "geometry": {"type": "Polygon", "coordinates": [[[120.60084756535254, 31.411012352], [120.60063697536013, 31.410921888], [120.60084756535254, 31.410921888], [120.60084756535254, 31.411012352]]]}}, {"type": "Feature", "properties": {"area_ha": 0.0, "mean": null}, "geometry": {"type": "Polygon", "coordinates": [[[120.60095286034876, 31.410921888], [120.60084756535254, 31.410831424], [120.60095286034876, 31.410831424], [120.60095286034876, 31.410921888]]]}}, {"type": "Feature", "properties": {"area_ha": 0.0, "mean": null}, "geometry": {"type": "Polygon", "coordinates": [[[120.60116345034118, 31.410740960000002], [120.60105815534496, 31.410650496], [120.60116345034118, 31.410650496], [120.60116345034118, 31.410740960000002]]]}}, {"type": "Feature", "properties": {"area_ha": 0.01, "mean": 0.1432}, "geometry": {"type": "Polygon", "coordinates": [[[120.6013740403336, 31.410650496], [120.60126874533738, 31.410469568], [120.6013740403336, 31.410469568], [120.6013740403336, 31.410650496]]]}}, {"type": "Feature", "properties": {"area_ha": 0.0, "mean": null}, "geometry": {"type": "Polygon", "coordinates": [[[120.6014793353298, 31.410469568], [120.6013740403336, 31.410379104], [120.6014793353298, 31.410379104], [120.6014793353298, 31.410469568]]]}}, {"type": "Feature", "properties": {"area_ha": 0.0, "mean": null}, "geometry": {"type": "Polygon", "coordinates": [[[120.59189749067475, 31.410379104], [120.59179219567855, 31.41028864], [120.59189749067475, 31.41028864], [120.59189749067475, 31.410379104]]]}}, {"type": "Feature", "properties": {"area_ha": 0.02, "mean": 0.2285}, "geometry": {"type": "Polygon", "coordinates": [[[120.60168992532222, 31.410379104], [120.601584630326, 31.410198176], [120.60179522031842, 31.410198176], [120.60168992532222, 31.410379104]]]}}, {"type": "Feature", "properties": {"area_ha": 0.0, "mean": null}, "geometry": {"type": "Polygon", "coordinates": [[[120.59158160568613, 31.41028864], [120.59147631068993, 31.410198176], [120.59158160568613, 31.410198176], [120.59158160568613, 31.41028864]]]}}, {"type": "Feature", "properties": {"area_ha": 0.0, "mean": null}, "geometry": {"type": "Polygon", "coordinates": [[[120.59147631068993, 31.410198176], [120.59137101569371, 31.410107712], [120.59147631068993, 31.410107712], [120.59147631068993, 31.410198176]]]}}, {"type": "Feature", "properties": {"area_ha": 0.0, "mean": null}, "geometry": {"type": "Polygon", "coordinates": [[[120.60190051531464, 31.410198176], [120.60179522031842, 31.410107712], [120.60190051531464, 31.410107712], [120.60190051531464, 31.410198176]]]}}, {"type": "Feature", "properties": {"area_ha": 0.01, "mean": 0.1305}, "geometry": {"type": "Polygon", "coordinates": [[[120.60211110530706, 31.410107712], [120.60190051531464, 31.410017248], [120.60211110530706, 31.410017248], [120.60211110530706, 31.410107712]]]}}, {"type": "Feature", "properties": {"area_ha": 0.0, "mean": null}, "geometry": {"type": "Polygon", "coordinates": [[[120.59073924571645, 31.409926784], [120.59063395072025, 31.40983632], [120.59073924571645, 31.40983632], [120.59073924571645, 31.409926784]]]}}, {"type": "Feature", "properties": {"area_ha": 0.03, "mean": 0.227}, "geometry": {"type": "Polygon", "coordinates": [[[120.60242699029568, 31.410017248], [120.60242699029568, 31.409745856], [120.6026375802881, 31.409745856], [120.60242699029568, 31.410017248]]]}}, {"type": "Feature", "properties": {"area_ha": 0.0, "mean": null}, "geometry": {"type": "Polygon", "coordinates": [[[120.6027428752843, 31.409745856], [120.6026375802881, 31.409655392], [120.6027428752843, 31.409655392], [120.6027428752843, 31.409745856]]]}}, {"type": "Feature", "properties": {"area_ha": 0.01, "mean": 0.2502}, "geometry": {"type": "Polygon", "coordinates": [[[120.60305876027294, 31.409655392], [120.60284817028052, 31.409564928], [120.60305876027294, 31.409564928], [120.60305876027294, 31.409655392]]]}}, {"type": "Feature", "properties": {"area_ha": 0.0, "mean": null}, "geometry": {"type": "Polygon", "coordinates": [[[120.59179219567855, 31.409564928], [120.59168690068233, 31.409474464], [120.59179219567855, 31.409474464], [120.59179219567855, 31.409564928]]]}}, {"type": "Feature", "properties": {"area_ha": 0.01, "mean": 0.215}, "geometry": {"type": "Polygon", "coordinates": [[[120.60326935026535, 31.409564928], [120.60305876027294, 31.409474464], [120.60326935026535, 31.409474464], [120.60326935026535, 31.409564928]]]}}, {"type": "Feature", "properties": {"area_ha": 0.0, "mean": null}, "geometry": {"type": "Polygon", "coordinates": [[[120.59200278567097, 31.409384], [120.59189749067475, 31.409293536], [120.59200278567097, 31.409293536], [120.59200278567097, 31.409384]]]}}, {"type": "Feature", "properties": {"area_ha": 0.04, "mean": 0.2724}, "geometry": {"type": "Polygon", "coordinates": [[[120.58652744586809, 31.408569824], [120.58610626588325, 31.408569824], [120.58621156087946, 31.408388896], [120.58652744586809, 31.408569824]]]}}, {"type": "Feature", "properties": {"area_ha": 0.01, "mean": 0.2854}, "geometry": {"type": "Polygon", "coordinates": [[[120.57673501122062, 31.40395616], [120.576419126232, 31.403865696], [120.57673501122062, 31.403865696], [120.57673501122062, 31.40395616]]]}}, {"type": "Feature", "properties": {"area_ha": 0.05, "mean": 0.2685}, "geometry": {"type": "Polygon", "coordinates": [[[120.58652744586809, 31.402870592], [120.58631685587567, 31.402418272], [120.58652744586809, 31.402418272], [120.58652744586809, 31.402870592]]]}}, {"type": "Feature", "properties": {"area_ha": 0.0, "mean": null}, "geometry": {"type": "Polygon", "coordinates": [[[120.54409356239576, 31.399071104], [120.54398826739956, 31.39898064], [120.54409356239576, 31.39898064], [120.54409356239576, 31.399071104]]]}}, {"type": "Feature", "properties": {"area_ha": 0.02, "mean": 0.1062}, "geometry": {"type": "Polygon", "coordinates": [[[120.5445147423806, 31.398437856], [120.54419885739196, 31.398347392], [120.54440944738438, 31.398256928], [120.5445147423806, 31.398437856]]]}}]}