{"type": "FeatureCollection", "features": [{"type": "Feature", "properties": {"area_ha": 0.1, "mean": 0.2846}, "geometry": {"type": "Polygon", "coordinates": [[[120.56294136671721, 31.477051072000002], [120.56252018673237, 31.47677968], [120.56336254670205, 31.476870144], [120.56294136671721, 31.477051072000002]]]}}, {"type": "Feature", "properties": {"area_ha": 0.0, "mean": null}, "geometry": {"type": "Polygon", "coordinates": [[[120.54314590742987, 31.475332256], [120.54304061243367, 31.475241792000002], [120.54314590742987, 31.475241792000002], [120.54314590742987, 31.475332256]]]}}, {"type": "Feature", "properties": {"area_ha": 0.0, "mean": null}, "geometry": {"type": "Polygon", "coordinates": [[[120.54293531743745, 31.475241792000002], [120.54283002244125, 31.475151328], [120.54293531743745, 31.475151328], [120.54293531743745, 31.475241792000002]]]}}, {"type": "Feature", "properties": {"area_ha": 0.0, "mean": null}, "geometry": {"type": "Polygon", "coordinates": [[[120.54283002244125, 31.475151328], [120.54272472744503, 31.475060864], [120.54283002244125, 31.475060864], [120.54283002244125, 31.475151328]]]}}, {"type": "Feature", "properties": {"area_ha": 0.0, "mean": null}, "geometry": {"type": "Polygon", "coordinates": [[[120.54261943244883, 31.4749704], [120.54251413745261, 31.474879936], [120.54261943244883, 31.474879936], [120.54261943244883, 31.4749704]]]}}, {"type": "Feature", "properties": {"area_ha": 0.01, "mean": 0.3259}, "geometry": {"type": "Polygon", "coordinates": [[[120.5797885661107, 31.472980192], [120.57947268112207, 31.472889728000002], [120.5797885661107, 31.472889728000002], [120.5797885661107, 31.472980192]]]}}, {"type": "Feature", "properties": {"area_ha": 0.01, "mean": 0.1429}, "geometry": {"type": "Polygon", "coordinates": [[[120.58178917103866, 31.471442304], [120.58157858104624, 31.47135184], [120.58178917103866, 31.47135184], [120.58178917103866, 31.471442304]]]}}, {"type": "Feature", "properties": {"area_ha": 0.0, "mean": null}, "geometry": {"type": "Polygon", "coordinates": [[[120.53745997763457, 31.470809056], [120.53735468263837, 31.470718592], [120.53745997763457, 31.470718592], [120.53745997763457, 31.470809056]]]}}, {"type": "Feature", "properties": {"area_ha": 0.0, "mean": null}, "geometry": {"type": "Polygon", "coordinates": [[[120.53419583275209, 31.470175808], [120.53409053775589, 31.470085344], [120.53419583275209, 31.470085344], [120.53419583275209, 31.470175808]]]}}, {"type": "Feature", "properties": {"area_ha": 0.0, "mean": null}, "geometry": {"type": "Polygon", "coordinates": [[[120.53377465276725, 31.470085344], [120.53366935777105, 31.46999488], [120.53377465276725, 31.46999488], [120.53377465276725, 31.470085344]]]}}, {"type": "Feature", "properties": {"area_ha": 0.0, "mean": null}, "geometry": {"type": "Polygon", "coordinates": [[[120.6013740403336, 31.457691776], [120.60126874533738, 31.457601312], [120.6013740403336, 31.457601312], [120.6013740403336, 31.457691776]]]}}, {"type": "Feature", "properties": {"area_ha": 0.01, "mean": 0.1172}, "geometry": {"type": "Polygon", "coordinates": [[[120.6013740403336, 31.457510848000002], [120.60126874533738, 31.45732992], [120.6013740403336, 31.45732992], [120.6013740403336, 31.457510848000002]]]}}, {"type": "Feature", "properties": {"area_ha": 0.01, "mean": 0.1773}, "geometry": {"type": "Polygon", "coordinates": [[[120.5969516504928, 31.457420384], [120.59674106050038, 31.45732992], [120.5969516504928, 31.45732992], [120.5969516504928, 31.457420384]]]}}, {"type": "Feature", "properties": {"area_ha": 0.02, "mean": 0.2199}, "geometry": {"type": "Polygon", "coordinates": [[[120.6013740403336, 31.457148992], [120.60126874533738, 31.456787136], [120.6013740403336, 31.456787136], [120.6013740403336, 31.457148992]]]}}, {"type": "Feature", "properties": {"area_ha": 0.01, "mean": 0.1138}, "geometry": {"type": "Polygon", "coordinates": [[[120.60126874533738, 31.456787136], [120.60116345034118, 31.456515744], [120.60126874533738, 31.456515744], [120.60126874533738, 31.456787136]]]}}, {"type": "Feature", "properties": {"area_ha": 0.0, "mean": null}, "geometry": {"type": "Polygon", "coordinates": [[[120.60116345034118, 31.456515744], [120.60105815534496, 31.45642528], [120.60116345034118, 31.45642528], [120.60116345034118, 31.456515744]]]}}, {"type": "Feature", "properties": {"area_ha": 0.0, "mean": null}, "geometry": {"type": "Polygon", "coordinates": [[[120.60105815534496, 31.45642528], [120.60095286034876, 31.456334816000002], [120.60105815534496, 31.456334816000002], [120.60105815534496, 31.45642528]]]}}, {"type": "Feature", "properties": {"area_ha": 0.0, "mean": null}, "geometry": {"type": "Polygon", "coordinates": [[[120.60063697536013, 31.45597296], [120.60053168036391, 31.455882496], [120.60063697536013, 31.455882496], [120.60063697536013, 31.45597296]]]}}, {"type": "Feature", "properties": {"area_ha": 0.12, "mean": 0.1825}, "geometry": {"type": "Polygon", "coordinates": [[[120.60095286034876, 31.455701568000002], [120.60063697536013, 31.455158784], [120.60084756535254, 31.454796928], [120.60095286034876, 31.455701568000002]]]}}, {"type": "Feature", "properties": {"area_ha": 0.0, "mean": null}, "geometry": {"type": "Polygon", "coordinates": [[[120.53714409264595, 31.4478312], [120.53703879764974, 31.447740736], [120.53714409264595, 31.447740736], [120.53714409264595, 31.4478312]]]}}, {"type": "Feature", "properties": {"area_ha": 0.0, "mean": null}, "geometry": {"type": "Polygon", "coordinates": [[[120.53767056762699, 31.445298208], [120.53756527263079, 31.445207744], [120.53767056762699, 31.445207744], [120.53767056762699, 31.445298208]]]}}, {"type": "Feature", "properties": {"area_ha": 0.0, "mean": null}, "geometry": {"type": "Polygon", "coordinates": [[[120.60200581031084, 31.445298208], [120.60190051531464, 31.445207744], [120.60200581031084, 31.445207744], [120.60200581031084, 31.445298208]]]}}, {"type": "Feature", "properties": {"area_ha": 0.01, "mean": 0.1826}, "geometry": {"type": "Polygon", "coordinates": [[[120.60190051531464, 31.445207744], [120.60179522031842, 31.444936352], [120.60190051531464, 31.444936352], [120.60190051531464, 31.445207744]]]}}, {"type": "Feature", "properties": {"area_ha": 0.0, "mean": null}, "geometry": {"type": "Polygon", "coordinates": [[[120.59400339059894, 31.442946144], [120.59389809560274, 31.44285568], [120.59400339059894, 31.44285568], [120.59400339059894, 31.442946144]]]}}, {"type": "Feature", "properties": {"area_ha": 0.02, "mean": 0.1142}, "geometry": {"type": "Polygon", "coordinates": [[[120.59389809560274, 31.44285568], [120.59379280060652, 31.442493824], [120.59389809560274, 31.442493824], [120.59389809560274, 31.44285568]]]}}, {"type": "Feature", "properties": {"area_ha": 0.06, "mean": 0.1584}, "geometry": {"type": "Polygon", "coordinates": [[[120.5935822106141, 31.44240336], [120.59337162062168, 31.442584288], [120.59337162062168, 31.442131968], [120.5935822106141, 31.44240336]]]}}, {"type": "Feature", "properties": {"area_ha": 0.0, "mean": null}, "geometry": {"type": "Polygon", "coordinates": [[[120.58663274086429, 31.441227328], [120.58652744586809, 31.441136864], [120.58663274086429, 31.441136864], [120.58663274086429, 31.441227328]]]}}, {"type": "Feature", "properties": {"area_ha": 0.01, "mean": 0.1641}, "geometry": {"type": "Polygon", "coordinates": [[[120.58694862585293, 31.441136864], [120.58663274086429, 31.4410464], [120.58694862585293, 31.4410464], [120.58694862585293, 31.441136864]]]}}, {"type": "Feature", "properties": {"area_ha": 0.01, "mean": 0.2612}, "geometry": {"type": "Polygon", "coordinates": [[[120.53861822259287, 31.440503616], [120.53851292759667, 31.440322688000002], [120.53861822259287, 31.440322688000002], [120.53861822259287, 31.440503616]]]}}, {"type": "Feature", "properties": {"area_ha": 0.02, "mean": 0.2793}, "geometry": {"type": "Polygon", "coordinates": [[[120.58494802092494, 31.440413152], [120.58473743093253, 31.44014176], [120.58484272592874, 31.44014176], [120.58494802092494, 31.440413152]]]}}, {"type": "Feature", "properties": {"area_ha": 0.01, "mean": 0.1175}, "geometry": {"type": "Polygon", "coordinates": [[[120.58452684094011, 31.440051296], [120.5843162509477, 31.439960832], [120.58452684094011, 31.439960832], [120.58452684094011, 31.440051296]]]}}, {"type": "Feature", "properties": {"area_ha": 0.0, "mean": null}, "geometry": {"type": "Polygon", "coordinates": [[[120.58400036595907, 31.439689440000002], [120.58389507096285, 31.439598976], [120.58400036595907, 31.439598976], [120.58400036595907, 31.439689440000002]]]}}, {"type": "Feature", "properties": {"area_ha": 0.03, "mean": 0.149}, "geometry": {"type": "Polygon", "coordinates": [[[120.5843162509477, 31.439870368], [120.58410566095527, 31.439598976], [120.5843162509477, 31.439598976], [120.5843162509477, 31.439870368]]]}}, {"type": "Feature", "properties": {"area_ha": 0.35, "mean": 0.2615}, "geometry": {"type": "Polygon", "coordinates": [[[120.58515861091736, 31.434442528], [120.58505331592116, 31.433809280000002], [120.58610626588325, 31.433718816], [120.58515861091736, 31.434442528]]]}}, {"type": "Feature", "properties": {"area_ha": 0.12, "mean": 0.147}, "geometry": {"type": "Polygon", "coordinates": [[[120.59916284541319, 31.432995104], [120.59884696042457, 31.432995104], [120.59895225542078, 31.432271392], [120.59916284541319, 31.432995104]]]}}, {"type": "Feature", "properties": {"area_ha": 0.0, "mean": null}, "geometry": {"type": "Polygon", "coordinates": [[[120.59895225542078, 31.432271392], [120.59884696042457, 31.432180928], [120.59895225542078, 31.432180928], [120.59895225542078, 31.432271392]]]}}, {"type": "Feature", "properties": {"area_ha": 0.44, "mean": 0.1873}, "geometry": {"type": "Polygon", "coordinates": [[[120.5888439357847, 31.43290464], [120.58852805079606, 31.432633248000002], [120.58873864078848, 31.432000000000002], [120.58947570576194, 31.43245232], [120.5888439357847, 31.43290464]], [[120.58863334579227, 31.43245232], [120.58873864078848, 31.432633248000002], [120.58873864078848, 31.43245232], [120.58863334579227, 31.43245232]]]}}, {"type": "Feature", "properties": {"area_ha": 0.0, "mean": null}, "geometry": {"type": "Polygon", "coordinates": [[[120.59895225542078, 31.432090464], [120.59884696042457, 31.432000000000002], [120.59895225542078, 31.432000000000002], [120.59895225542078, 31.432090464]]]}}, {"type": "Feature", "properties": {"area_ha": 0.0, "mean": null}, "geometry": {"type": "Polygon", "coordinates": [[[120.51787510833965, 31.43154768], [120.51776981334345, 31.431457216000002], [120.51787510833965, 31.431457216000002], [120.51787510833965, 31.43154768]]]}}, {"type": "Feature", "properties": {"area_ha": 0.12, "mean": 0.2634}, "geometry": {"type": "Polygon", "coordinates": [[[120.59884696042457, 31.431457216000002], [120.59832048544352, 31.431276288], [120.59853107543594, 31.430914432], [120.59884696042457, 31.431457216000002]]]}}, {"type": "Feature", "properties": {"area_ha": 0.0, "mean": null}, "geometry": {"type": "Polygon", "coordinates": [[[120.59895225542078, 31.430914432], [120.59884696042457, 31.430823968000002], [120.59895225542078, 31.430823968000002], [120.59895225542078, 31.430914432]]]}}, {"type": "Feature", "properties": {"area_ha": 0.0, "mean": null}, "geometry": {"type": "Polygon", "coordinates": [[[120.59916284541319, 31.430914432], [120.59905755041699, 31.430823968000002], [120.59916284541319, 31.430823968000002], [120.59916284541319, 31.430914432]]]}}, {"type": "Feature", "properties": {"area_ha": 0.0, "mean": null}, "geometry": {"type": "Polygon", "coordinates": [[[120.60621761015922, 31.42883376], [120.606112315163, 31.428743296], [120.60621761015922, 31.428743296], [120.60621761015922, 31.42883376]]]}}, {"type": "Feature", "properties": {"area_ha": 0.01, "mean": 0.3158}, "geometry": {"type": "Polygon", "coordinates": [[[120.606112315163, 31.428743296], [120.6060070201668, 31.428562368], [120.606112315163, 31.428562368], [120.606112315163, 31.428743296]]]}}, {"type": "Feature", "properties": {"area_ha": 0.0, "mean": null}, "geometry": {"type": "Polygon", "coordinates": [[[120.6060070201668, 31.428562368], [120.60590172517058, 31.428471904000002], [120.6060070201668, 31.428471904000002], [120.6060070201668, 31.428562368]]]}}, {"type": "Feature", "properties": {"area_ha": 0.08, "mean": 0.1507}, "geometry": {"type": "Polygon", "coordinates": [[[120.57231262137984, 31.428743296], [120.571891441395, 31.42883376], [120.57231262137984, 31.42838144], [120.57231262137984, 31.428743296]]]}}, {"type": "Feature", "properties": {"area_ha": 0.0, "mean": null}, "geometry": {"type": "Polygon", "coordinates": [[[120.60569113517816, 31.428290976], [120.60558584018196, 31.428200512], [120.60569113517816, 31.428200512], [120.60569113517816, 31.428290976]]]}}, {"type": "Feature", "properties": {"area_ha": 0.01, "mean": 0.2938}, "geometry": {"type": "Polygon", "coordinates": [[[120.60590172517058, 31.42792912], [120.60579643017438, 31.427657728], [120.60590172517058, 31.427657728], [120.60590172517058, 31.42792912]]]}}, {"type": "Feature", "properties": {"area_ha": 0.0, "mean": null}, "geometry": {"type": "Polygon", "coordinates": [[[120.6071652651251, 31.427657728], [120.60705997012889, 31.427567264], [120.6071652651251, 31.427567264], [120.6071652651251, 31.427657728]]]}}, {"type": "Feature", "properties": {"area_ha": 0.06, "mean": 0.2564}, "geometry": {"type": "Polygon", "coordinates": [[[120.57389204632298, 31.427748192], [120.57347086633814, 31.427657728], [120.57389204632298, 31.4274768], [120.57389204632298, 31.427748192]]]}}, {"type": "Feature", "properties": {"area_ha": 0.0, "mean": null}, "geometry": {"type": "Polygon", "coordinates": [[[120.52187631819561, 31.427567264], [120.52177102319939, 31.4274768], [120.52187631819561, 31.4274768], [120.52187631819561, 31.427567264]]]}}, {"type": "Feature", "properties": {"area_ha": 0.0, "mean": null}, "geometry": {"type": "Polygon", "coordinates": [[[120.57715619120546, 31.4274768], [120.57705089620926, 31.427386336], [120.57715619120546, 31.427386336], [120.57715619120546, 31.4274768]]]}}, {"type": "Feature", "properties": {"area_ha": 0.06, "mean": 0.1601}, "geometry": {"type": "Polygon", "coordinates": [[[120.57694560121304, 31.427386336], [120.57578735625474, 31.427205408], [120.57694560121304, 31.427295872000002], [120.57694560121304, 31.427386336]]]}}, {"type": "Feature", "properties": {"area_ha": 0.0, "mean": null}, "geometry": {"type": "Polygon", "coordinates": [[[120.54072412251706, 31.427205408], [120.54061882752086, 31.427114944], [120.54072412251706, 31.427114944], [120.54072412251706, 31.427205408]]]}}, {"type": "Feature", "properties": {"area_ha": 0.02, "mean": 0.2365}, "geometry": {"type": "Polygon", "coordinates": [[[120.57568206125853, 31.427295872000002], [120.57536617626991, 31.427114944], [120.57568206125853, 31.427205408], [120.57568206125853, 31.427295872000002]]]}}, {"type": "Feature", "properties": {"area_ha": 0.01, "mean": 0.2168}, "geometry": {"type": "Polygon", "coordinates": [[[120.57473440629265, 31.426934016], [120.57462911129645, 31.42702448], [120.57452381630023, 31.426934016], [120.57473440629265, 31.426934016]]]}}, {"type": "Feature", "properties": {"area_ha": 0.03, "mean": 0.2283}, "geometry": {"type": "Polygon", "coordinates": [[[120.57536617626991, 31.427114944], [120.57483970128887, 31.426934016], [120.57536617626991, 31.42702448], [120.57536617626991, 31.427114944]]]}}, {"type": "Feature", "properties": {"area_ha": 0.01, "mean": 0.3017}, "geometry": {"type": "Polygon", "coordinates": [[[120.5411453025019, 31.425305664], [120.54104000750569, 31.425124736], [120.5411453025019, 31.425124736], [120.5411453025019, 31.425305664]]]}}, {"type": "Feature", "properties": {"area_ha": 0.0, "mean": null}, "geometry": {"type": "Polygon", "coordinates": [[[120.59926814040941, 31.425034272], [120.59916284541319, 31.424943808000002], [120.59926814040941, 31.424943808000002], [120.59926814040941, 31.425034272]]]}}, {"type": "Feature", "properties": {"area_ha": 0.01, "mean": 0.2523}, "geometry": {"type": "Polygon", "coordinates": [[[120.5411453025019, 31.424853344], [120.54104000750569, 31.424672416], [120.5411453025019, 31.424672416], [120.5411453025019, 31.424853344]]]}}, {"type": "Feature", "properties": {"area_ha": 0.0, "mean": null}, "geometry": {"type": "Polygon", "coordinates": [[[120.54051353252464, 31.424581952], [120.54040823752844, 31.424491488], [120.54051353252464, 31.424491488], [120.54051353252464, 31.424581952]]]}}, {"type": "Feature", "properties": {"area_ha": 0.0, "mean": null}, "geometry": {"type": "Polygon", "coordinates": [[[120.58147328605004, 31.424220096], [120.58136799105384, 31.424129632], [120.58147328605004, 31.424129632], [120.58147328605004, 31.424220096]]]}}, {"type": "Feature", "properties": {"area_ha": 0.0, "mean": null}, "geometry": {"type": "Polygon", "coordinates": [[[120.58157858104624, 31.424129632], [120.58147328605004, 31.424039168], [120.58157858104624, 31.424039168], [120.58157858104624, 31.424129632]]]}}, {"type": "Feature", "properties": {"area_ha": 0.0, "mean": null}, "geometry": {"type": "Polygon", "coordinates": [[[120.58168387604246, 31.424039168], [120.58157858104624, 31.423948704], [120.58168387604246, 31.423948704], [120.58168387604246, 31.424039168]]]}}, {"type": "Feature", "properties": {"area_ha": 0.0, "mean": null}, "geometry": {"type": "Polygon", "coordinates": [[[120.58199976103108, 31.42385824], [120.58189446603488, 31.423767776000002], [120.58199976103108, 31.423767776000002], [120.58199976103108, 31.42385824]]]}}, {"type": "Feature", "properties": {"area_ha": 0.0, "mean": null}, "geometry": {"type": "Polygon", "coordinates": [[[120.54862124723276, 31.423767776000002], [120.54851595223654, 31.423677312], [120.54862124723276, 31.423677312], [120.54862124723276, 31.423767776000002]]]}}, {"type": "Feature", "properties": {"area_ha": 0.0, "mean": null}, "geometry": {"type": "Polygon", "coordinates": [[[120.5822103510235, 31.423677312], [120.5821050560273, 31.423586848], [120.5822103510235, 31.423586848], [120.5822103510235, 31.423677312]]]}}, {"type": "Feature", "properties": {"area_ha": 0.0, "mean": null}, "geometry": {"type": "Polygon", "coordinates": [[[120.58231564601972, 31.423586848], [120.5822103510235, 31.423496384], [120.58231564601972, 31.423496384], [120.58231564601972, 31.423586848]]]}}, {"type": "Feature", "properties": {"area_ha": 0.0, "mean": null}, "geometry": {"type": "Polygon", "coordinates": [[[120.54851595223654, 31.423496384], [120.54841065724034, 31.42340592], [120.54851595223654, 31.42340592], [120.54851595223654, 31.423496384]]]}}, {"type": "Feature", "properties": {"area_ha": 0.0, "mean": null}, "geometry": {"type": "Polygon", "coordinates": [[[120.58242094101593, 31.423496384], [120.58231564601972, 31.42340592], [120.58242094101593, 31.42340592], [120.58242094101593, 31.423496384]]]}}, {"type": "Feature", "properties": {"area_ha": 0.0, "mean": null}, "geometry": {"type": "Polygon", "coordinates": [[[120.54851595223654, 31.423315456], [120.54841065724034, 31.423224992], [120.54851595223654, 31.423224992], [120.54851595223654, 31.423315456]]]}}, {"type": "Feature", "properties": {"area_ha": 0.02, "mean": 0.1249}, "geometry": {"type": "Polygon", "coordinates": [[[120.54893713222138, 31.423224992], [120.54851595223654, 31.423134528000002], [120.54893713222138, 31.423134528000002], [120.54893713222138, 31.423224992]]]}}, {"type": "Feature", "properties": {"area_ha": 0.0, "mean": null}, "geometry": {"type": "Polygon", "coordinates": [[[120.57905150113723, 31.423224992], [120.57894620614103, 31.423134528000002], [120.57905150113723, 31.423134528000002], [120.57905150113723, 31.423224992]]]}}, {"type": "Feature", "properties": {"area_ha": 0.05, "mean": 0.114}, "geometry": {"type": "Polygon", "coordinates": [[[120.54967419719485, 31.4229536], [120.5491477222138, 31.4229536], [120.54967419719485, 31.422772672], [120.54967419719485, 31.4229536]]]}}, {"type": "Feature", "properties": {"area_ha": 0.0, "mean": null}, "geometry": {"type": "Polygon", "coordinates": [[[120.58326330098559, 31.422863136], [120.58315800598939, 31.422772672], [120.58326330098559, 31.422772672], [120.58326330098559, 31.422863136]]]}}, {"type": "Feature", "properties": {"area_ha": 0.0, "mean": null}, "geometry": {"type": "Polygon", "coordinates": [[[120.58031504109174, 31.42250128], [120.58020974609553, 31.422410816], [120.58031504109174, 31.422410816], [120.58031504109174, 31.42250128]]]}}, {"type": "Feature", "properties": {"area_ha": 0.03, "mean": 0.1096}, "geometry": {"type": "Polygon", "coordinates": [[[120.58063092608037, 31.422410816], [120.58063092608037, 31.422139424], [120.58084151607278, 31.422139424], [120.58063092608037, 31.422410816]]]}}, {"type": "Feature", "properties": {"area_ha": 0.02, "mean": 0.1006}, "geometry": {"type": "Polygon", "coordinates": [[[120.54977949219106, 31.422320352], [120.54967419719485, 31.422410816], [120.54935831220622, 31.422139424], [120.54977949219106, 31.422320352]]]}}, {"type": "Feature", "properties": {"area_ha": 0.02, "mean": 0.4306}, "geometry": {"type": "Polygon", "coordinates": [[[120.5934769156179, 31.422229888], [120.59326632562548, 31.422320352], [120.59326632562548, 31.422139424], [120.5934769156179, 31.422229888]]]}}, {"type": "Feature", "properties": {"area_ha": 0.0, "mean": null}, "geometry": {"type": "Polygon", "coordinates": [[[120.54999008218347, 31.422229888], [120.54988478718727, 31.422139424], [120.54999008218347, 31.422139424], [120.54999008218347, 31.422229888]]]}}, {"type": "Feature", "properties": {"area_ha": 0.01, "mean": 0.1295}, "geometry": {"type": "Polygon", "coordinates": [[[120.54967419719485, 31.422139424], [120.54956890219864, 31.421958496000002], [120.54967419719485, 31.421958496000002], [120.54967419719485, 31.422139424]]]}}, {"type": "Feature", "properties": {"area_ha": 0.01, "mean": 0.1175}, "geometry": {"type": "Polygon", "coordinates": [[[120.54977949219106, 31.421958496000002], [120.54967419719485, 31.421777568], [120.54977949219106, 31.421777568], [120.54977949219106, 31.421958496000002]]]}}, {"type": "Feature", "properties": {"area_ha": 0.0, "mean": null}, "geometry": {"type": "Polygon", "coordinates": [[[120.58421095595148, 31.421868032], [120.58410566095527, 31.421777568], [120.58421095595148, 31.421777568], [120.58421095595148, 31.421868032]]]}}, {"type": "Feature", "properties": {"area_ha": 0.03, "mean": 0.1189}, "geometry": {"type": "Polygon", "coordinates": [[[120.54999008218347, 31.421777568], [120.54999008218347, 31.421506176], [120.55020067217589, 31.421506176], [120.54999008218347, 31.421777568]]]}}, {"type": "Feature", "properties": {"area_ha": 0.02, "mean": 0.1325}, "geometry": {"type": "Polygon", "coordinates": [[[120.55030596717211, 31.421325248], [120.55009537717969, 31.421234784], [120.55030596717211, 31.42114432], [120.55030596717211, 31.421325248]]]}}, {"type": "Feature", "properties": {"area_ha": 0.01, "mean": 0.1897}, "geometry": {"type": "Polygon", "coordinates": [[[120.54230354746021, 31.421234784], [120.54219825246399, 31.420963392], [120.54230354746021, 31.420963392], [120.54230354746021, 31.421234784]]]}}, {"type": "Feature", "properties": {"area_ha": 0.01, "mean": 0.2753}, "geometry": {"type": "Polygon", "coordinates": [[[120.5412505974981, 31.420963392], [120.5411453025019, 31.420692], [120.5412505974981, 31.420692], [120.5412505974981, 31.420963392]]]}}, {"type": "Feature", "properties": {"area_ha": 0.0, "mean": null}, "geometry": {"type": "Polygon", "coordinates": [[[120.54419885739196, 31.420782464000002], [120.54409356239576, 31.420692], [120.54419885739196, 31.420692], [120.54419885739196, 31.420782464000002]]]}}, {"type": "Feature", "properties": {"area_ha": 0.0, "mean": null}, "geometry": {"type": "Polygon", "coordinates": [[[120.55051655716453, 31.420782464000002], [120.55041126216831, 31.420692], [120.55051655716453, 31.420692], [120.55051655716453, 31.420782464000002]]]}}, {"type": "Feature", "properties": {"area_ha": 0.0, "mean": null}, "geometry": {"type": "Polygon", "coordinates": [[[120.58600097088704, 31.420782464000002], [120.58589567589082, 31.420692], [120.58600097088704, 31.420692], [120.58600097088704, 31.420782464000002]]]}}, {"type": "Feature", "properties": {"area_ha": 0.0, "mean": null}, "geometry": {"type": "Polygon", "coordinates": [[[120.58610626588325, 31.420692], [120.58600097088704, 31.420601536], [120.58610626588325, 31.420601536], [120.58610626588325, 31.420692]]]}}, {"type": "Feature", "properties": {"area_ha": 0.0, "mean": null}, "geometry": {"type": "Polygon", "coordinates": [[[120.58652744586809, 31.420511072], [120.58642215087188, 31.420420608], [120.58652744586809, 31.420420608], [120.58652744586809, 31.420511072]]]}}, {"type": "Feature", "properties": {"area_ha": 0.0, "mean": null}, "geometry": {"type": "Polygon", "coordinates": [[[120.5867380358605, 31.420420608], [120.58663274086429, 31.420330144], [120.5867380358605, 31.420330144], [120.5867380358605, 31.420420608]]]}}, {"type": "Feature", "properties": {"area_ha": 0.01, "mean": 0.2778}, "geometry": {"type": "Polygon", "coordinates": [[[120.58694862585293, 31.420330144], [120.5867380358605, 31.42023968], [120.58694862585293, 31.42023968], [120.58694862585293, 31.420330144]]]}}, {"type": "Feature", "properties": {"area_ha": 0.0, "mean": null}, "geometry": {"type": "Polygon", "coordinates": [[[120.55051655716453, 31.42023968], [120.55041126216831, 31.420149216], [120.55051655716453, 31.420149216], [120.55051655716453, 31.42023968]]]}}, {"type": "Feature", "properties": {"area_ha": 0.01, "mean": 0.3471}, "geometry": {"type": "Polygon", "coordinates": [[[120.58747510083397, 31.42023968], [120.58715921584535, 31.420149216], [120.58747510083397, 31.420149216], [120.58747510083397, 31.42023968]]]}}, {"type": "Feature", "properties": {"area_ha": 0.0, "mean": null}, "geometry": {"type": "Polygon", "coordinates": [[[120.5434617924185, 31.420149216], [120.5433564974223, 31.420058752], [120.5434617924185, 31.420058752], [120.5434617924185, 31.420149216]]]}}, {"type": "Feature", "properties": {"area_ha": 0.09, "mean": 0.2417}, "geometry": {"type": "Polygon", "coordinates": [[[120.58421095595148, 31.41978736], [120.58347389097801, 31.420058752], [120.58400036595907, 31.419606432000002], [120.58421095595148, 31.41978736]]]}}, {"type": "Feature", "properties": {"area_ha": 0.0, "mean": null}, "geometry": {"type": "Polygon", "coordinates": [[[120.5445147423806, 31.419606432000002], [120.54440944738438, 31.419515968], [120.5445147423806, 31.419515968], [120.5445147423806, 31.419606432000002]]]}}, {"type": "Feature", "properties": {"area_ha": 0.03, "mean": 0.2691}, "geometry": {"type": "Polygon", "coordinates": [[[120.58473743093253, 31.419696896], [120.58463213593632, 31.419425504], [120.58484272592874, 31.419425504], [120.58473743093253, 31.419696896]]]}}, {"type": "Feature", "properties": {"area_ha": 0.0, "mean": null}, "geometry": {"type": "Polygon", "coordinates": [[[120.58515861091736, 31.419244576], [120.58505331592116, 31.419154112], [120.58515861091736, 31.419154112], [120.58515861091736, 31.419244576]]]}}, {"type": "Feature", "properties": {"area_ha": 0.0, "mean": null}, "geometry": {"type": "Polygon", "coordinates": [[[120.58536920090978, 31.419154112], [120.58526390591358, 31.419063648], [120.58536920090978, 31.419063648], [120.58536920090978, 31.419154112]]]}}, {"type": "Feature", "properties": {"area_ha": 0.0, "mean": null}, "geometry": {"type": "Polygon", "coordinates": [[[120.585474495906, 31.419063648], [120.58536920090978, 31.418973184], [120.585474495906, 31.418973184], [120.585474495906, 31.419063648]]]}}, {"type": "Feature", "properties": {"area_ha": 0.0, "mean": null}, "geometry": {"type": "Polygon", "coordinates": [[[120.54325120242609, 31.418973184], [120.54314590742987, 31.41888272], [120.54325120242609, 31.41888272], [120.54325120242609, 31.418973184]]]}}, {"type": "Feature", "properties": {"area_ha": 0.01, "mean": 0.2384}, "geometry": {"type": "Polygon", "coordinates": [[[120.58600097088704, 31.418973184], [120.58579038089462, 31.41888272], [120.58600097088704, 31.41888272], [120.58600097088704, 31.418973184]]]}}, {"type": "Feature", "properties": {"area_ha": 0.0, "mean": null}, "geometry": {"type": "Polygon", "coordinates": [[[120.58610626588325, 31.41888272], [120.58600097088704, 31.418792256], [120.58610626588325, 31.418792256], [120.58610626588325, 31.41888272]]]}}, {"type": "Feature", "properties": {"area_ha": 0.0, "mean": null}, "geometry": {"type": "Polygon", "coordinates": [[[120.58621156087946, 31.418792256], [120.58610626588325, 31.418701792], [120.58621156087946, 31.418701792], [120.58621156087946, 31.418792256]]]}}, {"type": "Feature", "properties": {"area_ha": 0.0, "mean": null}, "geometry": {"type": "Polygon", "coordinates": [[[120.58958100075816, 31.418792256], [120.58947570576194, 31.418701792], [120.58958100075816, 31.418701792], [120.58958100075816, 31.418792256]]]}}, {"type": "Feature", "properties": {"area_ha": 0.0, "mean": null}, "geometry": {"type": "Polygon", "coordinates": [[[120.58968629575436, 31.418701792], [120.58958100075816, 31.418611328], [120.58968629575436, 31.418611328], [120.58968629575436, 31.418701792]]]}}, {"type": "Feature", "properties": {"area_ha": 0.0, "mean": null}, "geometry": {"type": "Polygon", "coordinates": [[[120.58979159075058, 31.418611328], [120.58968629575436, 31.418520864], [120.58979159075058, 31.418520864], [120.58979159075058, 31.418611328]]]}}, {"type": "Feature", "properties": {"area_ha": 0.01, "mean": 0.2596}, "geometry": {"type": "Polygon", "coordinates": [[[120.58631685587567, 31.418701792], [120.58621156087946, 31.418430400000002], [120.58631685587567, 31.418430400000002], [120.58631685587567, 31.418701792]]]}}, {"type": "Feature", "properties": {"area_ha": 0.01, "mean": 0.2455}, "geometry": {"type": "Polygon", "coordinates": [[[120.58652744586809, 31.418430400000002], [120.58631685587567, 31.418339936], [120.58652744586809, 31.418339936], [120.58652744586809, 31.418430400000002]]]}}, {"type": "Feature", "properties": {"area_ha": 0.0, "mean": null}, "geometry": {"type": "Polygon", "coordinates": [[[120.5902127707354, 31.418339936], [120.5901074757392, 31.418249472], [120.5902127707354, 31.418249472], [120.5902127707354, 31.418339936]]]}}, {"type": "Feature", "properties": {"area_ha": 0.03, "mean": 0.3187}, "geometry": {"type": "Polygon", "coordinates": [[[120.58694862585293, 31.418339936], [120.58663274086429, 31.418249472], [120.58705392084913, 31.418159008], [120.58694862585293, 31.418339936]]]}}, {"type": "Feature", "properties": {"area_ha": 0.0, "mean": null}, "geometry": {"type": "Polygon", "coordinates": [[[120.59052865572404, 31.418159008], [120.59042336072783, 31.418068544], [120.59052865572404, 31.418068544], [120.59052865572404, 31.418159008]]]}}, {"type": "Feature", "properties": {"area_ha": 0.0, "mean": null}, "geometry": {"type": "Polygon", "coordinates": [[[120.59073924571645, 31.418068544], [120.59063395072025, 31.41797808], [120.59073924571645, 31.41797808], [120.59073924571645, 31.418068544]]]}}, {"type": "Feature", "properties": {"area_ha": 0.0, "mean": null}, "geometry": {"type": "Polygon", "coordinates": [[[120.59094983570887, 31.41797808], [120.59084454071267, 31.417887616], [120.59094983570887, 31.417887616], [120.59094983570887, 31.41797808]]]}}, {"type": "Feature", "properties": {"area_ha": 0.0, "mean": null}, "geometry": {"type": "Polygon", "coordinates": [[[120.59105513070509, 31.417887616], [120.59094983570887, 31.417797152], [120.59105513070509, 31.417797152], [120.59105513070509, 31.417887616]]]}}, {"type": "Feature", "properties": {"area_ha": 0.0, "mean": null}, "geometry": {"type": "Polygon", "coordinates": [[[120.5888439357847, 31.41752576], [120.58873864078848, 31.417435296], [120.5888439357847, 31.417435296], [120.5888439357847, 31.41752576]]]}}, {"type": "Feature", "properties": {"area_ha": 0.04, "mean": 0.112}, "geometry": {"type": "Polygon", "coordinates": [[[120.59094983570887, 31.417616224], [120.59063395072025, 31.417435296], [120.59105513070509, 31.417435296], [120.59094983570887, 31.417616224]]]}}, {"type": "Feature", "properties": {"area_ha": 0.24, "mean": 0.1845}, "geometry": {"type": "Polygon", "coordinates": [[[120.59168690068233, 31.417616224], [120.59105513070509, 31.417163904], [120.59189749067475, 31.41707344], [120.59168690068233, 31.417616224]]]}}, {"type": "Feature", "properties": {"area_ha": 0.0, "mean": null}, "geometry": {"type": "Polygon", "coordinates": [[[120.5398817625474, 31.416982976], [120.53977646755118, 31.416892512], [120.5398817625474, 31.416892512], [120.5398817625474, 31.416982976]]]}}, {"type": "Feature", "properties": {"area_ha": 0.0, "mean": null}, "geometry": {"type": "Polygon", "coordinates": [[[120.59000218074299, 31.416982976], [120.58989688574678, 31.416892512], [120.59000218074299, 31.416892512], [120.59000218074299, 31.416982976]]]}}, {"type": "Feature", "properties": {"area_ha": 0.01, "mean": 0.2545}, "geometry": {"type": "Polygon", "coordinates": [[[120.59221337566339, 31.416892512], [120.59210808066717, 31.416711584], [120.59221337566339, 31.416711584], [120.59221337566339, 31.416892512]]]}}, {"type": "Feature", "properties": {"area_ha": 0.0, "mean": null}, "geometry": {"type": "Polygon", "coordinates": [[[120.59042336072783, 31.41662112], [120.59031806573162, 31.416530656], [120.59042336072783, 31.416530656], [120.59042336072783, 31.41662112]]]}}, {"type": "Feature", "properties": {"area_ha": 0.0, "mean": null}, "geometry": {"type": "Polygon", "coordinates": [[[120.5923186706596, 31.41662112], [120.59221337566339, 31.416530656], [120.5923186706596, 31.416530656], [120.5923186706596, 31.41662112]]]}}, {"type": "Feature", "properties": {"area_ha": 0.0, "mean": null}, "geometry": {"type": "Polygon", "coordinates": [[[120.54135589249432, 31.416530656], [120.5412505974981, 31.416440192], [120.54135589249432, 31.416440192], [120.54135589249432, 31.416530656]]]}}, {"type": "Feature", "properties": {"area_ha": 0.0, "mean": null}, "geometry": {"type": "Polygon", "coordinates": [[[120.59052865572404, 31.416530656], [120.59042336072783, 31.416440192], [120.59052865572404, 31.416440192], [120.59052865572404, 31.416530656]]]}}, {"type": "Feature", "properties": {"area_ha": 0.0, "mean": null}, "geometry": {"type": "Polygon", "coordinates": [[[120.5924239656558, 31.416530656], [120.5923186706596, 31.416440192], [120.5924239656558, 31.416440192], [120.5924239656558, 31.416530656]]]}}, {"type": "Feature", "properties": {"area_ha": 0.0, "mean": null}, "geometry": {"type": "Polygon", "coordinates": [[[120.54272472744503, 31.416349728], [120.54261943244883, 31.416259264], [120.54272472744503, 31.416259264], [120.54272472744503, 31.416349728]]]}}, {"type": "Feature", "properties": {"area_ha": 0.0, "mean": null}, "geometry": {"type": "Polygon", "coordinates": [[[120.59084454071267, 31.416349728], [120.59073924571645, 31.416259264], [120.59084454071267, 31.416259264], [120.59084454071267, 31.416349728]]]}}, {"type": "Feature", "properties": {"area_ha": 0.0, "mean": null}, "geometry": {"type": "Polygon", "coordinates": [[[120.59094983570887, 31.416259264], [120.59084454071267, 31.4161688], [120.59094983570887, 31.4161688], [120.59094983570887, 31.416259264]]]}}, {"type": "Feature", "properties": {"area_ha": 0.0, "mean": null}, "geometry": {"type": "Polygon", "coordinates": [[[120.59105513070509, 31.4161688], [120.59094983570887, 31.416078336], [120.59105513070509, 31.416078336], [120.59105513070509, 31.4161688]]]}}, {"type": "Feature", "properties": {"area_ha": 0.0, "mean": null}, "geometry": {"type": "Polygon", "coordinates": [[[120.59284514564064, 31.4161688], [120.59273985064443, 31.416078336], [120.59284514564064, 31.416078336], [120.59284514564064, 31.4161688]]]}}, {"type": "Feature", "properties": {"area_ha": 0.0, "mean": null}, "geometry": {"type": "Polygon", "coordinates": [[[120.54261943244883, 31.416078336], [120.54251413745261, 31.415987872], [120.54261943244883, 31.415987872], [120.54261943244883, 31.416078336]]]}}, {"type": "Feature", "properties": {"area_ha": 0.0, "mean": null}, "geometry": {"type": "Polygon", "coordinates": [[[120.59116042570129, 31.416078336], [120.59105513070509, 31.415987872], [120.59116042570129, 31.415987872], [120.59116042570129, 31.416078336]]]}}, {"type": "Feature", "properties": {"area_ha": 0.01, "mean": 0.1434}, "geometry": {"type": "Polygon", "coordinates": [[[120.59305573563306, 31.416078336], [120.59295044063686, 31.415897408], [120.59305573563306, 31.415897408], [120.59305573563306, 31.416078336]]]}}, {"type": "Feature", "properties": {"area_ha": 0.01, "mean": 0.2233}, "geometry": {"type": "Polygon", "coordinates": [[[120.59147631068993, 31.415987872], [120.59116042570129, 31.415897408], [120.59147631068993, 31.415897408], [120.59147631068993, 31.415987872]]]}}, {"type": "Feature", "properties": {"area_ha": 0.02, "mean": 0.2674}, "geometry": {"type": "Polygon", "coordinates": [[[120.59168690068233, 31.415897408], [120.59158160568613, 31.41571648], [120.59179219567855, 31.41571648], [120.59168690068233, 31.415897408]]]}}, {"type": "Feature", "properties": {"area_ha": 0.0, "mean": null}, "geometry": {"type": "Polygon", "coordinates": [[[120.54261943244883, 31.415806944], [120.54251413745261, 31.41571648], [120.54261943244883, 31.41571648], [120.54261943244883, 31.415806944]]]}}, {"type": "Feature", "properties": {"area_ha": 0.04, "mean": 0.1175}, "geometry": {"type": "Polygon", "coordinates": [[[120.54261943244883, 31.415354624], [120.54240884245641, 31.415535552], [120.54240884245641, 31.41526416], [120.54261943244883, 31.415354624]]]}}, {"type": "Feature", "properties": {"area_ha": 0.0, "mean": null}, "geometry": {"type": "Polygon", "coordinates": [[[120.5946351605762, 31.414721376], [120.59452986557999, 31.414630912], [120.5946351605762, 31.414630912], [120.5946351605762, 31.414721376]]]}}, {"type": "Feature", "properties": {"area_ha": 0.0, "mean": null}, "geometry": {"type": "Polygon", "coordinates": [[[120.5947404555724, 31.414630912], [120.5946351605762, 31.414540448], [120.5947404555724, 31.414540448], [120.5947404555724, 31.414630912]]]}}, {"type": "Feature", "properties": {"area_ha": 0.0, "mean": null}, "geometry": {"type": "Polygon", "coordinates": [[[120.59389809560274, 31.414540448], [120.59379280060652, 31.414449984], [120.59389809560274, 31.414449984], [120.59389809560274, 31.414540448]]]}}, {"type": "Feature", "properties": {"area_ha": 0.0, "mean": null}, "geometry": {"type": "Polygon", "coordinates": [[[120.59505634056103, 31.414540448], [120.59495104556483, 31.414449984], [120.59505634056103, 31.414449984], [120.59505634056103, 31.414540448]]]}}, {"type": "Feature", "properties": {"area_ha": 0.0, "mean": null}, "geometry": {"type": "Polygon", "coordinates": [[[120.54283002244125, 31.414449984], [120.54272472744503, 31.41435952], [120.54283002244125, 31.41435952], [120.54283002244125, 31.414449984]]]}}, {"type": "Feature", "properties": {"area_ha": 0.0, "mean": null}, "geometry": {"type": "Polygon", "coordinates": [[[120.59400339059894, 31.414449984], [120.59389809560274, 31.41435952], [120.59400339059894, 31.41435952], [120.59400339059894, 31.414449984]]]}}, {"type": "Feature", "properties": {"area_ha": 0.0, "mean": null}, "geometry": {"type": "Polygon", "coordinates": [[[120.59516163555725, 31.414449984], [120.59505634056103, 31.41435952], [120.59516163555725, 31.41435952], [120.59516163555725, 31.414449984]]]}}, {"type": "Feature", "properties": {"area_ha": 0.0, "mean": null}, "geometry": {"type": "Polygon", "coordinates": [[[120.59410868559515, 31.41435952], [120.59400339059894, 31.414269056000002], [120.59410868559515, 31.414269056000002], [120.59410868559515, 31.41435952]]]}}, {"type": "Feature", "properties": {"area_ha": 0.0, "mean": null}, "geometry": {"type": "Polygon", "coordinates": [[[120.59526693055345, 31.41435952], [120.59516163555725, 31.414269056000002], [120.59526693055345, 31.414269056000002], [120.59526693055345, 31.41435952]]]}}, {"type": "Feature", "properties": {"area_ha": 0.0, "mean": null}, "geometry": {"type": "Polygon", "coordinates": [[[120.59421398059136, 31.414269056000002], [120.59410868559515, 31.414178592], [120.59421398059136, 31.414178592], [120.59421398059136, 31.414269056000002]]]}}, {"type": "Feature", "properties": {"area_ha": 0.0, "mean": null}, "geometry": {"type": "Polygon", "coordinates": [[[120.59547752054587, 31.414269056000002], [120.59537222554967, 31.414178592], [120.59547752054587, 31.414178592], [120.59547752054587, 31.414269056000002]]]}}, {"type": "Feature", "properties": {"area_ha": 0.0, "mean": null}, "geometry": {"type": "Polygon", "coordinates": [[[120.59431927558757, 31.414178592], [120.59421398059136, 31.414088128], [120.59431927558757, 31.414088128], [120.59431927558757, 31.414178592]]]}}, {"type": "Feature", "properties": {"area_ha": 0.0, "mean": null}, "geometry": {"type": "Polygon", "coordinates": [[[120.54230354746021, 31.413997664], [120.54219825246399, 31.4139072], [120.54230354746021, 31.4139072], [120.54230354746021, 31.413997664]]]}}, {"type": "Feature", "properties": {"area_ha": 0.0, "mean": null}, "geometry": {"type": "Polygon", "coordinates": [[[120.59452986557999, 31.413997664], [120.59442457058378, 31.4139072], [120.59452986557999, 31.4139072], [120.59452986557999, 31.413997664]]]}}, {"type": "Feature", "properties": {"area_ha": 0.0, "mean": null}, "geometry": {"type": "Polygon", "coordinates": [[[120.59589870053071, 31.413997664], [120.5957934055345, 31.4139072], [120.59589870053071, 31.4139072], [120.59589870053071, 31.413997664]]]}}, {"type": "Feature", "properties": {"area_ha": 0.0, "mean": null}, "geometry": {"type": "Polygon", "coordinates": [[[120.5946351605762, 31.4139072], [120.59452986557999, 31.413816736], [120.5946351605762, 31.413816736], [120.5946351605762, 31.4139072]]]}}, {"type": "Feature", "properties": {"area_ha": 0.0, "mean": null}, "geometry": {"type": "Polygon", "coordinates": [[[120.59610929052313, 31.4139072], [120.59600399552691, 31.413816736], [120.59610929052313, 31.413816736], [120.59610929052313, 31.4139072]]]}}, {"type": "Feature", "properties": {"area_ha": 0.0, "mean": null}, "geometry": {"type": "Polygon", "coordinates": [[[120.59495104556483, 31.413726272], [120.59484575056861, 31.413635808], [120.59495104556483, 31.413635808], [120.59495104556483, 31.413726272]]]}}, {"type": "Feature", "properties": {"area_ha": 0.0, "mean": null}, "geometry": {"type": "Polygon", "coordinates": [[[120.59642517551175, 31.413726272], [120.59631988051555, 31.413635808], [120.59642517551175, 31.413635808], [120.59642517551175, 31.413726272]]]}}, {"type": "Feature", "properties": {"area_ha": 0.01, "mean": 0.1357}, "geometry": {"type": "Polygon", "coordinates": [[[120.54251413745261, 31.41345488], [120.54240884245641, 31.413273952], [120.54251413745261, 31.413273952], [120.54251413745261, 31.41345488]]]}}, {"type": "Feature", "properties": {"area_ha": 0.0, "mean": null}, "geometry": {"type": "Polygon", "coordinates": [[[120.59705694548902, 31.413364416], [120.5969516504928, 31.413273952], [120.59705694548902, 31.413273952], [120.59705694548902, 31.413364416]]]}}, {"type": "Feature", "properties": {"area_ha": 0.01, "mean": 0.1397}, "geometry": {"type": "Polygon", "coordinates": [[[120.59726753548144, 31.413273952], [120.59705694548902, 31.413183488], [120.59726753548144, 31.413183488], [120.59726753548144, 31.413273952]]]}}, {"type": "Feature", "properties": {"area_ha": 0.0, "mean": null}, "geometry": {"type": "Polygon", "coordinates": [[[120.54304061243367, 31.413093024000002], [120.54293531743745, 31.41300256], [120.54304061243367, 31.41300256], [120.54304061243367, 31.413093024000002]]]}}, {"type": "Feature", "properties": {"area_ha": 0.01, "mean": 0.1996}, "geometry": {"type": "Polygon", "coordinates": [[[120.54251413745261, 31.413183488], [120.54240884245641, 31.412912096], [120.54251413745261, 31.412912096], [120.54251413745261, 31.413183488]]]}}, {"type": "Feature", "properties": {"area_ha": 0.0, "mean": null}, "geometry": {"type": "Polygon", "coordinates": [[[120.54314590742987, 31.41300256], [120.54304061243367, 31.412912096], [120.54314590742987, 31.412912096], [120.54314590742987, 31.41300256]]]}}, {"type": "Feature", "properties": {"area_ha": 0.0, "mean": null}, "geometry": {"type": "Polygon", "coordinates": [[[120.59726753548144, 31.412731168], [120.59716224048522, 31.412640704], [120.59726753548144, 31.412640704], [120.59726753548144, 31.412731168]]]}}, {"type": "Feature", "properties": {"area_ha": 0.04, "mean": 0.1539}, "geometry": {"type": "Polygon", "coordinates": [[[120.59884696042457, 31.412821632], [120.59842578043973, 31.412640704], [120.59884696042457, 31.412640704], [120.59884696042457, 31.412821632]]]}}, {"type": "Feature", "properties": {"area_ha": 0.0, "mean": null}, "geometry": {"type": "Polygon", "coordinates": [[[120.59747812547384, 31.412640704], [120.59737283047764, 31.41255024], [120.59747812547384, 31.41255024], [120.59747812547384, 31.412640704]]]}}, {"type": "Feature", "properties": {"area_ha": 0.01, "mean": 0.1647}, "geometry": {"type": "Polygon", "coordinates": [[[120.59779401046248, 31.41255024], [120.59747812547384, 31.412459776], [120.59779401046248, 31.412459776], [120.59779401046248, 31.41255024]]]}}, {"type": "Feature", "properties": {"area_ha": 0.06, "mean": 0.1701}, "geometry": {"type": "Polygon", "coordinates": [[[120.54293531743745, 31.412821632], [120.54261943244883, 31.412459776], [120.54283002244125, 31.412369312], [120.54293531743745, 31.412821632]]]}}, {"type": "Feature", "properties": {"area_ha": 0.01, "mean": 0.1322}, "geometry": {"type": "Polygon", "coordinates": [[[120.54314590742987, 31.41255024], [120.54304061243367, 31.412369312], [120.54314590742987, 31.412369312], [120.54314590742987, 31.41255024]]]}}, {"type": "Feature", "properties": {"area_ha": 0.01, "mean": 0.2451}, "geometry": {"type": "Polygon", "coordinates": [[[120.5980046004549, 31.412459776], [120.59779401046248, 31.412369312], [120.5980046004549, 31.412369312], [120.5980046004549, 31.412459776]]]}}, {"type": "Feature", "properties": {"area_ha": 0.0, "mean": null}, "geometry": {"type": "Polygon", "coordinates": [[[120.59989991038665, 31.412459776], [120.59979461539045, 31.412369312], [120.59989991038665, 31.412369312], [120.59989991038665, 31.412459776]]]}}, {"type": "Feature", "properties": {"area_ha": 0.0, "mean": null}, "geometry": {"type": "Polygon", "coordinates": [[[120.60011050037907, 31.412459776], [120.60000520538287, 31.412369312], [120.60011050037907, 31.412369312], [120.60011050037907, 31.412459776]]]}}, {"type": "Feature", "properties": {"area_ha": 0.07, "mean": 0.1267}, "geometry": {"type": "Polygon", "coordinates": [[[120.6003210903715, 31.4116456], [120.60000520538287, 31.411464672], [120.60042638536771, 31.411283744], [120.6003210903715, 31.4116456]]]}}, {"type": "Feature", "properties": {"area_ha": 0.24, "mean": 0.1096}, "geometry": {"type": "Polygon", "coordinates": [[[120.59989991038665, 31.411916992000002], [120.59968932039425, 31.411012352], [120.60021579537529, 31.411012352], [120.59989991038665, 31.411916992000002]]]}}, {"type": "Feature", "properties": {"area_ha": 0.01, "mean": 0.1067}, "geometry": {"type": "Polygon", "coordinates": [[[120.60063697536013, 31.411102816], [120.60042638536771, 31.411012352], [120.60063697536013, 31.411012352], [120.60063697536013, 31.411102816]]]}}, {"type": "Feature", "properties": {"area_ha": 0.01, "mean": 0.1417}, "geometry": {"type": "Polygon", "coordinates": [[[120.60084756535254, 31.411012352], [120.60063697536013, 31.410921888], [120.60084756535254, 31.410921888], [120.60084756535254, 31.411012352]]]}}, {"type": "Feature", "properties": {"area_ha": 0.0, "mean": null}, "geometry": {"type": "Polygon", "coordinates": [[[120.60095286034876, 31.410921888], [120.60084756535254, 31.410831424], [120.60095286034876, 31.410831424], [120.60095286034876, 31.410921888]]]}}, {"type": "Feature", "properties": {"area_ha": 0.0, "mean": null}, "geometry": {"type": "Polygon", "coordinates": [[[120.59642517551175, 31.410831424], [120.59631988051555, 31.410740960000002], [120.59642517551175, 31.410740960000002], [120.59642517551175, 31.410831424]]]}}, {"type": "Feature", "properties": {"area_ha": 0.01, "mean": 0.1432}, "geometry": {"type": "Polygon", "coordinates": [[[120.6013740403336, 31.410650496], [120.60126874533738, 31.410469568], [120.6013740403336, 31.410469568], [120.6013740403336, 31.410650496]]]}}, {"type": "Feature", "properties": {"area_ha": 0.0, "mean": null}, "geometry": {"type": "Polygon", "coordinates": [[[120.6014793353298, 31.410469568], [120.6013740403336, 31.410379104], [120.6014793353298, 31.410379104], [120.6014793353298, 31.410469568]]]}}, {"type": "Feature", "properties": {"area_ha": 0.0, "mean": null}, "geometry": {"type": "Polygon", "coordinates": [[[120.5912657206975, 31.410379104], [120.59116042570129, 31.41028864], [120.5912657206975, 31.41028864], [120.5912657206975, 31.410379104]]]}}, {"type": "Feature", "properties": {"area_ha": 0.0, "mean": null}, "geometry": {"type": "Polygon", "coordinates": [[[120.59189749067475, 31.410379104], [120.59179219567855, 31.41028864], [120.59189749067475, 31.41028864], [120.59189749067475, 31.410379104]]]}}, {"type": "Feature", "properties": {"area_ha": 0.01, "mean": 0.1827}, "geometry": {"type": "Polygon", "coordinates": [[[120.58968629575436, 31.410469568], [120.58958100075816, 31.410198176], [120.58968629575436, 31.410198176], [120.58968629575436, 31.410469568]]]}}, {"type": "Feature", "properties": {"area_ha": 0.02, "mean": 0.2285}, "geometry": {"type": "Polygon", "coordinates": [[[120.60168992532222, 31.410379104], [120.601584630326, 31.410198176], [120.60179522031842, 31.410198176], [120.60168992532222, 31.410379104]]]}}, {"type": "Feature", "properties": {"area_ha": 0.0, "mean": null}, "geometry": {"type": "Polygon", "coordinates": [[[120.59158160568613, 31.41028864], [120.59147631068993, 31.410198176], [120.59158160568613, 31.410198176], [120.59158160568613, 31.41028864]]]}}, {"type": "Feature", "properties": {"area_ha": 0.0, "mean": null}, "geometry": {"type": "Polygon", "coordinates": [[[120.59116042570129, 31.410198176], [120.59105513070509, 31.410107712], [120.59116042570129, 31.410107712], [120.59116042570129, 31.410198176]]]}}, {"type": "Feature", "properties": {"area_ha": 0.0, "mean": null}, "geometry": {"type": "Polygon", "coordinates": [[[120.59147631068993, 31.410198176], [120.59137101569371, 31.410107712], [120.59147631068993, 31.410107712], [120.59147631068993, 31.410198176]]]}}, {"type": "Feature", "properties": {"area_ha": 0.0, "mean": null}, "geometry": {"type": "Polygon", "coordinates": [[[120.60190051531464, 31.410198176], [120.60179522031842, 31.410107712], [120.60190051531464, 31.410107712], [120.60190051531464, 31.410198176]]]}}, {"type": "Feature", "properties": {"area_ha": 0.0, "mean": null}, "geometry": {"type": "Polygon", "coordinates": [[[120.59105513070509, 31.410107712], [120.59094983570887, 31.410017248], [120.59105513070509, 31.410017248], [120.59105513070509, 31.410107712]]]}}, {"type": "Feature", "properties": {"area_ha": 0.01, "mean": 0.1305}, "geometry": {"type": "Polygon", "coordinates": [[[120.60211110530706, 31.410107712], [120.60190051531464, 31.410017248], [120.60211110530706, 31.410017248], [120.60211110530706, 31.410107712]]]}}, {"type": "Feature", "properties": {"area_ha": 0.0, "mean": null}, "geometry": {"type": "Polygon", "coordinates": [[[120.5924239656558, 31.410017248], [120.5923186706596, 31.409926784], [120.5924239656558, 31.409926784], [120.5924239656558, 31.410017248]]]}}, {"type": "Feature", "properties": {"area_ha": 0.0, "mean": null}, "geometry": {"type": "Polygon", "coordinates": [[[120.59621458551933, 31.410017248], [120.59610929052313, 31.409926784], [120.59621458551933, 31.409926784], [120.59621458551933, 31.410017248]]]}}, {"type": "Feature", "properties": {"area_ha": 0.01, "mean": 0.1829}, "geometry": {"type": "Polygon", "coordinates": [[[120.59073924571645, 31.409926784], [120.59052865572404, 31.40983632], [120.59073924571645, 31.40983632], [120.59073924571645, 31.409926784]]]}}, {"type": "Feature", "properties": {"area_ha": 0.0, "mean": null}, "geometry": {"type": "Polygon", "coordinates": [[[120.59158160568613, 31.409926784], [120.59147631068993, 31.40983632], [120.59158160568613, 31.40983632], [120.59158160568613, 31.409926784]]]}}, {"type": "Feature", "properties": {"area_ha": 0.0, "mean": null}, "geometry": {"type": "Polygon", "coordinates": [[[120.59168690068233, 31.40983632], [120.59158160568613, 31.409745856], [120.59168690068233, 31.409745856], [120.59168690068233, 31.40983632]]]}}, {"type": "Feature", "properties": {"area_ha": 0.06, "mean": 0.2479}, "geometry": {"type": "Polygon", "coordinates": [[[120.6027428752843, 31.40983632], [120.60211110530706, 31.409926784], [120.6027428752843, 31.409655392], [120.6027428752843, 31.40983632]]]}}, {"type": "Feature", "properties": {"area_ha": 0.4, "mean": 0.2362}, "geometry": {"type": "Polygon", "coordinates": [[[120.52377162812738, 31.410107712], [120.5228239731615, 31.410469568], [120.52261338316907, 31.409745856], [120.52377162812738, 31.410107712]]]}}, {"type": "Feature", "properties": {"area_ha": 0.0, "mean": null}, "geometry": {"type": "Polygon", "coordinates": [[[120.58926511576952, 31.409745856], [120.58915982077332, 31.409655392], [120.58926511576952, 31.409655392], [120.58926511576952, 31.409745856]]]}}, {"type": "Feature", "properties": {"area_ha": 0.0, "mean": null}, "geometry": {"type": "Polygon", "coordinates": [[[120.5228239731615, 31.409655392], [120.52271867816528, 31.409564928], [120.5228239731615, 31.409564928], [120.5228239731615, 31.409655392]]]}}, {"type": "Feature", "properties": {"area_ha": 0.04, "mean": 0.1907}, "geometry": {"type": "Polygon", "coordinates": [[[120.60316405526915, 31.409655392], [120.60305876027294, 31.409474464], [120.60337464526157, 31.409474464], [120.60316405526915, 31.409655392]]]}}, {"type": "Feature", "properties": {"area_ha": 0.0, "mean": null}, "geometry": {"type": "Polygon", "coordinates": [[[120.52271867816528, 31.409564928], [120.52261338316907, 31.409474464], [120.52271867816528, 31.409474464], [120.52271867816528, 31.409564928]]]}}, {"type": "Feature", "properties": {"area_ha": 0.0, "mean": null}, "geometry": {"type": "Polygon", "coordinates": [[[120.59179219567855, 31.409564928], [120.59168690068233, 31.409474464], [120.59179219567855, 31.409474464], [120.59179219567855, 31.409564928]]]}}, {"type": "Feature", "properties": {"area_ha": 0.0, "mean": null}, "geometry": {"type": "Polygon", "coordinates": [[[120.5957934055345, 31.409564928], [120.59568811053829, 31.409474464], [120.5957934055345, 31.409474464], [120.5957934055345, 31.409564928]]]}}, {"type": "Feature", "properties": {"area_ha": 0.0, "mean": null}, "geometry": {"type": "Polygon", "coordinates": [[[120.52261338316907, 31.409474464], [120.52250808817286, 31.409384], [120.52261338316907, 31.409384], [120.52261338316907, 31.409474464]]]}}, {"type": "Feature", "properties": {"area_ha": 0.0, "mean": null}, "geometry": {"type": "Polygon", "coordinates": [[[120.59589870053071, 31.409474464], [120.5957934055345, 31.409384], [120.59589870053071, 31.409384], [120.59589870053071, 31.409474464]]]}}, {"type": "Feature", "properties": {"area_ha": 0.0, "mean": null}, "geometry": {"type": "Polygon", "coordinates": [[[120.60347994025777, 31.409474464], [120.60337464526157, 31.409384], [120.60347994025777, 31.409384], [120.60347994025777, 31.409474464]]]}}, {"type": "Feature", "properties": {"area_ha": 0.0, "mean": null}, "geometry": {"type": "Polygon", "coordinates": [[[120.59200278567097, 31.409384], [120.59189749067475, 31.409293536], [120.59200278567097, 31.409293536], [120.59200278567097, 31.409384]]]}}, {"type": "Feature", "properties": {"area_ha": 0.01, "mean": 0.3059}, "geometry": {"type": "Polygon", "coordinates": [[[120.52240279317665, 31.409384], [120.52229749818045, 31.409203072], [120.52240279317665, 31.409203072], [120.52240279317665, 31.409384]]]}}, {"type": "Feature", "properties": {"area_ha": 0.0, "mean": null}, "geometry": {"type": "Polygon", "coordinates": [[[120.59179219567855, 31.409022144], [120.59168690068233, 31.40893168], [120.59179219567855, 31.40893168], [120.59179219567855, 31.409022144]]]}}, {"type": "Feature", "properties": {"area_ha": 0.0, "mean": null}, "geometry": {"type": "Polygon", "coordinates": [[[120.59263455564822, 31.408660288], [120.59252926065201, 31.408569824], [120.59263455564822, 31.408569824], [120.59263455564822, 31.408660288]]]}}, {"type": "Feature", "properties": {"area_ha": 0.04, "mean": 0.2724}, "geometry": {"type": "Polygon", "coordinates": [[[120.58652744586809, 31.408569824], [120.58610626588325, 31.408569824], [120.58621156087946, 31.408388896], [120.58652744586809, 31.408569824]]]}}, {"type": "Feature", "properties": {"area_ha": 0.0, "mean": null}, "geometry": {"type": "Polygon", "coordinates": [[[120.58979159075058, 31.408298432], [120.58968629575436, 31.408207968], [120.58979159075058, 31.408207968], [120.58979159075058, 31.408298432]]]}}, {"type": "Feature", "properties": {"area_ha": 0.0, "mean": null}, "geometry": {"type": "Polygon", "coordinates": [[[120.59042336072783, 31.407393792], [120.59031806573162, 31.407303328], [120.59042336072783, 31.407303328], [120.59042336072783, 31.407393792]]]}}, {"type": "Feature", "properties": {"area_ha": 0.02, "mean": 0.1667}, "geometry": {"type": "Polygon", "coordinates": [[[120.57515558627749, 31.405403584000002], [120.57505029128127, 31.405222656], [120.57526088127369, 31.405222656], [120.57515558627749, 31.405403584000002]]]}}, {"type": "Feature", "properties": {"area_ha": 0.03, "mean": 0.2614}, "geometry": {"type": "Polygon", "coordinates": [[[120.57673501122062, 31.40395616], [120.576419126232, 31.403775232], [120.57673501122062, 31.403775232], [120.57673501122062, 31.40395616]]]}}, {"type": "Feature", "properties": {"area_ha": 0.08, "mean": 0.2368}, "geometry": {"type": "Polygon", "coordinates": [[[120.58652744586809, 31.402870592], [120.58621156087946, 31.402327808], [120.58642215087188, 31.402237344], [120.58652744586809, 31.402870592]]]}}, {"type": "Feature", "properties": {"area_ha": 0.04, "mean": 0.2737}, "geometry": {"type": "Polygon", "coordinates": [[[120.58747510083397, 31.400608992], [120.58715921584535, 31.400428064], [120.58736980583775, 31.4003376], [120.58747510083397, 31.400608992]]]}}, {"type": "Feature", "properties": {"area_ha": 0.04, "mean": 0.2012}, "geometry": {"type": "Polygon", "coordinates": [[[120.58768569082639, 31.399161568], [120.58736980583775, 31.39898064], [120.58758039583017, 31.398890176000002], [120.58768569082639, 31.399161568]]]}}, {"type": "Feature", "properties": {"area_ha": 0.02, "mean": 0.1466}, "geometry": {"type": "Polygon", "coordinates": [[[120.54419885739196, 31.399071104], [120.54388297240334, 31.39898064], [120.54409356239576, 31.398890176000002], [120.54419885739196, 31.399071104]]]}}, {"type": "Feature", "properties": {"area_ha": 0.0, "mean": null}, "geometry": {"type": "Polygon", "coordinates": [[[120.5445147423806, 31.398437856], [120.54430415238818, 31.398256928], [120.5445147423806, 31.398347392], [120.5445147423806, 31.398437856]]]}}, {"type": "Feature", "properties": {"area_ha": 0.02, "mean": 0.1749}, "geometry": {"type": "Polygon", "coordinates": [[[120.54440944738438, 31.397261824], [120.54430415238818, 31.396809504], [120.54440944738438, 31.396809504], [120.54440944738438, 31.397261824]]]}}, {"type": "Feature", "properties": {"area_ha": 0.0, "mean": null}, "geometry": {"type": "Polygon", "coordinates": [[[120.5445147423806, 31.39626672], [120.54440944738438, 31.396176256], [120.5445147423806, 31.396176256], [120.5445147423806, 31.39626672]]]}}, {"type": "Feature", "properties": {"area_ha": 0.01, "mean": 0.1727}, "geometry": {"type": "Polygon", "coordinates": [[[120.5446200373768, 31.3958144], [120.5445147423806, 31.395633472], [120.5446200373768, 31.395633472], [120.5446200373768, 31.3958144]]]}}, {"type": "Feature", "properties": {"area_ha": 0.0, "mean": null}, "geometry": {"type": "Polygon", "coordinates": [[[120.54472533237302, 31.390115168], [120.5446200373768, 31.390024704], [120.54472533237302, 31.390024704], [120.54472533237302, 31.390115168]]]}}, {"type": "Feature", "properties": {"area_ha": 0.02, "mean": 0.1827}, "geometry": {"type": "Polygon", "coordinates": [[[120.54504121736164, 31.390024704], [120.54483062736922, 31.389843776], [120.54514651235785, 31.389843776], [120.54504121736164, 31.390024704]]]}}]}