{"type": "FeatureCollection", "features": [{"type": "Feature", "properties": {"name": "黄埭镇水体边界 (JRC参考+S2 10m细化)"}, "geometry": {"type": "MultiPolygon", "coordinates": [[[[120.52377162812738, 31.410107712], [120.52208690818803, 31.409384], [120.52240279317665, 31.41028864], [120.52377162812738, 31.410107712]]], [[[120.52598282304777, 31.412278848], [120.52998403290371, 31.415535552], [120.5274569529947, 31.411555136], [120.52598282304777, 31.412278848]]], [[[120.53272170280516, 31.425034272], [120.53103698286581, 31.425757984], [120.53703879764974, 31.42476288], [120.53272170280516, 31.425034272]]], [[[120.52998403290371, 31.425757984], [120.528615197953, 31.425938912], [120.52935226292647, 31.426391232], [120.52998403290371, 31.425757984]]], [[[120.54093471250948, 31.426662624], [120.54072412251706, 31.426753088], [120.54104000750569, 31.427205408], [120.54093471250948, 31.426662624]]], [[[120.51798040333587, 31.426934016], [120.51766451834723, 31.427114944], [120.51808569833207, 31.427838656], [120.51798040333587, 31.426934016]]], [[[120.52335044814254, 31.427567264], [120.52356103813496, 31.427295872000002], [120.52313985815012, 31.427205408], [120.52335044814254, 31.427567264]]], [[[120.54072412251706, 31.427567264], [120.54040823752844, 31.428110048], [120.54104000750569, 31.42838144], [120.54072412251706, 31.427567264]]], [[[120.52177102319939, 31.427386336], [120.519559828279, 31.427205408], [120.51966512327522, 31.431909536], [120.52177102319939, 31.427386336]]], [[[120.54040823752844, 31.431638144], [120.5399870575436, 31.432000000000002], [120.54104000750569, 31.432361856], [120.54040823752844, 31.431638144]]], [[[120.53967117255497, 31.435437632], [120.53946058256255, 31.435528096], [120.53977646755118, 31.43561856], [120.53967117255497, 31.435437632]]], [[[120.53872351758909, 31.440232224], [120.53851292759667, 31.440322688000002], [120.5388288125853, 31.440684544], [120.53872351758909, 31.440232224]]], [[[120.53830233760425, 31.442493824], [120.53809174761183, 31.442584288], [120.53840763260045, 31.442765216], [120.53830233760425, 31.442493824]]], [[[120.53830233760425, 31.443217536], [120.53819704260805, 31.443036608], [120.53798645261563, 31.443127072], [120.53830233760425, 31.443217536]]], [[[120.53798645261563, 31.444031712], [120.5377758626232, 31.444122176], [120.53809174761183, 31.444303104], [120.53798645261563, 31.444031712]]], [[[120.5377758626232, 31.44511728], [120.53756527263079, 31.445207744], [120.53788115761941, 31.445479136], [120.5377758626232, 31.44511728]]], [[[120.53893410758151, 31.445298208], [120.53872351758909, 31.445388672], [120.53924999257013, 31.445750528], [120.53893410758151, 31.445298208]]], [[[120.53767056762699, 31.445750528], [120.53745997763457, 31.445840992], [120.5377758626232, 31.44602192], [120.53767056762699, 31.445750528]]], [[[120.54019764753602, 31.446112384], [120.5399870575436, 31.446202848000002], [120.54030294253222, 31.446293312], [120.54019764753602, 31.446112384]]], [[[120.53756527263079, 31.446293312], [120.53724938764216, 31.446745632], [120.5377758626232, 31.447469344], [120.53756527263079, 31.446293312]]], [[[120.53577525769524, 31.456153888], [120.53566996269902, 31.455792032], [120.5354593727066, 31.455882496], [120.53577525769524, 31.456153888]]], [[[120.53556466770281, 31.456244352000002], [120.5353540777104, 31.456334816000002], [120.53566996269902, 31.456606208], [120.53556466770281, 31.456244352000002]]], [[[120.52619341304019, 31.464205184], [120.52577223305535, 31.464476576], [120.52629870803639, 31.464567040000002], [120.52619341304019, 31.464205184]]], [[[120.53345876777863, 31.465833536], [120.53282699780137, 31.466647712], [120.53345876777863, 31.466647712], [120.53345876777863, 31.465833536]]], [[[120.53103698286581, 31.466738176], [120.53061580288097, 31.466919104000002], [120.53124757285823, 31.467552352000002], [120.53103698286581, 31.466738176]]], [[[120.53040521288855, 31.467100032], [120.53019462289613, 31.467190496], [120.53051050788477, 31.46728096], [120.53040521288855, 31.467100032]]], [[[120.52935226292647, 31.467009568], [120.52903637793784, 31.467100032], [120.5297734429113, 31.46773328], [120.52935226292647, 31.467009568]]], [[[120.53914469757392, 31.471080448000002], [120.5241928081122, 31.466466784], [120.53156345784686, 31.471170912], [120.53914469757392, 31.471080448000002]]], [[[120.54514651235785, 31.389843776], [120.5446200373768, 31.390024704], [120.54493592236544, 31.390115168], [120.54514651235785, 31.389843776]]], [[[120.54493592236544, 31.39490976], [120.54472533237302, 31.395000224], [120.54504121736164, 31.395090688], [120.54493592236544, 31.39490976]]], [[[120.54735770727825, 31.395181152], [120.54651534730857, 31.394819296], [120.54704182228961, 31.395633472], [120.54735770727825, 31.395181152]]], [[[120.54472533237302, 31.395543008], [120.5445147423806, 31.395633472], [120.54483062736922, 31.395904864], [120.54472533237302, 31.395543008]]], [[[120.5446200373768, 31.396085792], [120.54440944738438, 31.396176256], [120.54472533237302, 31.396447648], [120.5446200373768, 31.396085792]]], [[[120.5445147423806, 31.39671904], [120.54430415238818, 31.396809504], [120.5446200373768, 31.397352288], [120.5445147423806, 31.39671904]]], [[[120.5445147423806, 31.398437856], [120.54440944738438, 31.398256928], [120.54419885739196, 31.398347392], [120.5445147423806, 31.398437856]]], [[[120.54409356239576, 31.398890176000002], [120.54388297240334, 31.39898064], [120.54419885739196, 31.399071104], [120.54409356239576, 31.398890176000002]]], [[[120.57157555640637, 31.401785024], [120.57168085140258, 31.401965952], [120.57315498134952, 31.401875488], [120.57157555640637, 31.401785024]]], [[[120.5593613368461, 31.405403584000002], [120.55841368188021, 31.405494048], [120.55915074685367, 31.405674976], [120.5593613368461, 31.405403584000002]]], [[[120.55809779689159, 31.405674976], [120.55788720689917, 31.40576544], [120.5582030918878, 31.405855904], [120.55809779689159, 31.405674976]]], [[[120.5434617924185, 31.409293536], [120.54325120242609, 31.409384], [120.54367238241092, 31.409655392], [120.5434617924185, 31.409293536]]], [[[120.56020369681578, 31.410107712], [120.55894015686127, 31.40983632], [120.56009840181956, 31.41028864], [120.56020369681578, 31.410107712]]], [[[120.54283002244125, 31.414449984], [120.54304061243367, 31.412007456], [120.54240884245641, 31.412912096], [120.54283002244125, 31.414449984]]], [[[120.5570448469295, 31.414178592], [120.55578130697498, 31.414449984], [120.55651837194846, 31.41481184], [120.5570448469295, 31.414178592]]], [[[120.55483365200911, 31.414902304], [120.55357011205459, 31.41526416], [120.55472835701289, 31.415987872], [120.55483365200911, 31.414902304]]], [[[120.54240884245641, 31.415173696], [120.5398817625474, 31.416711584], [120.54283002244125, 31.417435296], [120.54240884245641, 31.415173696]]], [[[120.54304061243367, 31.418792256], [120.54293531743745, 31.419606432000002], [120.5445147423806, 31.419515968], [120.54304061243367, 31.418792256]]], [[[120.55093773714935, 31.415897408], [120.54304061243367, 31.420511072], [120.54999008218347, 31.425305664], [120.55093773714935, 31.415897408]]], [[[120.54240884245641, 31.418159008], [120.54030294253222, 31.419425504], [120.54219825246399, 31.423496384], [120.54240884245641, 31.418159008]]], [[[120.54851595223654, 31.42928608], [120.54841065724034, 31.428924224], [120.54809477225172, 31.429105152], [120.54851595223654, 31.42928608]]], [[[120.56715316656559, 31.43109536], [120.56673198658075, 31.43109536], [120.56704787156937, 31.431276288], [120.56715316656559, 31.43109536]]], [[[120.56252018673237, 31.448464448], [120.56230959673996, 31.448554912], [120.56262548172859, 31.448645376], [120.56252018673237, 31.448464448]]], [[[120.57252321137226, 31.448554912], [120.57241791637604, 31.44873584], [120.57283909636088, 31.44873584], [120.57252321137226, 31.448554912]]], [[[120.54283002244125, 31.469452096], [120.54261943244883, 31.46954256], [120.54293531743745, 31.469633024], [120.54283002244125, 31.469452096]]], [[[120.5412505974981, 31.471532768], [120.54082941751327, 31.471532768], [120.5411453025019, 31.471713696000002], [120.5412505974981, 31.471532768]]], [[[120.54325120242609, 31.475332256], [120.54314590742987, 31.475332256], [120.54325120242609, 31.47542272], [120.54325120242609, 31.475332256]]], [[[120.56294136671721, 31.477051072000002], [120.56336254670205, 31.476870144], [120.56252018673237, 31.47677968], [120.56294136671721, 31.477051072000002]]], [[[120.57526088127369, 31.393190944], [120.57505029128127, 31.393281408], [120.57536617626991, 31.393462336], [120.57526088127369, 31.393190944]]], [[[120.58947570576194, 31.395723936], [120.58915982077332, 31.3958144], [120.58958100075816, 31.395995328], [120.58947570576194, 31.395723936]]], [[[120.58758039583017, 31.398890176000002], [120.58736980583775, 31.39898064], [120.58768569082639, 31.399161568], [120.58758039583017, 31.398890176000002]]], [[[120.58736980583775, 31.4003376], [120.58715921584535, 31.400428064], [120.58747510083397, 31.400608992], [120.58736980583775, 31.4003376]]], [[[120.57957797611827, 31.400880384], [120.57905150113723, 31.40124224], [120.5797885661107, 31.401151776], [120.57957797611827, 31.400880384]]], [[[120.58642215087188, 31.402237344], [120.58621156087946, 31.402327808], [120.58652744586809, 31.402870592], [120.58642215087188, 31.402237344]]], [[[120.57610324124337, 31.40395616], [120.57747207619408, 31.403775232], [120.57578735625474, 31.402961056], [120.57610324124337, 31.40395616]]], [[[120.57536617626991, 31.404679872], [120.57473440629265, 31.405132192], [120.57526088127369, 31.40531312], [120.57536617626991, 31.404679872]]], [[[120.58621156087946, 31.408388896], [120.58610626588325, 31.408569824], [120.58652744586809, 31.408569824], [120.58621156087946, 31.408388896]]], [[[120.56999613146323, 31.428924224], [120.57789325617892, 31.428019584], [120.57904692309391, 31.426808153043478], [120.58010445109932, 31.428019584], [120.57918816827272, 31.426659835726024], [120.58736980583775, 31.418068544], [120.57947268112207, 31.424491488], [120.57799855117514, 31.424129632], [120.57673501122062, 31.425848448], [120.57505029128127, 31.425848448], [120.57368145633056, 31.427295872000002], [120.56999613146323, 31.428924224]]], [[[120.57799855117514, 31.428019584], [120.57778796118272, 31.428110048], [120.57810384617135, 31.428290976], [120.57799855117514, 31.428019584]]], [[[120.57841973115997, 31.428924224], [120.57820914116755, 31.429467008], [120.57915679613343, 31.429828864], [120.57841973115997, 31.428924224]]], [[[120.58947570576194, 31.43245232], [120.58873864078848, 31.432000000000002], [120.58852805079606, 31.432633248000002], [120.58947570576194, 31.43245232]]], [[[120.58610626588325, 31.433718816], [120.58505331592116, 31.433809280000002], [120.58515861091736, 31.434442528], [120.58610626588325, 31.433718816]]], [[[120.58231564601972, 31.436613664], [120.5821050560273, 31.437518304], [120.58347389097801, 31.437246912], [120.58231564601972, 31.436613664]]], [[[120.5798938611069, 31.438422944], [120.57905150113723, 31.438513408000002], [120.57947268112207, 31.439056192], [120.5798938611069, 31.438422944]]], [[[120.58378977596665, 31.439508512], [120.58400036595907, 31.439870368], [120.58452684094011, 31.439779904], [120.58378977596665, 31.439508512]]], [[[120.59052865572404, 31.44059408], [120.58989688574678, 31.440955936], [120.59094983570887, 31.441679648], [120.59052865572404, 31.44059408]]], [[[120.58705392084913, 31.441136864], [120.58663274086429, 31.4410464], [120.58694862585293, 31.441408256], [120.58705392084913, 31.441136864]]], [[[120.58747510083397, 31.447559808], [120.58726451084155, 31.44692656], [120.58610626588325, 31.447559808], [120.58747510083397, 31.447559808]]], [[[120.58768569082639, 31.449369088], [120.58747510083397, 31.449459552], [120.5877909858226, 31.44964048], [120.58768569082639, 31.449369088]]], [[[120.5877909858226, 31.451540224000002], [120.58715921584535, 31.451540224000002], [120.58758039583017, 31.451811616], [120.5877909858226, 31.451540224000002]]], [[[120.58136799105384, 31.4523544], [120.5810521060652, 31.452444864], [120.58157858104624, 31.45280672], [120.58136799105384, 31.4523544]]], [[[120.58063092608037, 31.452535328], [120.58042033608795, 31.452625792], [120.58073622107658, 31.452716256000002], [120.58063092608037, 31.452535328]]], [[[120.58020974609553, 31.453349504000002], [120.57999915610311, 31.453439968], [120.58031504109174, 31.453530432], [120.58020974609553, 31.453349504000002]]], [[[120.57557676626233, 31.471170912], [120.57536617626991, 31.471985088], [120.57726148620168, 31.471532768], [120.57557676626233, 31.471170912]]], [[[120.58010445109932, 31.473070656], [120.58347389097801, 31.471442304], [120.57957797611827, 31.471261376], [120.58010445109932, 31.473070656]]], [[[120.60042638536771, 31.40576544], [120.60011050037907, 31.405946368], [120.60053168036391, 31.406036832], [120.60042638536771, 31.40576544]]], [[[120.59063395072025, 31.407031936], [120.58926511576952, 31.409112608], [120.5934769156179, 31.408660288], [120.59063395072025, 31.407031936]]], [[[120.59905755041699, 31.408569824], [120.59884696042457, 31.408660288], [120.59916284541319, 31.408750752], [120.59905755041699, 31.408569824]]], [[[120.59389809560274, 31.409112608], [120.59410868559515, 31.409745856], [120.59705694548902, 31.40893168], [120.59389809560274, 31.409112608]]], [[[120.59200278567097, 31.409293536], [120.59137101569371, 31.409926784], [120.59284514564064, 31.41028864], [120.59200278567097, 31.409293536]]], [[[120.59052865572404, 31.40983632], [120.59042336072783, 31.410017248], [120.5912657206975, 31.41028864], [120.59052865572404, 31.40983632]]], [[[120.59431927558757, 31.410740960000002], [120.59421398059136, 31.410198176], [120.59326632562548, 31.410379104], [120.59431927558757, 31.410740960000002]]], [[[120.59631988051555, 31.410650496], [120.59610929052313, 31.410740960000002], [120.59642517551175, 31.410831424], [120.59631988051555, 31.410650496]]], [[[120.59653047050796, 31.411916992000002], [120.59400339059894, 31.411464672], [120.59505634056103, 31.412278848], [120.59653047050796, 31.411916992000002]]], [[[120.59968932039425, 31.411012352], [120.59452986557999, 31.413816736], [120.60411171023503, 31.410107712], [120.59968932039425, 31.411012352]]], [[[120.59052865572404, 31.411374208], [120.58989688574678, 31.41209792], [120.59137101569371, 31.412912096], [120.59052865572404, 31.411374208]]], [[[120.59726753548144, 31.416440192], [120.59631988051555, 31.416349728], [120.59674106050038, 31.416982976], [120.59726753548144, 31.416440192]]], [[[120.5935822106141, 31.415806944], [120.58810687081123, 31.417616224], [120.59158160568613, 31.417706688], [120.5935822106141, 31.415806944]]], [[[120.5934769156179, 31.42250128], [120.59337162062168, 31.422139424], [120.59305573563306, 31.422320352], [120.5934769156179, 31.42250128]]], [[[120.60769174010615, 31.423044064], [120.60758644510993, 31.423224992], [120.60800762509477, 31.423315456], [120.60769174010615, 31.423044064]]], [[[120.60095286034876, 31.42566752], [120.59926814040941, 31.424853344], [120.60084756535254, 31.425848448], [120.60095286034876, 31.42566752]]], [[[120.60874469006824, 31.427838656], [120.60558584018196, 31.427567264], [120.60853410007581, 31.428290976], [120.60874469006824, 31.427838656]]], [[[120.6026375802881, 31.42792912], [120.60242699029568, 31.428019584], [120.6027428752843, 31.42838144], [120.6026375802881, 31.42792912]]], [[[120.59937343540561, 31.430823968000002], [120.59832048544352, 31.43109536], [120.59958402539803, 31.431366752], [120.59937343540561, 31.430823968000002]]], [[[120.60295346527673, 31.432633248000002], [120.60221640030326, 31.432542784], [120.60284817028052, 31.43290464], [120.60295346527673, 31.432633248000002]]], [[[120.59589870053071, 31.441498720000002], [120.5957934055345, 31.440955936], [120.59537222554967, 31.441317792], [120.59589870053071, 31.441498720000002]]], [[[120.5934769156179, 31.441498720000002], [120.59337162062168, 31.442584288], [120.59400339059894, 31.441860576], [120.5934769156179, 31.441498720000002]]], [[[120.60705997012889, 31.444122176], [120.60695467513268, 31.444393568], [120.60769174010615, 31.444393568], [120.60705997012889, 31.444122176]]], [[[120.60168992532222, 31.444845888], [120.601584630326, 31.445026816000002], [120.60221640030326, 31.445479136], [120.60168992532222, 31.444845888]]], [[[120.6027428752843, 31.446745632], [120.60253228529189, 31.446836096000002], [120.60284817028052, 31.44692656], [120.6027428752843, 31.446745632]]], [[[120.60084756535254, 31.456244352000002], [120.60084756535254, 31.454796928], [120.59516163555725, 31.457239456], [120.59705694548902, 31.457420384], [120.60084756535254, 31.456244352000002]]], [[[120.59484575056861, 31.45732992], [120.59379280060652, 31.457691776], [120.59495104556483, 31.457510848000002], [120.59484575056861, 31.45732992]]]]}}]}