{"type": "FeatureCollection", "features": [{"type": "Feature", "properties": {"area_ha": 0.03, "mean": 0.1495}, "geometry": {"type": "Polygon", "coordinates": [[[120.59895225542078, 31.43154768], [120.59884696042457, 31.431366752], [120.59905755041699, 31.431276288], [120.59895225542078, 31.43154768]]]}}, {"type": "Feature", "properties": {"area_ha": 0.02, "mean": 0.1265}, "geometry": {"type": "Polygon", "coordinates": [[[120.59947873040183, 31.431004896], [120.59926814040941, 31.43109536], [120.59926814040941, 31.430914432], [120.59947873040183, 31.431004896]]]}}, {"type": "Feature", "properties": {"area_ha": 0.02, "mean": 0.195}, "geometry": {"type": "Polygon", "coordinates": [[[120.53177404783928, 31.425757984], [120.53156345784686, 31.425848448], [120.53124757285823, 31.425757984], [120.53177404783928, 31.425757984]]]}}, {"type": "Feature", "properties": {"area_ha": 0.02, "mean": 0.1357}, "geometry": {"type": "Polygon", "coordinates": [[[120.5320899328279, 31.425757984], [120.53187934283548, 31.425577056], [120.53219522782412, 31.425577056], [120.5320899328279, 31.425757984]]]}}, {"type": "Feature", "properties": {"area_ha": 0.0, "mean": null}, "geometry": {"type": "Polygon", "coordinates": [[[120.58389507096285, 31.42204896], [120.58378977596665, 31.421958496000002], [120.58389507096285, 31.421958496000002], [120.58389507096285, 31.42204896]]]}}, {"type": "Feature", "properties": {"area_ha": 0.0, "mean": null}, "geometry": {"type": "Polygon", "coordinates": [[[120.58400036595907, 31.421958496000002], [120.58389507096285, 31.421868032], [120.58400036595907, 31.421868032], [120.58400036595907, 31.421958496000002]]]}}, {"type": "Feature", "properties": {"area_ha": 0.0, "mean": null}, "geometry": {"type": "Polygon", "coordinates": [[[120.55051655716453, 31.418701792], [120.55041126216831, 31.418611328], [120.55051655716453, 31.418611328], [120.55051655716453, 31.418701792]]]}}, {"type": "Feature", "properties": {"area_ha": 0.0, "mean": null}, "geometry": {"type": "Polygon", "coordinates": [[[120.54925301721, 31.418159008], [120.5491477222138, 31.418068544], [120.54925301721, 31.418068544], [120.54925301721, 31.418159008]]]}}, {"type": "Feature", "properties": {"area_ha": 0.0, "mean": null}, "geometry": {"type": "Polygon", "coordinates": [[[120.54946360720243, 31.418159008], [120.54935831220622, 31.418068544], [120.54946360720243, 31.418068544], [120.54946360720243, 31.418159008]]]}}, {"type": "Feature", "properties": {"area_ha": 0.04, "mean": 0.1018}, "geometry": {"type": "Polygon", "coordinates": [[[120.55041126216831, 31.417706688], [120.54999008218347, 31.417887616], [120.54999008218347, 31.417706688], [120.55041126216831, 31.417706688]]]}}, {"type": "Feature", "properties": {"area_ha": 0.0, "mean": null}, "geometry": {"type": "Polygon", "coordinates": [[[120.54935831220622, 31.417706688], [120.54925301721, 31.417616224], [120.54935831220622, 31.417616224], [120.54935831220622, 31.417706688]]]}}, {"type": "Feature", "properties": {"area_ha": 0.01, "mean": 0.1096}, "geometry": {"type": "Polygon", "coordinates": [[[120.54967419719485, 31.41752576], [120.54956890219864, 31.417616224], [120.54946360720243, 31.41752576], [120.54967419719485, 31.41752576]]]}}, {"type": "Feature", "properties": {"area_ha": 0.02, "mean": 0.1087}, "geometry": {"type": "Polygon", "coordinates": [[[120.55114832714177, 31.417435296], [120.55093773714935, 31.417344832], [120.55114832714177, 31.417254368000002], [120.55114832714177, 31.417435296]]]}}, {"type": "Feature", "properties": {"area_ha": 0.12, "mean": 0.1401}, "geometry": {"type": "Polygon", "coordinates": [[[120.52935226292647, 31.415626016], [120.52850990295678, 31.415535552], [120.528615197953, 31.41526416], [120.52935226292647, 31.415626016]]]}}, {"type": "Feature", "properties": {"area_ha": 0.0, "mean": null}, "geometry": {"type": "Polygon", "coordinates": [[[120.5273516579985, 31.415083232], [120.52714106800607, 31.414902304], [120.5273516579985, 31.414992768], [120.5273516579985, 31.415083232]]]}}]}