{"type": "FeatureCollection", "features": [{"type": "Feature", "properties": {"area_ha": 0.05, "mean": 0.0588}, "geometry": {"type": "Polygon", "coordinates": [[[120.52998403290371, 31.469271168000002], [120.52966814791509, 31.468999776], [120.53008932789993, 31.468999776], [120.52998403290371, 31.469271168000002]]]}}, {"type": "Feature", "properties": {"area_ha": 0.0, "mean": null}, "geometry": {"type": "Polygon", "coordinates": [[[120.53903940257771, 31.445931456], [120.53893410758151, 31.445840992], [120.53903940257771, 31.445840992], [120.53903940257771, 31.445931456]]]}}, {"type": "Feature", "properties": {"area_ha": 0.0, "mean": null}, "geometry": {"type": "Polygon", "coordinates": [[[120.53924999257013, 31.445750528], [120.53903940257771, 31.4455696], [120.53914469757392, 31.4455696], [120.53924999257013, 31.445750528]]]}}, {"type": "Feature", "properties": {"area_ha": 0.0, "mean": null}, "geometry": {"type": "Polygon", "coordinates": [[[120.5388288125853, 31.4455696], [120.53872351758909, 31.445479136], [120.5388288125853, 31.445479136], [120.5388288125853, 31.4455696]]]}}, {"type": "Feature", "properties": {"area_ha": 0.12, "mean": 0.0627}, "geometry": {"type": "Polygon", "coordinates": [[[120.59947873040183, 31.431457216000002], [120.59895225542078, 31.430914432], [120.59937343540561, 31.430914432], [120.59947873040183, 31.431457216000002]]]}}, {"type": "Feature", "properties": {"area_ha": 0.01, "mean": 0.0703}, "geometry": {"type": "Polygon", "coordinates": [[[120.5297734429113, 31.426662624], [120.52966814791509, 31.426481696], [120.5297734429113, 31.426481696], [120.5297734429113, 31.426662624]]]}}, {"type": "Feature", "properties": {"area_ha": 0.0, "mean": null}, "geometry": {"type": "Polygon", "coordinates": [[[120.52956285291889, 31.42657216], [120.52945755792267, 31.426481696], [120.52956285291889, 31.426481696], [120.52956285291889, 31.42657216]]]}}, {"type": "Feature", "properties": {"area_ha": 0.0, "mean": null}, "geometry": {"type": "Polygon", "coordinates": [[[120.52945755792267, 31.426481696], [120.52935226292647, 31.426391232], [120.52945755792267, 31.426391232], [120.52945755792267, 31.426481696]]]}}, {"type": "Feature", "properties": {"area_ha": 0.0, "mean": null}, "geometry": {"type": "Polygon", "coordinates": [[[120.53124757285823, 31.426119840000002], [120.53114227786202, 31.426029376], [120.53124757285823, 31.426029376], [120.53124757285823, 31.426119840000002]]]}}, {"type": "Feature", "properties": {"area_ha": 0.0, "mean": null}, "geometry": {"type": "Polygon", "coordinates": [[[120.53103698286581, 31.425938912], [120.5309316878696, 31.425848448], [120.53103698286581, 31.425848448], [120.53103698286581, 31.425938912]]]}}, {"type": "Feature", "properties": {"area_ha": 0.06, "mean": 0.1491}, "geometry": {"type": "Polygon", "coordinates": [[[120.53166875284306, 31.425938912], [120.53103698286581, 31.425757984], [120.53177404783928, 31.425757984], [120.53166875284306, 31.425938912]]]}}, {"type": "Feature", "properties": {"area_ha": 0.0, "mean": null}, "geometry": {"type": "Polygon", "coordinates": [[[120.53230052282032, 31.425577056], [120.53219522782412, 31.425486592], [120.53230052282032, 31.425486592], [120.53230052282032, 31.425577056]]]}}, {"type": "Feature", "properties": {"area_ha": 0.05, "mean": 0.0742}, "geometry": {"type": "Polygon", "coordinates": [[[120.53219522782412, 31.42566752], [120.53177404783928, 31.425486592], [120.5320899328279, 31.425396128], [120.53219522782412, 31.42566752]]]}}, {"type": "Feature", "properties": {"area_ha": 0.01, "mean": 0.0746}, "geometry": {"type": "Polygon", "coordinates": [[[120.53261640780894, 31.425486592], [120.53240581781654, 31.425396128], [120.53261640780894, 31.425396128], [120.53261640780894, 31.425486592]]]}}, {"type": "Feature", "properties": {"area_ha": 0.01, "mean": 0.0683}, "geometry": {"type": "Polygon", "coordinates": [[[120.54061882752086, 31.423134528000002], [120.54051353252464, 31.4229536], [120.54061882752086, 31.4229536], [120.54061882752086, 31.423134528000002]]]}}, {"type": "Feature", "properties": {"area_ha": 0.0, "mean": null}, "geometry": {"type": "Polygon", "coordinates": [[[120.58315800598939, 31.4229536], [120.58305271099319, 31.422863136], [120.58315800598939, 31.422863136], [120.58315800598939, 31.4229536]]]}}, {"type": "Feature", "properties": {"area_ha": 0.0, "mean": null}, "geometry": {"type": "Polygon", "coordinates": [[[120.54483062736922, 31.422772672], [120.54472533237302, 31.422682208], [120.54483062736922, 31.422682208], [120.54483062736922, 31.422772672]]]}}, {"type": "Feature", "properties": {"area_ha": 0.0, "mean": null}, "geometry": {"type": "Polygon", "coordinates": [[[120.58326330098559, 31.422772672], [120.58315800598939, 31.422682208], [120.58326330098559, 31.422682208], [120.58326330098559, 31.422772672]]]}}, {"type": "Feature", "properties": {"area_ha": 0.01, "mean": 0.0546}, "geometry": {"type": "Polygon", "coordinates": [[[120.54546239734648, 31.422591744], [120.54535710235027, 31.422410816], [120.54546239734648, 31.422410816], [120.54546239734648, 31.422591744]]]}}, {"type": "Feature", "properties": {"area_ha": 0.01, "mean": 0.0691}, "geometry": {"type": "Polygon", "coordinates": [[[120.54588357733131, 31.42250128], [120.5456729873389, 31.422410816], [120.54588357733131, 31.422410816], [120.54588357733131, 31.42250128]]]}}, {"type": "Feature", "properties": {"area_ha": 0.0, "mean": null}, "geometry": {"type": "Polygon", "coordinates": [[[120.58347389097801, 31.42250128], [120.58336859598181, 31.422410816], [120.58347389097801, 31.422410816], [120.58347389097801, 31.42250128]]]}}, {"type": "Feature", "properties": {"area_ha": 0.0, "mean": null}, "geometry": {"type": "Polygon", "coordinates": [[[120.54082941751327, 31.422410816], [120.54072412251706, 31.422320352], [120.54082941751327, 31.422320352], [120.54082941751327, 31.422410816]]]}}, {"type": "Feature", "properties": {"area_ha": 0.0, "mean": null}, "geometry": {"type": "Polygon", "coordinates": [[[120.54619946231995, 31.422410816], [120.54609416732373, 31.422320352], [120.54619946231995, 31.422320352], [120.54619946231995, 31.422410816]]]}}, {"type": "Feature", "properties": {"area_ha": 0.0, "mean": null}, "geometry": {"type": "Polygon", "coordinates": [[[120.5491477222138, 31.422139424], [120.5490424272176, 31.42204896], [120.5491477222138, 31.42204896], [120.5491477222138, 31.422139424]]]}}, {"type": "Feature", "properties": {"area_ha": 0.0, "mean": null}, "geometry": {"type": "Polygon", "coordinates": [[[120.54756829727066, 31.42204896], [120.54746300227445, 31.421958496000002], [120.54756829727066, 31.421958496000002], [120.54756829727066, 31.42204896]]]}}, {"type": "Feature", "properties": {"area_ha": 0.0, "mean": null}, "geometry": {"type": "Polygon", "coordinates": [[[120.58389507096285, 31.42204896], [120.58378977596665, 31.421958496000002], [120.58389507096285, 31.421958496000002], [120.58389507096285, 31.42204896]]]}}, {"type": "Feature", "properties": {"area_ha": 0.0, "mean": null}, "geometry": {"type": "Polygon", "coordinates": [[[120.58400036595907, 31.421958496000002], [120.58389507096285, 31.421868032], [120.58400036595907, 31.421868032], [120.58400036595907, 31.421958496000002]]]}}, {"type": "Feature", "properties": {"area_ha": 0.09, "mean": 0.072}, "geometry": {"type": "Polygon", "coordinates": [[[120.54883183722518, 31.42204896], [120.5478841822593, 31.421777568], [120.54893713222138, 31.421868032], [120.54883183722518, 31.42204896]]]}}, {"type": "Feature", "properties": {"area_ha": 0.01, "mean": 0.0726}, "geometry": {"type": "Polygon", "coordinates": [[[120.55030596717211, 31.421958496000002], [120.55020067217589, 31.421777568], [120.55030596717211, 31.421777568], [120.55030596717211, 31.421958496000002]]]}}, {"type": "Feature", "properties": {"area_ha": 0.0, "mean": null}, "geometry": {"type": "Polygon", "coordinates": [[[120.55009537717969, 31.421868032], [120.54988478718727, 31.421687104], [120.54999008218347, 31.421687104], [120.55009537717969, 31.421868032]]]}}, {"type": "Feature", "properties": {"area_ha": 0.0, "mean": null}, "geometry": {"type": "Polygon", "coordinates": [[[120.54135589249432, 31.421777568], [120.5412505974981, 31.421687104], [120.54135589249432, 31.421687104], [120.54135589249432, 31.421777568]]]}}, {"type": "Feature", "properties": {"area_ha": 0.0, "mean": null}, "geometry": {"type": "Polygon", "coordinates": [[[120.55020067217589, 31.421777568], [120.55009537717969, 31.421687104], [120.55020067217589, 31.421687104], [120.55020067217589, 31.421777568]]]}}, {"type": "Feature", "properties": {"area_ha": 0.74, "mean": 0.0685}, "geometry": {"type": "Polygon", "coordinates": [[[120.54988478718727, 31.422682208], [120.54925301721, 31.42250128], [120.5491477222138, 31.42159664], [120.55020067217589, 31.421958496000002], [120.54988478718727, 31.422682208]], [[120.54935831220622, 31.422320352], [120.54946360720243, 31.422410816], [120.54946360720243, 31.422320352], [120.54935831220622, 31.422320352]]]}}, {"type": "Feature", "properties": {"area_ha": 0.01, "mean": 0.0837}, "geometry": {"type": "Polygon", "coordinates": [[[120.54956890219864, 31.421777568], [120.54946360720243, 31.42159664], [120.54956890219864, 31.42159664], [120.54956890219864, 31.421777568]]]}}, {"type": "Feature", "properties": {"area_ha": 0.45, "mean": 0.1013}, "geometry": {"type": "Polygon", "coordinates": [[[120.55051655716453, 31.420963392], [120.54956890219864, 31.421506176], [120.55051655716453, 31.420058752], [120.55051655716453, 31.420963392]]]}}, {"type": "Feature", "properties": {"area_ha": 0.0, "mean": null}, "geometry": {"type": "Polygon", "coordinates": [[[120.5412505974981, 31.420149216], [120.5411453025019, 31.420058752], [120.5412505974981, 31.420058752], [120.5412505974981, 31.420149216]]]}}, {"type": "Feature", "properties": {"area_ha": 0.05, "mean": 0.0664}, "geometry": {"type": "Polygon", "coordinates": [[[120.54135589249432, 31.41978736], [120.54104000750569, 31.419425504], [120.54146118749053, 31.419606432000002], [120.54135589249432, 31.41978736]]]}}, {"type": "Feature", "properties": {"area_ha": 0.01, "mean": 0.0675}, "geometry": {"type": "Polygon", "coordinates": [[[120.5412505974981, 31.419244576], [120.5411453025019, 31.419063648], [120.5412505974981, 31.419063648], [120.5412505974981, 31.419244576]]]}}, {"type": "Feature", "properties": {"area_ha": 0.02, "mean": 0.0981}, "geometry": {"type": "Polygon", "coordinates": [[[120.55072714715695, 31.418792256], [120.55041126216831, 31.418611328], [120.55072714715695, 31.418701792], [120.55072714715695, 31.418792256]]]}}, {"type": "Feature", "properties": {"area_ha": 0.0, "mean": null}, "geometry": {"type": "Polygon", "coordinates": [[[120.55093773714935, 31.418611328], [120.55083244215315, 31.418520864], [120.55093773714935, 31.418520864], [120.55093773714935, 31.418611328]]]}}, {"type": "Feature", "properties": {"area_ha": 0.0, "mean": null}, "geometry": {"type": "Polygon", "coordinates": [[[120.55083244215315, 31.418520864], [120.55072714715695, 31.418430400000002], [120.55083244215315, 31.418430400000002], [120.55083244215315, 31.418520864]]]}}, {"type": "Feature", "properties": {"area_ha": 0.16, "mean": 0.0979}, "geometry": {"type": "Polygon", "coordinates": [[[120.55041126216831, 31.41797808], [120.54935831220622, 31.41752576], [120.55041126216831, 31.417706688], [120.55041126216831, 31.41797808]]]}}, {"type": "Feature", "properties": {"area_ha": 0.02, "mean": 0.0998}, "geometry": {"type": "Polygon", "coordinates": [[[120.55125362213799, 31.417435296], [120.55093773714935, 31.417344832], [120.55114832714177, 31.417254368000002], [120.55125362213799, 31.417435296]]]}}, {"type": "Feature", "properties": {"area_ha": 0.12, "mean": 0.1401}, "geometry": {"type": "Polygon", "coordinates": [[[120.52935226292647, 31.415626016], [120.52850990295678, 31.415535552], [120.528615197953, 31.41526416], [120.52935226292647, 31.415626016]]]}}, {"type": "Feature", "properties": {"area_ha": 0.02, "mean": 0.1318}, "geometry": {"type": "Polygon", "coordinates": [[[120.5273516579985, 31.415083232], [120.52703577300986, 31.414992768], [120.52724636300228, 31.414902304], [120.5273516579985, 31.415083232]]]}}]}