{"type": "FeatureCollection", "features": [{"type": "Feature", "properties": {"name": "黄埭镇水体边界 (JRC参考+S2 10m细化)"}, "geometry": {"type": "MultiPolygon", "coordinates": [[[[120.52724636300228, 31.414902304], [120.52703577300986, 31.414992768], [120.5273516579985, 31.415083232], [120.52724636300228, 31.414902304]]], [[[120.528615197953, 31.41526416], [120.52850990295678, 31.415535552], [120.52935226292647, 31.415626016], [120.528615197953, 31.41526416]]], [[[120.54167177748295, 31.418792256], [120.54082941751327, 31.419606432000002], [120.54156648248674, 31.420330144], [120.54167177748295, 31.418792256]]], [[[120.5319846378317, 31.425305664], [120.53293229279758, 31.425396128], [120.53314288279, 31.425124736], [120.5319846378317, 31.425305664]]], [[[120.53103698286581, 31.425757984], [120.53156345784686, 31.426029376], [120.53177404783928, 31.425757984], [120.53103698286581, 31.425757984]]], [[[120.52914167293405, 31.425757984], [120.52935226292647, 31.426481696], [120.53008932789993, 31.425848448], [120.52914167293405, 31.425757984]]], [[[120.53756527263079, 31.44511728], [120.53788115761941, 31.4455696], [120.53788115761941, 31.444755424], [120.53756527263079, 31.44511728]]], [[[120.53840763260045, 31.446112384], [120.53924999257013, 31.445750528], [120.53893410758151, 31.445388672], [120.53840763260045, 31.446112384]]], [[[120.54082941751327, 31.44602192], [120.5400923525398, 31.445931456], [120.54061882752086, 31.446293312], [120.54082941751327, 31.44602192]]], [[[120.53735468263837, 31.446383776], [120.53767056762699, 31.446655168], [120.53756527263079, 31.446293312], [120.53735468263837, 31.446383776]]], [[[120.5297734429113, 31.469633024], [120.53230052282032, 31.468818848], [120.52956285291889, 31.46909024], [120.5297734429113, 31.469633024]]], [[[120.55114832714177, 31.417254368000002], [120.55093773714935, 31.417344832], [120.55125362213799, 31.417435296], [120.55114832714177, 31.417254368000002]]], [[[120.55041126216831, 31.417706688], [120.54935831220622, 31.41752576], [120.55030596717211, 31.418068544], [120.55041126216831, 31.417706688]]], [[[120.55093773714935, 31.418520864], [120.54535710235027, 31.42114432], [120.55009537717969, 31.422682208], [120.55093773714935, 31.418520864]]], [[[120.5822103510235, 31.422320352], [120.58652744586809, 31.420420608], [120.58631685587567, 31.41978736], [120.5822103510235, 31.422320352]]], [[[120.54051353252464, 31.422682208], [120.54219825246399, 31.423496384], [120.54146118749053, 31.421506176], [120.54051353252464, 31.422682208]]], [[[120.5821050560273, 31.422591744], [120.57620853623958, 31.42566752], [120.580946811069, 31.424672416], [120.5821050560273, 31.422591744]]], [[[120.57905150113723, 31.426934016], [120.57957797611827, 31.426753088], [120.57915679613343, 31.426481696], [120.57905150113723, 31.426934016]]], [[[120.57947268112207, 31.427838656], [120.58010445109932, 31.42792912], [120.57957797611827, 31.427567264], [120.57947268112207, 31.427838656]]], [[[120.57052260644429, 31.429014688], [120.57031201645187, 31.429105152], [120.57062790144049, 31.429195616], [120.57052260644429, 31.429014688]]], [[[120.59874166542836, 31.431457216000002], [120.59947873040183, 31.431457216000002], [120.59926814040941, 31.430823968000002], [120.59874166542836, 31.431457216000002]]], [[[120.5411453025019, 31.445660064000002], [120.54135589249432, 31.445931456], [120.54146118749053, 31.445750528], [120.5411453025019, 31.445660064000002]]]]}}]}