{"type": "FeatureCollection", "features": [{"type": "Feature", "properties": {"area_ha": 0.02, "mean": 0.1541}, "geometry": {"type": "Polygon", "coordinates": [[[120.60126874533738, 31.456968064], [120.60116345034118, 31.456606208], [120.60126874533738, 31.456606208], [120.60126874533738, 31.456968064]]]}}, {"type": "Feature", "properties": {"area_ha": 0.01, "mean": 0.082}, "geometry": {"type": "Polygon", "coordinates": [[[120.60116345034118, 31.456606208], [120.60105815534496, 31.45642528], [120.60116345034118, 31.45642528], [120.60116345034118, 31.456606208]]]}}, {"type": "Feature", "properties": {"area_ha": 0.0, "mean": null}, "geometry": {"type": "Polygon", "coordinates": [[[120.60063697536013, 31.455882496], [120.60053168036391, 31.455792032], [120.60063697536013, 31.455792032], [120.60063697536013, 31.455882496]]]}}, {"type": "Feature", "properties": {"area_ha": 0.05, "mean": 0.1251}, "geometry": {"type": "Polygon", "coordinates": [[[120.60084756535254, 31.455701568000002], [120.60063697536013, 31.455158784], [120.60084756535254, 31.455158784], [120.60084756535254, 31.455701568000002]]]}}, {"type": "Feature", "properties": {"area_ha": 0.02, "mean": 0.1404}, "geometry": {"type": "Polygon", "coordinates": [[[120.60084756535254, 31.454887392], [120.60063697536013, 31.454796928], [120.60084756535254, 31.454706464], [120.60084756535254, 31.454887392]]]}}, {"type": "Feature", "properties": {"area_ha": 0.01, "mean": 0.1492}, "geometry": {"type": "Polygon", "coordinates": [[[120.59842578043973, 31.431185824], [120.59832048544352, 31.431004896], [120.59842578043973, 31.431004896], [120.59842578043973, 31.431185824]]]}}, {"type": "Feature", "properties": {"area_ha": 0.0, "mean": null}, "geometry": {"type": "Polygon", "coordinates": [[[120.59853107543594, 31.431004896], [120.59842578043973, 31.430914432], [120.59853107543594, 31.430914432], [120.59853107543594, 31.431004896]]]}}, {"type": "Feature", "properties": {"area_ha": 0.0, "mean": null}, "geometry": {"type": "Polygon", "coordinates": [[[120.59863637043215, 31.430914432], [120.59853107543594, 31.430823968000002], [120.59863637043215, 31.430823968000002], [120.59863637043215, 31.430914432]]]}}, {"type": "Feature", "properties": {"area_ha": 0.0, "mean": null}, "geometry": {"type": "Polygon", "coordinates": [[[120.51892805830175, 31.429105152], [120.51882276330554, 31.429014688], [120.51892805830175, 31.429014688], [120.51892805830175, 31.429105152]]]}}, {"type": "Feature", "properties": {"area_ha": 0.01, "mean": 0.2319}, "geometry": {"type": "Polygon", "coordinates": [[[120.59884696042457, 31.412731168], [120.59863637043215, 31.412640704], [120.59884696042457, 31.412640704], [120.59884696042457, 31.412731168]]]}}, {"type": "Feature", "properties": {"area_ha": 0.0, "mean": null}, "geometry": {"type": "Polygon", "coordinates": [[[120.59768871546626, 31.41255024], [120.59758342047006, 31.412459776], [120.59768871546626, 31.412459776], [120.59768871546626, 31.41255024]]]}}, {"type": "Feature", "properties": {"area_ha": 0.0, "mean": null}, "geometry": {"type": "Polygon", "coordinates": [[[120.59863637043215, 31.41209792], [120.59853107543594, 31.412007456], [120.59863637043215, 31.412007456], [120.59863637043215, 31.41209792]]]}}, {"type": "Feature", "properties": {"area_ha": 0.0, "mean": null}, "geometry": {"type": "Polygon", "coordinates": [[[120.59874166542836, 31.412007456], [120.59863637043215, 31.411916992000002], [120.59874166542836, 31.411916992000002], [120.59874166542836, 31.412007456]]]}}, {"type": "Feature", "properties": {"area_ha": 0.0, "mean": null}, "geometry": {"type": "Polygon", "coordinates": [[[120.59884696042457, 31.411916992000002], [120.59874166542836, 31.411826528], [120.59884696042457, 31.411826528], [120.59884696042457, 31.411916992000002]]]}}, {"type": "Feature", "properties": {"area_ha": 0.0, "mean": null}, "geometry": {"type": "Polygon", "coordinates": [[[120.59905755041699, 31.411826528], [120.59895225542078, 31.411736064], [120.59905755041699, 31.411736064], [120.59905755041699, 31.411826528]]]}}, {"type": "Feature", "properties": {"area_ha": 0.0, "mean": null}, "geometry": {"type": "Polygon", "coordinates": [[[120.59916284541319, 31.411736064], [120.59905755041699, 31.4116456], [120.59916284541319, 31.4116456], [120.59916284541319, 31.411736064]]]}}, {"type": "Feature", "properties": {"area_ha": 0.0, "mean": null}, "geometry": {"type": "Polygon", "coordinates": [[[120.59926814040941, 31.4116456], [120.59916284541319, 31.411555136], [120.59926814040941, 31.411555136], [120.59926814040941, 31.4116456]]]}}, {"type": "Feature", "properties": {"area_ha": 0.03, "mean": 0.1923}, "geometry": {"type": "Polygon", "coordinates": [[[120.59947873040183, 31.411555136], [120.59937343540561, 31.411374208], [120.59958402539803, 31.411283744], [120.59947873040183, 31.411555136]]]}}, {"type": "Feature", "properties": {"area_ha": 0.0, "mean": null}, "geometry": {"type": "Polygon", "coordinates": [[[120.59968932039425, 31.411283744], [120.59958402539803, 31.41119328], [120.59968932039425, 31.41119328], [120.59968932039425, 31.411283744]]]}}, {"type": "Feature", "properties": {"area_ha": 0.0, "mean": null}, "geometry": {"type": "Polygon", "coordinates": [[[120.59979461539045, 31.41119328], [120.59968932039425, 31.411102816], [120.59979461539045, 31.411102816], [120.59979461539045, 31.41119328]]]}}, {"type": "Feature", "properties": {"area_ha": 0.01, "mean": 0.2284}, "geometry": {"type": "Polygon", "coordinates": [[[120.60021579537529, 31.411102816], [120.59989991038665, 31.411012352], [120.60021579537529, 31.411012352], [120.60021579537529, 31.411102816]]]}}, {"type": "Feature", "properties": {"area_ha": 0.0, "mean": null}, "geometry": {"type": "Polygon", "coordinates": [[[120.60074227035633, 31.411012352], [120.60063697536013, 31.410921888], [120.60074227035633, 31.410921888], [120.60074227035633, 31.411012352]]]}}, {"type": "Feature", "properties": {"area_ha": 0.03, "mean": 0.1605}, "geometry": {"type": "Polygon", "coordinates": [[[120.6013740403336, 31.410650496], [120.60126874533738, 31.410469568], [120.6014793353298, 31.410379104], [120.6013740403336, 31.410650496]]]}}, {"type": "Feature", "properties": {"area_ha": 0.01, "mean": 0.1424}, "geometry": {"type": "Polygon", "coordinates": [[[120.60200581031084, 31.410107712], [120.60179522031842, 31.410017248], [120.60200581031084, 31.410017248], [120.60200581031084, 31.410107712]]]}}, {"type": "Feature", "properties": {"area_ha": 0.01, "mean": 0.0912}, "geometry": {"type": "Polygon", "coordinates": [[[120.6026375802881, 31.40983632], [120.60253228529189, 31.409655392], [120.6026375802881, 31.409655392], [120.6026375802881, 31.40983632]]]}}, {"type": "Feature", "properties": {"area_ha": 0.01, "mean": 0.1667}, "geometry": {"type": "Polygon", "coordinates": [[[120.60295346527673, 31.409655392], [120.6027428752843, 31.409564928], [120.60295346527673, 31.409564928], [120.60295346527673, 31.409655392]]]}}]}