{"type": "FeatureCollection", "features": [{"type": "Feature", "properties": {"area_ha": 0.0, "mean": null}, "geometry": {"type": "Polygon", "coordinates": [[[120.55536012699015, 31.475603648], [120.55525483199393, 31.475513184], [120.55536012699015, 31.475513184], [120.55536012699015, 31.475603648]]]}}, {"type": "Feature", "properties": {"area_ha": 0.03, "mean": 0.2223}, "geometry": {"type": "Polygon", "coordinates": [[[120.5775773711903, 31.473070656], [120.57726148620168, 31.472799264000002], [120.5776826661865, 31.472889728000002], [120.5775773711903, 31.473070656]]]}}, {"type": "Feature", "properties": {"area_ha": 0.0, "mean": null}, "geometry": {"type": "Polygon", "coordinates": [[[120.58084151607278, 31.472799264000002], [120.58073622107658, 31.4727088], [120.58084151607278, 31.4727088], [120.58084151607278, 31.472799264000002]]]}}, {"type": "Feature", "properties": {"area_ha": 0.0, "mean": null}, "geometry": {"type": "Polygon", "coordinates": [[[120.5810521060652, 31.4727088], [120.580946811069, 31.472618336], [120.5810521060652, 31.472618336], [120.5810521060652, 31.4727088]]]}}, {"type": "Feature", "properties": {"area_ha": 0.04, "mean": 0.237}, "geometry": {"type": "Polygon", "coordinates": [[[120.58178917103866, 31.471623232000002], [120.58168387604246, 31.471442304], [120.58199976103108, 31.471442304], [120.58178917103866, 31.471623232000002]]]}}, {"type": "Feature", "properties": {"area_ha": 0.01, "mean": 0.3593}, "geometry": {"type": "Polygon", "coordinates": [[[120.58136799105384, 31.471532768], [120.58115740106142, 31.471442304], [120.58136799105384, 31.471442304], [120.58136799105384, 31.471532768]]]}}, {"type": "Feature", "properties": {"area_ha": 0.0, "mean": null}, "geometry": {"type": "Polygon", "coordinates": [[[120.5810521060652, 31.471442304], [120.580946811069, 31.47135184], [120.5810521060652, 31.47135184], [120.5810521060652, 31.471442304]]]}}, {"type": "Feature", "properties": {"area_ha": 0.01, "mean": 0.3182}, "geometry": {"type": "Polygon", "coordinates": [[[120.5822103510235, 31.471442304], [120.58199976103108, 31.47135184], [120.5822103510235, 31.47135184], [120.5822103510235, 31.471442304]]]}}, {"type": "Feature", "properties": {"area_ha": 0.01, "mean": 0.3346}, "geometry": {"type": "Polygon", "coordinates": [[[120.58284212100077, 31.471442304], [120.58263153100835, 31.47135184], [120.58284212100077, 31.47135184], [120.58284212100077, 31.471442304]]]}}, {"type": "Feature", "properties": {"area_ha": 0.01, "mean": 0.2681}, "geometry": {"type": "Polygon", "coordinates": [[[120.58084151607278, 31.47135184], [120.58052563108416, 31.471261376], [120.58084151607278, 31.471261376], [120.58084151607278, 31.47135184]]]}}, {"type": "Feature", "properties": {"area_ha": 0.01, "mean": 0.121}, "geometry": {"type": "Polygon", "coordinates": [[[120.52577223305535, 31.464928896], [120.52566693805915, 31.464657504], [120.52577223305535, 31.464657504], [120.52577223305535, 31.464928896]]]}}, {"type": "Feature", "properties": {"area_ha": 0.0, "mean": null}, "geometry": {"type": "Polygon", "coordinates": [[[120.52587752805155, 31.464476576], [120.52577223305535, 31.464386112], [120.52587752805155, 31.464386112], [120.52587752805155, 31.464476576]]]}}, {"type": "Feature", "properties": {"area_ha": 0.0, "mean": null}, "geometry": {"type": "Polygon", "coordinates": [[[120.52619341304019, 31.464205184], [120.52608811804397, 31.46411472], [120.52619341304019, 31.46411472], [120.52619341304019, 31.464205184]]]}}, {"type": "Feature", "properties": {"area_ha": 0.02, "mean": 0.1541}, "geometry": {"type": "Polygon", "coordinates": [[[120.60126874533738, 31.456968064], [120.60116345034118, 31.456606208], [120.60126874533738, 31.456606208], [120.60126874533738, 31.456968064]]]}}, {"type": "Feature", "properties": {"area_ha": 0.0, "mean": null}, "geometry": {"type": "Polygon", "coordinates": [[[120.60116345034118, 31.456606208], [120.60105815534496, 31.456515744], [120.60116345034118, 31.456515744], [120.60116345034118, 31.456606208]]]}}, {"type": "Feature", "properties": {"area_ha": 0.0, "mean": null}, "geometry": {"type": "Polygon", "coordinates": [[[120.5354593727066, 31.456244352000002], [120.5353540777104, 31.456153888], [120.5354593727066, 31.456153888], [120.5354593727066, 31.456244352000002]]]}}, {"type": "Feature", "properties": {"area_ha": 0.03, "mean": 0.1433}, "geometry": {"type": "Polygon", "coordinates": [[[120.60084756535254, 31.455611104], [120.60063697536013, 31.455158784], [120.60074227035633, 31.455158784], [120.60084756535254, 31.455611104]]]}}, {"type": "Feature", "properties": {"area_ha": 0.0, "mean": null}, "geometry": {"type": "Polygon", "coordinates": [[[120.60074227035633, 31.454887392], [120.60063697536013, 31.454796928], [120.60074227035633, 31.454796928], [120.60074227035633, 31.454887392]]]}}, {"type": "Feature", "properties": {"area_ha": 0.0, "mean": null}, "geometry": {"type": "Polygon", "coordinates": [[[120.60084756535254, 31.454796928], [120.60074227035633, 31.454706464], [120.60084756535254, 31.454706464], [120.60084756535254, 31.454796928]]]}}, {"type": "Feature", "properties": {"area_ha": 0.0, "mean": null}, "geometry": {"type": "Polygon", "coordinates": [[[120.53609114268386, 31.453168576], [120.53598584768764, 31.453078112], [120.53609114268386, 31.453078112], [120.53609114268386, 31.453168576]]]}}, {"type": "Feature", "properties": {"area_ha": 0.0, "mean": null}, "geometry": {"type": "Polygon", "coordinates": [[[120.53619643768006, 31.452535328], [120.53609114268386, 31.452444864], [120.53619643768006, 31.452444864], [120.53619643768006, 31.452535328]]]}}, {"type": "Feature", "properties": {"area_ha": 0.0, "mean": null}, "geometry": {"type": "Polygon", "coordinates": [[[120.53630173267628, 31.452083008], [120.53619643768006, 31.451992544], [120.53630173267628, 31.451992544], [120.53630173267628, 31.452083008]]]}}, {"type": "Feature", "properties": {"area_ha": 0.0, "mean": null}, "geometry": {"type": "Polygon", "coordinates": [[[120.5366176176649, 31.450454656], [120.5365123226687, 31.450364192000002], [120.5366176176649, 31.450364192000002], [120.5366176176649, 31.450454656]]]}}, {"type": "Feature", "properties": {"area_ha": 0.0, "mean": null}, "geometry": {"type": "Polygon", "coordinates": [[[120.53946058256255, 31.446836096000002], [120.53935528756634, 31.446745632], [120.53946058256255, 31.446745632], [120.53946058256255, 31.446836096000002]]]}}, {"type": "Feature", "properties": {"area_ha": 0.0, "mean": null}, "geometry": {"type": "Polygon", "coordinates": [[[120.51776981334345, 31.431457216000002], [120.51766451834723, 31.431366752], [120.51776981334345, 31.431366752], [120.51776981334345, 31.431457216000002]]]}}, {"type": "Feature", "properties": {"area_ha": 0.0, "mean": null}, "geometry": {"type": "Polygon", "coordinates": [[[120.51787510833965, 31.43109536], [120.51776981334345, 31.431004896], [120.51787510833965, 31.431004896], [120.51787510833965, 31.43109536]]]}}, {"type": "Feature", "properties": {"area_ha": 0.07, "mean": 0.1416}, "geometry": {"type": "Polygon", "coordinates": [[[120.59853107543594, 31.431276288], [120.59832048544352, 31.431004896], [120.59863637043215, 31.430823968000002], [120.59853107543594, 31.431276288]]]}}, {"type": "Feature", "properties": {"area_ha": 0.0, "mean": null}, "geometry": {"type": "Polygon", "coordinates": [[[120.59884696042457, 31.430914432], [120.59874166542836, 31.430823968000002], [120.59884696042457, 31.430823968000002], [120.59884696042457, 31.430914432]]]}}, {"type": "Feature", "properties": {"area_ha": 0.0, "mean": null}, "geometry": {"type": "Polygon", "coordinates": [[[120.51798040333587, 31.430823968000002], [120.51787510833965, 31.430733504], [120.51798040333587, 31.430733504], [120.51798040333587, 31.430823968000002]]]}}, {"type": "Feature", "properties": {"area_ha": 0.0, "mean": null}, "geometry": {"type": "Polygon", "coordinates": [[[120.52019159825626, 31.43064304], [120.52008630326004, 31.430552576], [120.52019159825626, 31.430552576], [120.52019159825626, 31.43064304]]]}}, {"type": "Feature", "properties": {"area_ha": 0.0, "mean": null}, "geometry": {"type": "Polygon", "coordinates": [[[120.51808569833207, 31.430552576], [120.51798040333587, 31.430462112], [120.51808569833207, 31.430462112], [120.51808569833207, 31.430552576]]]}}, {"type": "Feature", "properties": {"area_ha": 0.01, "mean": 0.2208}, "geometry": {"type": "Polygon", "coordinates": [[[120.51819099332829, 31.430371648], [120.51808569833207, 31.43019072], [120.51819099332829, 31.43019072], [120.51819099332829, 31.430371648]]]}}, {"type": "Feature", "properties": {"area_ha": 0.01, "mean": 0.1879}, "geometry": {"type": "Polygon", "coordinates": [[[120.51829628832449, 31.43019072], [120.51819099332829, 31.429919328], [120.51829628832449, 31.429919328], [120.51829628832449, 31.43019072]]]}}, {"type": "Feature", "properties": {"area_ha": 0.01, "mean": 0.2222}, "geometry": {"type": "Polygon", "coordinates": [[[120.5184015833207, 31.429919328], [120.51829628832449, 31.4297384], [120.5184015833207, 31.4297384], [120.5184015833207, 31.429919328]]]}}, {"type": "Feature", "properties": {"area_ha": 0.0, "mean": null}, "geometry": {"type": "Polygon", "coordinates": [[[120.51850687831691, 31.429647936000002], [120.5184015833207, 31.429557472], [120.51850687831691, 31.429557472], [120.51850687831691, 31.429647936000002]]]}}, {"type": "Feature", "properties": {"area_ha": 0.0, "mean": null}, "geometry": {"type": "Polygon", "coordinates": [[[120.51861217331312, 31.429467008], [120.51850687831691, 31.429376544], [120.51861217331312, 31.429376544], [120.51861217331312, 31.429467008]]]}}, {"type": "Feature", "properties": {"area_ha": 0.0, "mean": null}, "geometry": {"type": "Polygon", "coordinates": [[[120.51871746830933, 31.429376544], [120.51861217331312, 31.42928608], [120.51871746830933, 31.42928608], [120.51871746830933, 31.429376544]]]}}, {"type": "Feature", "properties": {"area_ha": 0.0, "mean": null}, "geometry": {"type": "Polygon", "coordinates": [[[120.51882276330554, 31.42928608], [120.51871746830933, 31.429195616], [120.51882276330554, 31.429195616], [120.51882276330554, 31.42928608]]]}}, {"type": "Feature", "properties": {"area_ha": 0.01, "mean": 0.2403}, "geometry": {"type": "Polygon", "coordinates": [[[120.51892805830175, 31.429195616], [120.51882276330554, 31.429014688], [120.51892805830175, 31.429014688], [120.51892805830175, 31.429195616]]]}}, {"type": "Feature", "properties": {"area_ha": 0.0, "mean": null}, "geometry": {"type": "Polygon", "coordinates": [[[120.57199673639121, 31.42883376], [120.571891441395, 31.428743296], [120.57199673639121, 31.428743296], [120.57199673639121, 31.42883376]]]}}, {"type": "Feature", "properties": {"area_ha": 0.01, "mean": 0.1847}, "geometry": {"type": "Polygon", "coordinates": [[[120.51892805830175, 31.428924224], [120.51882276330554, 31.428652832], [120.51892805830175, 31.428652832], [120.51892805830175, 31.428924224]]]}}, {"type": "Feature", "properties": {"area_ha": 0.0, "mean": null}, "geometry": {"type": "Polygon", "coordinates": [[[120.51903335329796, 31.428562368], [120.51892805830175, 31.428471904000002], [120.51903335329796, 31.428471904000002], [120.51903335329796, 31.428562368]]]}}, {"type": "Feature", "properties": {"area_ha": 0.0, "mean": null}, "geometry": {"type": "Polygon", "coordinates": [[[120.57220732638363, 31.428562368], [120.57210203138742, 31.428471904000002], [120.57220732638363, 31.428471904000002], [120.57220732638363, 31.428562368]]]}}, {"type": "Feature", "properties": {"area_ha": 0.0, "mean": null}, "geometry": {"type": "Polygon", "coordinates": [[[120.57231262137984, 31.42838144], [120.57220732638363, 31.428290976], [120.57231262137984, 31.428290976], [120.57231262137984, 31.42838144]]]}}, {"type": "Feature", "properties": {"area_ha": 0.0, "mean": null}, "geometry": {"type": "Polygon", "coordinates": [[[120.5206127782411, 31.428110048], [120.52050748324488, 31.428019584], [120.5206127782411, 31.428019584], [120.5206127782411, 31.428110048]]]}}, {"type": "Feature", "properties": {"area_ha": 0.0, "mean": null}, "geometry": {"type": "Polygon", "coordinates": [[[120.51924394329038, 31.428019584], [120.51913864829417, 31.42792912], [120.51924394329038, 31.42792912], [120.51924394329038, 31.428019584]]]}}, {"type": "Feature", "properties": {"area_ha": 0.0, "mean": null}, "geometry": {"type": "Polygon", "coordinates": [[[120.51934923828658, 31.427838656], [120.51924394329038, 31.427748192], [120.51934923828658, 31.427748192], [120.51934923828658, 31.427838656]]]}}, {"type": "Feature", "properties": {"area_ha": 0.0, "mean": null}, "geometry": {"type": "Polygon", "coordinates": [[[120.52103395822593, 31.427748192], [120.52092866322972, 31.427657728], [120.52103395822593, 31.427657728], [120.52103395822593, 31.427748192]]]}}, {"type": "Feature", "properties": {"area_ha": 0.01, "mean": 0.1324}, "geometry": {"type": "Polygon", "coordinates": [[[120.52145513821077, 31.427657728], [120.52113925322215, 31.427567264], [120.52145513821077, 31.427567264], [120.52145513821077, 31.427657728]]]}}, {"type": "Feature", "properties": {"area_ha": 0.02, "mean": 0.1163}, "geometry": {"type": "Polygon", "coordinates": [[[120.52156043320699, 31.427386336], [120.52134984321457, 31.4274768], [120.52134984321457, 31.427295872000002], [120.52156043320699, 31.427386336]]]}}, {"type": "Feature", "properties": {"area_ha": 0.0, "mean": null}, "geometry": {"type": "Polygon", "coordinates": [[[120.52134984321457, 31.427295872000002], [120.52124454821835, 31.427205408], [120.52134984321457, 31.427205408], [120.52134984321457, 31.427295872000002]]]}}, {"type": "Feature", "properties": {"area_ha": 0.0, "mean": null}, "geometry": {"type": "Polygon", "coordinates": [[[120.52113925322215, 31.427205408], [120.52103395822593, 31.427114944], [120.52113925322215, 31.427114944], [120.52113925322215, 31.427205408]]]}}, {"type": "Feature", "properties": {"area_ha": 0.0, "mean": null}, "geometry": {"type": "Polygon", "coordinates": [[[120.51776981334345, 31.427114944], [120.51766451834723, 31.42702448], [120.51776981334345, 31.42702448], [120.51776981334345, 31.427114944]]]}}, {"type": "Feature", "properties": {"area_ha": 0.0, "mean": null}, "geometry": {"type": "Polygon", "coordinates": [[[120.52019159825626, 31.427114944], [120.52008630326004, 31.42702448], [120.52019159825626, 31.42702448], [120.52019159825626, 31.427114944]]]}}, {"type": "Feature", "properties": {"area_ha": 0.01, "mean": 0.178}, "geometry": {"type": "Polygon", "coordinates": [[[120.52092866322972, 31.427114944], [120.5207180732373, 31.42702448], [120.52092866322972, 31.42702448], [120.52092866322972, 31.427114944]]]}}, {"type": "Feature", "properties": {"area_ha": 0.0, "mean": null}, "geometry": {"type": "Polygon", "coordinates": [[[120.58052563108416, 31.42250128], [120.58042033608795, 31.422410816], [120.58052563108416, 31.422410816], [120.58052563108416, 31.42250128]]]}}, {"type": "Feature", "properties": {"area_ha": 0.0, "mean": null}, "geometry": {"type": "Polygon", "coordinates": [[[120.58063092608037, 31.422410816], [120.58052563108416, 31.422320352], [120.58063092608037, 31.422320352], [120.58063092608037, 31.422410816]]]}}, {"type": "Feature", "properties": {"area_ha": 0.0, "mean": null}, "geometry": {"type": "Polygon", "coordinates": [[[120.5934769156179, 31.422410816], [120.59337162062168, 31.422320352], [120.5934769156179, 31.422320352], [120.5934769156179, 31.422410816]]]}}, {"type": "Feature", "properties": {"area_ha": 0.0, "mean": null}, "geometry": {"type": "Polygon", "coordinates": [[[120.58263153100835, 31.42114432], [120.58252623601213, 31.421053856], [120.58263153100835, 31.421053856], [120.58263153100835, 31.42114432]]]}}, {"type": "Feature", "properties": {"area_ha": 0.0, "mean": null}, "geometry": {"type": "Polygon", "coordinates": [[[120.54641005231237, 31.420692], [120.54630475731615, 31.420601536], [120.54641005231237, 31.420601536], [120.54641005231237, 31.420692]]]}}, {"type": "Feature", "properties": {"area_ha": 0.02, "mean": 0.1168}, "geometry": {"type": "Polygon", "coordinates": [[[120.58610626588325, 31.420692], [120.58589567589082, 31.420601536], [120.58610626588325, 31.420511072], [120.58610626588325, 31.420692]]]}}, {"type": "Feature", "properties": {"area_ha": 0.0, "mean": null}, "geometry": {"type": "Polygon", "coordinates": [[[120.54409356239576, 31.420420608], [120.54398826739956, 31.420330144], [120.54409356239576, 31.420330144], [120.54409356239576, 31.420420608]]]}}, {"type": "Feature", "properties": {"area_ha": 0.0, "mean": null}, "geometry": {"type": "Polygon", "coordinates": [[[120.54388297240334, 31.420330144], [120.54377767740714, 31.42023968], [120.54388297240334, 31.42023968], [120.54388297240334, 31.420330144]]]}}, {"type": "Feature", "properties": {"area_ha": 0.01, "mean": 0.2407}, "geometry": {"type": "Polygon", "coordinates": [[[120.58736980583775, 31.42023968], [120.58715921584535, 31.420149216], [120.58736980583775, 31.420149216], [120.58736980583775, 31.42023968]]]}}, {"type": "Feature", "properties": {"area_ha": 0.0, "mean": null}, "geometry": {"type": "Polygon", "coordinates": [[[120.54440944738438, 31.420058752], [120.54430415238818, 31.419968288], [120.54440944738438, 31.419968288], [120.54440944738438, 31.420058752]]]}}, {"type": "Feature", "properties": {"area_ha": 0.0, "mean": null}, "geometry": {"type": "Polygon", "coordinates": [[[120.5491477222138, 31.420058752], [120.5490424272176, 31.419968288], [120.5491477222138, 31.419968288], [120.5491477222138, 31.420058752]]]}}, {"type": "Feature", "properties": {"area_ha": 0.0, "mean": null}, "geometry": {"type": "Polygon", "coordinates": [[[120.5445147423806, 31.419968288], [120.54440944738438, 31.419877824], [120.5445147423806, 31.419877824], [120.5445147423806, 31.419968288]]]}}, {"type": "Feature", "properties": {"area_ha": 0.0, "mean": null}, "geometry": {"type": "Polygon", "coordinates": [[[120.58378977596665, 31.419968288], [120.58368448097043, 31.419877824], [120.58378977596665, 31.419877824], [120.58378977596665, 31.419968288]]]}}, {"type": "Feature", "properties": {"area_ha": 0.0, "mean": null}, "geometry": {"type": "Polygon", "coordinates": [[[120.54356708741471, 31.419877824], [120.5434617924185, 31.41978736], [120.54356708741471, 31.41978736], [120.54356708741471, 31.419877824]]]}}, {"type": "Feature", "properties": {"area_ha": 0.0, "mean": null}, "geometry": {"type": "Polygon", "coordinates": [[[120.5445147423806, 31.419696896], [120.54440944738438, 31.419606432000002], [120.5445147423806, 31.419606432000002], [120.5445147423806, 31.419696896]]]}}, {"type": "Feature", "properties": {"area_ha": 0.02, "mean": 0.1361}, "geometry": {"type": "Polygon", "coordinates": [[[120.5434617924185, 31.41978736], [120.54304061243367, 31.419515968], [120.5434617924185, 31.419696896], [120.5434617924185, 31.41978736]]]}}, {"type": "Feature", "properties": {"area_ha": 0.0, "mean": null}, "geometry": {"type": "Polygon", "coordinates": [[[120.58452684094011, 31.419606432000002], [120.5844215459439, 31.419515968], [120.58452684094011, 31.419515968], [120.58452684094011, 31.419606432000002]]]}}, {"type": "Feature", "properties": {"area_ha": 0.0, "mean": null}, "geometry": {"type": "Polygon", "coordinates": [[[120.58473743093253, 31.419515968], [120.58463213593632, 31.419425504], [120.58473743093253, 31.419425504], [120.58473743093253, 31.419515968]]]}}, {"type": "Feature", "properties": {"area_ha": 0.0, "mean": null}, "geometry": {"type": "Polygon", "coordinates": [[[120.54304061243367, 31.419425504], [120.54293531743745, 31.41933504], [120.54304061243367, 31.41933504], [120.54304061243367, 31.419425504]]]}}, {"type": "Feature", "properties": {"area_ha": 0.0, "mean": null}, "geometry": {"type": "Polygon", "coordinates": [[[120.58568508589842, 31.419063648], [120.5855797909022, 31.418973184], [120.58568508589842, 31.418973184], [120.58568508589842, 31.419063648]]]}}, {"type": "Feature", "properties": {"area_ha": 0.0, "mean": null}, "geometry": {"type": "Polygon", "coordinates": [[[120.54325120242609, 31.418973184], [120.54314590742987, 31.41888272], [120.54325120242609, 31.41888272], [120.54325120242609, 31.418973184]]]}}, {"type": "Feature", "properties": {"area_ha": 0.0, "mean": null}, "geometry": {"type": "Polygon", "coordinates": [[[120.58600097088704, 31.418973184], [120.58589567589082, 31.41888272], [120.58600097088704, 31.41888272], [120.58600097088704, 31.418973184]]]}}, {"type": "Feature", "properties": {"area_ha": 0.0, "mean": null}, "geometry": {"type": "Polygon", "coordinates": [[[120.58947570576194, 31.41888272], [120.58937041076574, 31.418792256], [120.58947570576194, 31.418792256], [120.58947570576194, 31.41888272]]]}}, {"type": "Feature", "properties": {"area_ha": 0.0, "mean": null}, "geometry": {"type": "Polygon", "coordinates": [[[120.58631685587567, 31.418792256], [120.58621156087946, 31.418701792], [120.58631685587567, 31.418701792], [120.58631685587567, 31.418792256]]]}}, {"type": "Feature", "properties": {"area_ha": 0.0, "mean": null}, "geometry": {"type": "Polygon", "coordinates": [[[120.58684333085671, 31.418430400000002], [120.5867380358605, 31.418339936], [120.58684333085671, 31.418339936], [120.58684333085671, 31.418430400000002]]]}}, {"type": "Feature", "properties": {"area_ha": 0.0, "mean": null}, "geometry": {"type": "Polygon", "coordinates": [[[120.59073924571645, 31.41797808], [120.59063395072025, 31.417887616], [120.59073924571645, 31.417887616], [120.59073924571645, 31.41797808]]]}}, {"type": "Feature", "properties": {"area_ha": 0.0, "mean": null}, "geometry": {"type": "Polygon", "coordinates": [[[120.5912657206975, 31.417616224], [120.59116042570129, 31.41752576], [120.5912657206975, 31.41752576], [120.5912657206975, 31.417616224]]]}}, {"type": "Feature", "properties": {"area_ha": 0.0, "mean": null}, "geometry": {"type": "Polygon", "coordinates": [[[120.59158160568613, 31.417616224], [120.59147631068993, 31.41752576], [120.59158160568613, 31.41752576], [120.59158160568613, 31.417616224]]]}}, {"type": "Feature", "properties": {"area_ha": 0.0, "mean": null}, "geometry": {"type": "Polygon", "coordinates": [[[120.59137101569371, 31.41752576], [120.5912657206975, 31.417435296], [120.59137101569371, 31.417435296], [120.59137101569371, 31.41752576]]]}}, {"type": "Feature", "properties": {"area_ha": 0.0, "mean": null}, "geometry": {"type": "Polygon", "coordinates": [[[120.59189749067475, 31.417254368000002], [120.59179219567855, 31.417163904], [120.59189749067475, 31.417163904], [120.59189749067475, 31.417254368000002]]]}}, {"type": "Feature", "properties": {"area_ha": 0.0, "mean": null}, "geometry": {"type": "Polygon", "coordinates": [[[120.54040823752844, 31.417163904], [120.54030294253222, 31.41707344], [120.54040823752844, 31.41707344], [120.54040823752844, 31.417163904]]]}}, {"type": "Feature", "properties": {"area_ha": 0.01, "mean": 0.1267}, "geometry": {"type": "Polygon", "coordinates": [[[120.54030294253222, 31.41707344], [120.5400923525398, 31.416982976], [120.54030294253222, 31.416982976], [120.54030294253222, 31.41707344]]]}}, {"type": "Feature", "properties": {"area_ha": 0.0, "mean": null}, "geometry": {"type": "Polygon", "coordinates": [[[120.59200278567097, 31.41707344], [120.59189749067475, 31.416982976], [120.59200278567097, 31.416982976], [120.59200278567097, 31.41707344]]]}}, {"type": "Feature", "properties": {"area_ha": 0.0, "mean": null}, "geometry": {"type": "Polygon", "coordinates": [[[120.54851595223654, 31.416982976], [120.54841065724034, 31.416892512], [120.54851595223654, 31.416892512], [120.54851595223654, 31.416982976]]]}}, {"type": "Feature", "properties": {"area_ha": 0.0, "mean": null}, "geometry": {"type": "Polygon", "coordinates": [[[120.5398817625474, 31.416711584], [120.53977646755118, 31.41662112], [120.5398817625474, 31.41662112], [120.5398817625474, 31.416711584]]]}}, {"type": "Feature", "properties": {"area_ha": 0.0, "mean": null}, "geometry": {"type": "Polygon", "coordinates": [[[120.5399870575436, 31.41662112], [120.5398817625474, 31.416530656], [120.5399870575436, 31.416530656], [120.5399870575436, 31.41662112]]]}}, {"type": "Feature", "properties": {"area_ha": 0.01, "mean": 0.1158}, "geometry": {"type": "Polygon", "coordinates": [[[120.54051353252464, 31.416440192], [120.54019764753602, 31.416349728], [120.54051353252464, 31.416349728], [120.54051353252464, 31.416440192]]]}}, {"type": "Feature", "properties": {"area_ha": 0.0, "mean": null}, "geometry": {"type": "Polygon", "coordinates": [[[120.54283002244125, 31.416440192], [120.54272472744503, 31.416349728], [120.54283002244125, 31.416349728], [120.54283002244125, 31.416440192]]]}}, {"type": "Feature", "properties": {"area_ha": 0.0, "mean": null}, "geometry": {"type": "Polygon", "coordinates": [[[120.54167177748295, 31.416349728], [120.54156648248674, 31.416259264], [120.54167177748295, 31.416259264], [120.54167177748295, 31.416349728]]]}}, {"type": "Feature", "properties": {"area_ha": 0.0, "mean": null}, "geometry": {"type": "Polygon", "coordinates": [[[120.59094983570887, 31.416349728], [120.59084454071267, 31.416259264], [120.59094983570887, 31.416259264], [120.59094983570887, 31.416349728]]]}}, {"type": "Feature", "properties": {"area_ha": 0.0, "mean": null}, "geometry": {"type": "Polygon", "coordinates": [[[120.59105513070509, 31.416259264], [120.59094983570887, 31.4161688], [120.59105513070509, 31.4161688], [120.59105513070509, 31.416259264]]]}}, {"type": "Feature", "properties": {"area_ha": 0.01, "mean": 0.1163}, "geometry": {"type": "Polygon", "coordinates": [[[120.54261943244883, 31.4161688], [120.54251413745261, 31.415897408], [120.54261943244883, 31.415897408], [120.54261943244883, 31.4161688]]]}}, {"type": "Feature", "properties": {"area_ha": 0.0, "mean": null}, "geometry": {"type": "Polygon", "coordinates": [[[120.59147631068993, 31.415987872], [120.59137101569371, 31.415897408], [120.59147631068993, 31.415897408], [120.59147631068993, 31.415987872]]]}}, {"type": "Feature", "properties": {"area_ha": 0.0, "mean": null}, "geometry": {"type": "Polygon", "coordinates": [[[120.59168690068233, 31.415897408], [120.59158160568613, 31.415806944], [120.59168690068233, 31.415806944], [120.59168690068233, 31.415897408]]]}}, {"type": "Feature", "properties": {"area_ha": 0.0, "mean": null}, "geometry": {"type": "Polygon", "coordinates": [[[120.59179219567855, 31.415806944], [120.59168690068233, 31.41571648], [120.59179219567855, 31.41571648], [120.59179219567855, 31.415806944]]]}}, {"type": "Feature", "properties": {"area_ha": 0.0, "mean": null}, "geometry": {"type": "Polygon", "coordinates": [[[120.55199068711146, 31.415626016], [120.55188539211524, 31.415535552], [120.55199068711146, 31.415535552], [120.55199068711146, 31.415626016]]]}}, {"type": "Feature", "properties": {"area_ha": 0.01, "mean": 0.3629}, "geometry": {"type": "Polygon", "coordinates": [[[120.55230657210008, 31.415535552], [120.55209598210766, 31.415445088000002], [120.55230657210008, 31.415445088000002], [120.55230657210008, 31.415535552]]]}}, {"type": "Feature", "properties": {"area_ha": 0.0, "mean": null}, "geometry": {"type": "Polygon", "coordinates": [[[120.59368750561032, 31.414721376], [120.5935822106141, 31.414630912], [120.59368750561032, 31.414630912], [120.59368750561032, 31.414721376]]]}}, {"type": "Feature", "properties": {"area_ha": 0.0, "mean": null}, "geometry": {"type": "Polygon", "coordinates": [[[120.5947404555724, 31.414630912], [120.5946351605762, 31.414540448], [120.5947404555724, 31.414540448], [120.5947404555724, 31.414630912]]]}}, {"type": "Feature", "properties": {"area_ha": 0.0, "mean": null}, "geometry": {"type": "Polygon", "coordinates": [[[120.59410868559515, 31.414449984], [120.59400339059894, 31.41435952], [120.59410868559515, 31.41435952], [120.59410868559515, 31.414449984]]]}}, {"type": "Feature", "properties": {"area_ha": 0.0, "mean": null}, "geometry": {"type": "Polygon", "coordinates": [[[120.59505634056103, 31.414449984], [120.59495104556483, 31.41435952], [120.59505634056103, 31.41435952], [120.59505634056103, 31.414449984]]]}}, {"type": "Feature", "properties": {"area_ha": 0.0, "mean": null}, "geometry": {"type": "Polygon", "coordinates": [[[120.59421398059136, 31.41435952], [120.59410868559515, 31.414269056000002], [120.59421398059136, 31.414269056000002], [120.59421398059136, 31.41435952]]]}}, {"type": "Feature", "properties": {"area_ha": 0.0, "mean": null}, "geometry": {"type": "Polygon", "coordinates": [[[120.59516163555725, 31.41435952], [120.59505634056103, 31.414269056000002], [120.59516163555725, 31.414269056000002], [120.59516163555725, 31.41435952]]]}}, {"type": "Feature", "properties": {"area_ha": 0.0, "mean": null}, "geometry": {"type": "Polygon", "coordinates": [[[120.59537222554967, 31.414269056000002], [120.59526693055345, 31.414178592], [120.59537222554967, 31.414178592], [120.59537222554967, 31.414269056000002]]]}}, {"type": "Feature", "properties": {"area_ha": 0.0, "mean": null}, "geometry": {"type": "Polygon", "coordinates": [[[120.54219825246399, 31.414178592], [120.54209295746779, 31.414088128], [120.54219825246399, 31.414088128], [120.54219825246399, 31.414178592]]]}}, {"type": "Feature", "properties": {"area_ha": 0.0, "mean": null}, "geometry": {"type": "Polygon", "coordinates": [[[120.59568811053829, 31.414088128], [120.59558281554209, 31.413997664], [120.59568811053829, 31.413997664], [120.59568811053829, 31.414088128]]]}}, {"type": "Feature", "properties": {"area_ha": 0.0, "mean": null}, "geometry": {"type": "Polygon", "coordinates": [[[120.5946351605762, 31.413997664], [120.59452986557999, 31.4139072], [120.5946351605762, 31.4139072], [120.5946351605762, 31.413997664]]]}}, {"type": "Feature", "properties": {"area_ha": 0.0, "mean": null}, "geometry": {"type": "Polygon", "coordinates": [[[120.59600399552691, 31.4139072], [120.59589870053071, 31.413816736], [120.59600399552691, 31.413816736], [120.59600399552691, 31.4139072]]]}}, {"type": "Feature", "properties": {"area_ha": 0.0, "mean": null}, "geometry": {"type": "Polygon", "coordinates": [[[120.59484575056861, 31.413816736], [120.5947404555724, 31.413726272], [120.59484575056861, 31.413726272], [120.59484575056861, 31.413816736]]]}}, {"type": "Feature", "properties": {"area_ha": 0.0, "mean": null}, "geometry": {"type": "Polygon", "coordinates": [[[120.59621458551933, 31.413816736], [120.59610929052313, 31.413726272], [120.59621458551933, 31.413726272], [120.59621458551933, 31.413816736]]]}}, {"type": "Feature", "properties": {"area_ha": 0.0, "mean": null}, "geometry": {"type": "Polygon", "coordinates": [[[120.59642517551175, 31.413726272], [120.59631988051555, 31.413635808], [120.59642517551175, 31.413635808], [120.59642517551175, 31.413726272]]]}}, {"type": "Feature", "properties": {"area_ha": 0.0, "mean": null}, "geometry": {"type": "Polygon", "coordinates": [[[120.54230354746021, 31.413635808], [120.54219825246399, 31.413545344], [120.54230354746021, 31.413545344], [120.54230354746021, 31.413635808]]]}}, {"type": "Feature", "properties": {"area_ha": 0.0, "mean": null}, "geometry": {"type": "Polygon", "coordinates": [[[120.59653047050796, 31.413635808], [120.59642517551175, 31.413545344], [120.59653047050796, 31.413545344], [120.59653047050796, 31.413635808]]]}}, {"type": "Feature", "properties": {"area_ha": 0.0, "mean": null}, "geometry": {"type": "Polygon", "coordinates": [[[120.59537222554967, 31.413545344], [120.59526693055345, 31.41345488], [120.59537222554967, 31.41345488], [120.59537222554967, 31.413545344]]]}}, {"type": "Feature", "properties": {"area_ha": 0.0, "mean": null}, "geometry": {"type": "Polygon", "coordinates": [[[120.59663576550417, 31.413545344], [120.59653047050796, 31.41345488], [120.59663576550417, 31.41345488], [120.59663576550417, 31.413545344]]]}}, {"type": "Feature", "properties": {"area_ha": 0.0, "mean": null}, "geometry": {"type": "Polygon", "coordinates": [[[120.5957934055345, 31.413364416], [120.59568811053829, 31.413273952], [120.5957934055345, 31.413273952], [120.5957934055345, 31.413364416]]]}}, {"type": "Feature", "properties": {"area_ha": 0.0, "mean": null}, "geometry": {"type": "Polygon", "coordinates": [[[120.5969516504928, 31.413364416], [120.5968463554966, 31.413273952], [120.5969516504928, 31.413273952], [120.5969516504928, 31.413364416]]]}}, {"type": "Feature", "properties": {"area_ha": 0.0, "mean": null}, "geometry": {"type": "Polygon", "coordinates": [[[120.59600399552691, 31.413273952], [120.59589870053071, 31.413183488], [120.59600399552691, 31.413183488], [120.59600399552691, 31.413273952]]]}}, {"type": "Feature", "properties": {"area_ha": 0.0, "mean": null}, "geometry": {"type": "Polygon", "coordinates": [[[120.59705694548902, 31.413273952], [120.5969516504928, 31.413183488], [120.59705694548902, 31.413183488], [120.59705694548902, 31.413273952]]]}}, {"type": "Feature", "properties": {"area_ha": 0.01, "mean": 0.1508}, "geometry": {"type": "Polygon", "coordinates": [[[120.54240884245641, 31.413273952], [120.54230354746021, 31.413093024000002], [120.54240884245641, 31.413093024000002], [120.54240884245641, 31.413273952]]]}}, {"type": "Feature", "properties": {"area_ha": 0.01, "mean": 0.2532}, "geometry": {"type": "Polygon", "coordinates": [[[120.59726753548144, 31.413183488], [120.59705694548902, 31.413093024000002], [120.59726753548144, 31.413093024000002], [120.59726753548144, 31.413183488]]]}}, {"type": "Feature", "properties": {"area_ha": 0.0, "mean": null}, "geometry": {"type": "Polygon", "coordinates": [[[120.59663576550417, 31.41300256], [120.59653047050796, 31.412912096], [120.59663576550417, 31.412912096], [120.59663576550417, 31.41300256]]]}}, {"type": "Feature", "properties": {"area_ha": 0.0, "mean": null}, "geometry": {"type": "Polygon", "coordinates": [[[120.54251413745261, 31.412821632], [120.54240884245641, 31.412731168], [120.54251413745261, 31.412731168], [120.54251413745261, 31.412821632]]]}}, {"type": "Feature", "properties": {"area_ha": 0.0, "mean": null}, "geometry": {"type": "Polygon", "coordinates": [[[120.59716224048522, 31.412821632], [120.59705694548902, 31.412731168], [120.59716224048522, 31.412731168], [120.59716224048522, 31.412821632]]]}}, {"type": "Feature", "properties": {"area_ha": 0.01, "mean": 0.2277}, "geometry": {"type": "Polygon", "coordinates": [[[120.59737283047764, 31.412731168], [120.59716224048522, 31.412640704], [120.59737283047764, 31.412640704], [120.59737283047764, 31.412731168]]]}}, {"type": "Feature", "properties": {"area_ha": 0.02, "mean": 0.2324}, "geometry": {"type": "Polygon", "coordinates": [[[120.59895225542078, 31.412731168], [120.59853107543594, 31.412640704], [120.59895225542078, 31.412640704], [120.59895225542078, 31.412731168]]]}}, {"type": "Feature", "properties": {"area_ha": 0.0, "mean": null}, "geometry": {"type": "Polygon", "coordinates": [[[120.54261943244883, 31.412640704], [120.54251413745261, 31.41255024], [120.54261943244883, 31.41255024], [120.54261943244883, 31.412640704]]]}}, {"type": "Feature", "properties": {"area_ha": 0.01, "mean": 0.2337}, "geometry": {"type": "Polygon", "coordinates": [[[120.59758342047006, 31.412640704], [120.59737283047764, 31.41255024], [120.59758342047006, 31.41255024], [120.59758342047006, 31.412640704]]]}}, {"type": "Feature", "properties": {"area_ha": 0.01, "mean": 0.2205}, "geometry": {"type": "Polygon", "coordinates": [[[120.59779401046248, 31.41255024], [120.59758342047006, 31.412459776], [120.59779401046248, 31.412459776], [120.59779401046248, 31.41255024]]]}}, {"type": "Feature", "properties": {"area_ha": 0.0, "mean": null}, "geometry": {"type": "Polygon", "coordinates": [[[120.54272472744503, 31.412459776], [120.54261943244883, 31.412369312], [120.54272472744503, 31.412369312], [120.54272472744503, 31.412459776]]]}}, {"type": "Feature", "properties": {"area_ha": 0.01, "mean": 0.1768}, "geometry": {"type": "Polygon", "coordinates": [[[120.5981098954511, 31.412459776], [120.59789930545868, 31.412369312], [120.5981098954511, 31.412369312], [120.5981098954511, 31.412459776]]]}}, {"type": "Feature", "properties": {"area_ha": 0.01, "mean": 0.2009}, "geometry": {"type": "Polygon", "coordinates": [[[120.59832048544352, 31.412369312], [120.5982151904473, 31.412188384], [120.59832048544352, 31.412188384], [120.59832048544352, 31.412369312]]]}}, {"type": "Feature", "properties": {"area_ha": 0.01, "mean": 0.1625}, "geometry": {"type": "Polygon", "coordinates": [[[120.60011050037907, 31.412369312], [120.60000520538287, 31.412188384], [120.60011050037907, 31.412188384], [120.60011050037907, 31.412369312]]]}}, {"type": "Feature", "properties": {"area_ha": 0.0, "mean": null}, "geometry": {"type": "Polygon", "coordinates": [[[120.54283002244125, 31.412278848], [120.54272472744503, 31.412188384], [120.54283002244125, 31.412188384], [120.54283002244125, 31.412278848]]]}}, {"type": "Feature", "properties": {"area_ha": 0.01, "mean": 0.1948}, "geometry": {"type": "Polygon", "coordinates": [[[120.54293531743745, 31.412007456], [120.54283002244125, 31.411736064], [120.54293531743745, 31.411736064], [120.54293531743745, 31.412007456]]]}}, {"type": "Feature", "properties": {"area_ha": 0.0, "mean": null}, "geometry": {"type": "Polygon", "coordinates": [[[120.5902127707354, 31.411826528], [120.5901074757392, 31.411736064], [120.5902127707354, 31.411736064], [120.5902127707354, 31.411826528]]]}}, {"type": "Feature", "properties": {"area_ha": 0.01, "mean": 0.2092}, "geometry": {"type": "Polygon", "coordinates": [[[120.54304061243367, 31.411374208], [120.54293531743745, 31.41119328], [120.54304061243367, 31.41119328], [120.54304061243367, 31.411374208]]]}}, {"type": "Feature", "properties": {"area_ha": 0.07, "mean": 0.1818}, "geometry": {"type": "Polygon", "coordinates": [[[120.60021579537529, 31.411283744], [120.59968932039425, 31.411102816], [120.60021579537529, 31.411012352], [120.60021579537529, 31.411283744]]]}}, {"type": "Feature", "properties": {"area_ha": 0.0, "mean": null}, "geometry": {"type": "Polygon", "coordinates": [[[120.60084756535254, 31.411102816], [120.60063697536013, 31.410921888], [120.60084756535254, 31.411012352], [120.60084756535254, 31.411102816]]]}}, {"type": "Feature", "properties": {"area_ha": 0.01, "mean": 0.1964}, "geometry": {"type": "Polygon", "coordinates": [[[120.54314590742987, 31.410921888], [120.54304061243367, 31.410740960000002], [120.54314590742987, 31.410740960000002], [120.54314590742987, 31.410921888]]]}}, {"type": "Feature", "properties": {"area_ha": 0.03, "mean": 0.1315}, "geometry": {"type": "Polygon", "coordinates": [[[120.6014793353298, 31.410650496], [120.6013740403336, 31.410379104], [120.601584630326, 31.410379104], [120.6014793353298, 31.410650496]]]}}, {"type": "Feature", "properties": {"area_ha": 0.0, "mean": null}, "geometry": {"type": "Polygon", "coordinates": [[[120.54325120242609, 31.410469568], [120.54314590742987, 31.410379104], [120.54325120242609, 31.410379104], [120.54325120242609, 31.410469568]]]}}, {"type": "Feature", "properties": {"area_ha": 0.0, "mean": null}, "geometry": {"type": "Polygon", "coordinates": [[[120.60179522031842, 31.410379104], [120.60168992532222, 31.41028864], [120.60179522031842, 31.41028864], [120.60179522031842, 31.410379104]]]}}, {"type": "Feature", "properties": {"area_ha": 0.0, "mean": null}, "geometry": {"type": "Polygon", "coordinates": [[[120.60190051531464, 31.41028864], [120.60179522031842, 31.410198176], [120.60190051531464, 31.410198176], [120.60190051531464, 31.41028864]]]}}, {"type": "Feature", "properties": {"area_ha": 0.01, "mean": 0.1758}, "geometry": {"type": "Polygon", "coordinates": [[[120.60221640030326, 31.410107712], [120.60190051531464, 31.410017248], [120.60221640030326, 31.410017248], [120.60221640030326, 31.410107712]]]}}, {"type": "Feature", "properties": {"area_ha": 0.0, "mean": null}, "geometry": {"type": "Polygon", "coordinates": [[[120.60242699029568, 31.410017248], [120.60232169529948, 31.409926784], [120.60242699029568, 31.409926784], [120.60242699029568, 31.410017248]]]}}, {"type": "Feature", "properties": {"area_ha": 0.0, "mean": null}, "geometry": {"type": "Polygon", "coordinates": [[[120.54325120242609, 31.409926784], [120.54314590742987, 31.40983632], [120.54325120242609, 31.40983632], [120.54325120242609, 31.409926784]]]}}, {"type": "Feature", "properties": {"area_ha": 0.0, "mean": null}, "geometry": {"type": "Polygon", "coordinates": [[[120.60253228529189, 31.409926784], [120.60242699029568, 31.40983632], [120.60253228529189, 31.40983632], [120.60253228529189, 31.409926784]]]}}, {"type": "Feature", "properties": {"area_ha": 0.01, "mean": 0.1667}, "geometry": {"type": "Polygon", "coordinates": [[[120.60295346527673, 31.409745856], [120.60284817028052, 31.409564928], [120.60295346527673, 31.409564928], [120.60295346527673, 31.409745856]]]}}, {"type": "Feature", "properties": {"area_ha": 0.0, "mean": null}, "geometry": {"type": "Polygon", "coordinates": [[[120.59221337566339, 31.409655392], [120.59210808066717, 31.409564928], [120.59221337566339, 31.409564928], [120.59221337566339, 31.409655392]]]}}, {"type": "Feature", "properties": {"area_ha": 0.0, "mean": null}, "geometry": {"type": "Polygon", "coordinates": [[[120.54325120242609, 31.409384], [120.54314590742987, 31.409293536], [120.54325120242609, 31.409293536], [120.54325120242609, 31.409384]]]}}, {"type": "Feature", "properties": {"area_ha": 0.0, "mean": null}, "geometry": {"type": "Polygon", "coordinates": [[[120.5433564974223, 31.409293536], [120.54325120242609, 31.409203072], [120.5433564974223, 31.409203072], [120.5433564974223, 31.409293536]]]}}, {"type": "Feature", "properties": {"area_ha": 0.0, "mean": null}, "geometry": {"type": "Polygon", "coordinates": [[[120.5434617924185, 31.409022144], [120.5433564974223, 31.40893168], [120.5434617924185, 31.40893168], [120.5434617924185, 31.409022144]]]}}, {"type": "Feature", "properties": {"area_ha": 0.0, "mean": null}, "geometry": {"type": "Polygon", "coordinates": [[[120.54398826739956, 31.4071224], [120.54388297240334, 31.407031936], [120.54398826739956, 31.407031936], [120.54398826739956, 31.4071224]]]}}, {"type": "Feature", "properties": {"area_ha": 0.01, "mean": 0.1752}, "geometry": {"type": "Polygon", "coordinates": [[[120.54388297240334, 31.40621776], [120.54377767740714, 31.406036832], [120.54388297240334, 31.406036832], [120.54388297240334, 31.40621776]]]}}, {"type": "Feature", "properties": {"area_ha": 0.01, "mean": 0.107}, "geometry": {"type": "Polygon", "coordinates": [[[120.54377767740714, 31.405584512], [120.54367238241092, 31.405403584000002], [120.54377767740714, 31.405403584000002], [120.54377767740714, 31.405584512]]]}}, {"type": "Feature", "properties": {"area_ha": 0.0, "mean": null}, "geometry": {"type": "Polygon", "coordinates": [[[120.54367238241092, 31.405222656], [120.54356708741471, 31.405132192], [120.54367238241092, 31.405132192], [120.54367238241092, 31.405222656]]]}}, {"type": "Feature", "properties": {"area_ha": 0.0, "mean": null}, "geometry": {"type": "Polygon", "coordinates": [[[120.54356708741471, 31.405041728], [120.5434617924185, 31.404951264], [120.54356708741471, 31.404951264], [120.54356708741471, 31.405041728]]]}}, {"type": "Feature", "properties": {"area_ha": 0.01, "mean": 0.1489}, "geometry": {"type": "Polygon", "coordinates": [[[120.5434617924185, 31.40440848], [120.5433564974223, 31.404227552000002], [120.5434617924185, 31.404227552000002], [120.5434617924185, 31.40440848]]]}}, {"type": "Feature", "properties": {"area_ha": 0.0, "mean": null}, "geometry": {"type": "Polygon", "coordinates": [[[120.54314590742987, 31.40214688], [120.54304061243367, 31.402056416], [120.54314590742987, 31.402056416], [120.54314590742987, 31.40214688]]]}}, {"type": "Feature", "properties": {"area_ha": 0.0, "mean": null}, "geometry": {"type": "Polygon", "coordinates": [[[120.54535710235027, 31.401875488], [120.54525180735406, 31.401785024], [120.54535710235027, 31.401785024], [120.54535710235027, 31.401875488]]]}}, {"type": "Feature", "properties": {"area_ha": 0.0, "mean": null}, "geometry": {"type": "Polygon", "coordinates": [[[120.54493592236544, 31.40169456], [120.54483062736922, 31.401604096], [120.54493592236544, 31.401604096], [120.54493592236544, 31.40169456]]]}}, {"type": "Feature", "properties": {"area_ha": 0.0, "mean": null}, "geometry": {"type": "Polygon", "coordinates": [[[120.54419885739196, 31.401513632], [120.54409356239576, 31.401423168], [120.54419885739196, 31.401423168], [120.54419885739196, 31.401513632]]]}}, {"type": "Feature", "properties": {"area_ha": 0.0, "mean": null}, "geometry": {"type": "Polygon", "coordinates": [[[120.54304061243367, 31.400247136], [120.54293531743745, 31.400156672], [120.54304061243367, 31.400156672], [120.54304061243367, 31.400247136]]]}}, {"type": "Feature", "properties": {"area_ha": 0.0, "mean": null}, "geometry": {"type": "Polygon", "coordinates": [[[120.54314590742987, 31.39988528], [120.54304061243367, 31.399794816], [120.54314590742987, 31.399794816], [120.54314590742987, 31.39988528]]]}}, {"type": "Feature", "properties": {"area_ha": 0.01, "mean": 0.1999}, "geometry": {"type": "Polygon", "coordinates": [[[120.54325120242609, 31.399613888], [120.54314590742987, 31.39943296], [120.54325120242609, 31.39943296], [120.54325120242609, 31.399613888]]]}}, {"type": "Feature", "properties": {"area_ha": 0.0, "mean": null}, "geometry": {"type": "Polygon", "coordinates": [[[120.54398826739956, 31.398799712], [120.54388297240334, 31.398709248], [120.54398826739956, 31.398709248], [120.54398826739956, 31.398799712]]]}}, {"type": "Feature", "properties": {"area_ha": 0.01, "mean": 0.1294}, "geometry": {"type": "Polygon", "coordinates": [[[120.54419885739196, 31.398166464], [120.54409356239576, 31.397985536], [120.54419885739196, 31.397985536], [120.54419885739196, 31.398166464]]]}}, {"type": "Feature", "properties": {"area_ha": 0.0, "mean": null}, "geometry": {"type": "Polygon", "coordinates": [[[120.54430415238818, 31.397442752], [120.54419885739196, 31.397352288], [120.54430415238818, 31.397352288], [120.54430415238818, 31.397442752]]]}}, {"type": "Feature", "properties": {"area_ha": 0.01, "mean": 0.1389}, "geometry": {"type": "Polygon", "coordinates": [[[120.54440944738438, 31.39671904], [120.54430415238818, 31.396538112], [120.54440944738438, 31.396538112], [120.54440944738438, 31.39671904]]]}}, {"type": "Feature", "properties": {"area_ha": 0.0, "mean": null}, "geometry": {"type": "Polygon", "coordinates": [[[120.5445147423806, 31.396176256], [120.54440944738438, 31.396085792], [120.5445147423806, 31.396085792], [120.5445147423806, 31.396176256]]]}}, {"type": "Feature", "properties": {"area_ha": 0.01, "mean": 0.1799}, "geometry": {"type": "Polygon", "coordinates": [[[120.54704182228961, 31.39536208], [120.54693652729341, 31.395181152], [120.54704182228961, 31.395181152], [120.54704182228961, 31.39536208]]]}}, {"type": "Feature", "properties": {"area_ha": 0.0, "mean": null}, "geometry": {"type": "Polygon", "coordinates": [[[120.54546239734648, 31.393643264], [120.54535710235027, 31.3935528], [120.54546239734648, 31.3935528], [120.54546239734648, 31.393643264]]]}}, {"type": "Feature", "properties": {"area_ha": 0.0, "mean": null}, "geometry": {"type": "Polygon", "coordinates": [[[120.5457782823351, 31.393010016], [120.5456729873389, 31.392919552], [120.5457782823351, 31.392919552], [120.5457782823351, 31.393010016]]]}}, {"type": "Feature", "properties": {"area_ha": 0.0, "mean": null}, "geometry": {"type": "Polygon", "coordinates": [[[120.54598887232753, 31.392557696], [120.54588357733131, 31.392467232], [120.54598887232753, 31.392467232], [120.54598887232753, 31.392557696]]]}}, {"type": "Feature", "properties": {"area_ha": 0.0, "mean": null}, "geometry": {"type": "Polygon", "coordinates": [[[120.54609416732373, 31.392376768], [120.54598887232753, 31.392286304], [120.54609416732373, 31.392286304], [120.54609416732373, 31.392376768]]]}}, {"type": "Feature", "properties": {"area_ha": 0.0, "mean": null}, "geometry": {"type": "Polygon", "coordinates": [[[120.54756829727066, 31.389120064], [120.54746300227445, 31.3890296], [120.54756829727066, 31.3890296], [120.54756829727066, 31.389120064]]]}}, {"type": "Feature", "properties": {"area_ha": 0.0, "mean": null}, "geometry": {"type": "Polygon", "coordinates": [[[120.54777888726308, 31.388758208], [120.54767359226688, 31.388667744], [120.54777888726308, 31.388667744], [120.54777888726308, 31.388758208]]]}}]}