{"type": "FeatureCollection", "features": [{"type": "Feature", "properties": {"name": "黄埭镇水体边界 (JRC参考+S2 10m细化)"}, "geometry": {"type": "MultiPolygon", "coordinates": [[[[120.54851595223654, 31.387944032], [120.54872654222896, 31.387491712], [120.54841065724034, 31.387491712], [120.54851595223654, 31.387944032]]], [[[120.54820006724792, 31.38812496], [120.54672593730099, 31.389391456], [120.54293531743745, 31.400066208], [120.54820006724792, 31.38812496]]], [[[120.54704182228961, 31.395543008], [120.54725241228203, 31.395090688], [120.54651534730857, 31.394819296], [120.54704182228961, 31.395543008]]], [[[120.54430415238818, 31.407393792], [120.54419885739196, 31.40667008], [120.54388297240334, 31.407031936], [120.54430415238818, 31.407393792]]], [[[120.54283002244125, 31.414449984], [120.54367238241092, 31.408750752], [120.54219825246399, 31.413545344], [120.54283002244125, 31.414449984]]], [[[120.52935226292647, 31.41481184], [120.52945755792267, 31.414630912], [120.52914167293405, 31.414540448], [120.52935226292647, 31.41481184]]], [[[120.53051050788477, 31.41526416], [120.52956285291889, 31.414902304], [120.52966814791509, 31.415173696], [120.53051050788477, 31.41526416]]], [[[120.54283002244125, 31.41752576], [120.54240884245641, 31.415083232], [120.53977646755118, 31.41662112], [120.54283002244125, 31.41752576]]], [[[120.5445147423806, 31.419606432000002], [120.54304061243367, 31.418792256], [120.54304061243367, 31.419696896], [120.5445147423806, 31.419606432000002]]], [[[120.54230354746021, 31.422229888], [120.54198766247157, 31.42204896], [120.54188236747537, 31.422410816], [120.54230354746021, 31.422229888]]], [[[120.51808569833207, 31.428019584], [120.51829628832449, 31.42657216], [120.51755922335103, 31.427114944], [120.51808569833207, 31.428019584]]], [[[120.51934923828658, 31.432090464], [120.52134984321457, 31.427205408], [120.5194545332828, 31.427386336], [120.51934923828658, 31.432090464]]], [[[120.53967117255497, 31.446655168], [120.53956587755876, 31.446383776], [120.53924999257013, 31.446564704], [120.53967117255497, 31.446655168]]], [[[120.53682820765732, 31.450454656], [120.5367229126611, 31.450273728], [120.5365123226687, 31.450364192000002], [120.53682820765732, 31.450454656]]], [[[120.5366176176649, 31.451630688], [120.5365123226687, 31.451359296], [120.53630173267628, 31.45144976], [120.5366176176649, 31.451630688]]], [[[120.5365123226687, 31.4523544], [120.53640702767248, 31.45190208], [120.53619643768006, 31.451992544], [120.5365123226687, 31.4523544]]], [[[120.53630173267628, 31.453439968], [120.53619643768006, 31.452987648], [120.53598584768764, 31.453078112], [120.53630173267628, 31.453439968]]], [[[120.53566996269902, 31.456606208], [120.53566996269902, 31.456063424], [120.5353540777104, 31.456153888], [120.53566996269902, 31.456606208]]], [[[120.53556466770281, 31.457420384], [120.5354593727066, 31.456696672], [120.53524878271418, 31.456787136], [120.53556466770281, 31.457420384]]], [[[120.52629870803639, 31.464567040000002], [120.52619341304019, 31.46411472], [120.52566693805915, 31.464476576], [120.52629870803639, 31.464567040000002]]], [[[120.53187934283548, 31.469361632000002], [120.52429810310842, 31.466466784], [120.52661459302503, 31.468366528], [120.53187934283548, 31.469361632000002]]], [[[120.53977646755118, 31.472166016], [120.53893410758151, 31.471532768], [120.53872351758909, 31.471894624], [120.53977646755118, 31.472166016]]], [[[120.55272775208492, 31.3958144], [120.5526224570887, 31.395633472], [120.5524118670963, 31.395723936], [120.55272775208492, 31.3958144]]], [[[120.55357011205459, 31.395904864], [120.5536754070508, 31.395723936], [120.55335952206217, 31.395633472], [120.55357011205459, 31.395904864]]], [[[120.5798938611069, 31.40124224], [120.57968327111449, 31.400880384], [120.57905150113723, 31.40124224], [120.5798938611069, 31.40124224]]], [[[120.56715316656559, 31.402056416], [120.56736375655801, 31.401785024], [120.56704787156937, 31.40169456], [120.56715316656559, 31.402056416]]], [[[120.54977949219106, 31.402961056], [120.54988478718727, 31.402780128], [120.54956890219864, 31.402689664], [120.54977949219106, 31.402961056]]], [[[120.58968629575436, 31.410740960000002], [120.58958100075816, 31.410560032], [120.58937041076574, 31.410650496], [120.58968629575436, 31.410740960000002]]], [[[120.55041126216831, 31.420782464000002], [120.55851897687643, 31.41481184], [120.54872654222896, 31.416530656], [120.55041126216831, 31.420782464000002]]], [[[120.5775773711903, 31.418430400000002], [120.57694560121304, 31.41797808], [120.57684030621684, 31.418159008], [120.5775773711903, 31.418430400000002]]], [[[120.58789628081881, 31.419968288], [120.58736980583775, 31.418249472], [120.58189446603488, 31.421415712], [120.58789628081881, 31.419968288]]], [[[120.57799855117514, 31.428290976], [120.58242094101593, 31.423134528000002], [120.57936738612585, 31.42250128], [120.57799855117514, 31.428290976]]], [[[120.58010445109932, 31.428019584], [120.57936738612585, 31.427114944], [120.57936738612585, 31.427657728], [120.58010445109932, 31.428019584]]], [[[120.57831443616377, 31.428743296], [120.57820914116755, 31.428562368], [120.57799855117514, 31.428652832], [120.57831443616377, 31.428743296]]], [[[120.57926209112965, 31.430281184000002], [120.57831443616377, 31.428924224], [120.57820914116755, 31.429376544], [120.57926209112965, 31.430281184000002]]], [[[120.56283607172101, 31.439598976], [120.56230959673996, 31.439327584], [120.56220430174375, 31.439508512], [120.56283607172101, 31.439598976]]], [[[120.56431020166794, 31.440865472], [120.56367843169068, 31.440413152], [120.56357313669447, 31.440684544], [120.56431020166794, 31.440865472]]], [[[120.56241489173617, 31.448193056], [120.56230959673996, 31.448012128000002], [120.56209900674754, 31.448102592], [120.56241489173617, 31.448193056]]], [[[120.56262548172859, 31.448645376], [120.56252018673237, 31.448464448], [120.56230959673996, 31.448554912], [120.56262548172859, 31.448645376]]], [[[120.58136799105384, 31.452625792], [120.58147328605004, 31.452444864], [120.58115740106142, 31.4523544], [120.58136799105384, 31.452625792]]], [[[120.58010445109932, 31.473070656], [120.58347389097801, 31.471532768], [120.57947268112207, 31.471261376], [120.58010445109932, 31.473070656]]], [[[120.56525785663382, 31.475332256], [120.5651525616376, 31.475151328], [120.56494197164518, 31.475241792000002], [120.56525785663382, 31.475332256]]], [[[120.55536012699015, 31.475603648], [120.55525483199393, 31.47542272], [120.55504424200151, 31.475513184], [120.55536012699015, 31.475603648]]], [[[120.59116042570129, 31.407665184], [120.59042336072783, 31.407393792], [120.59084454071267, 31.407665184], [120.59116042570129, 31.407665184]]], [[[120.5912657206975, 31.408298432], [120.59094983570887, 31.40802704], [120.59052865572404, 31.40847936], [120.5912657206975, 31.408298432]]], [[[120.5902127707354, 31.408388896], [120.5901074757392, 31.408207968], [120.58989688574678, 31.408298432], [120.5902127707354, 31.408388896]]], [[[120.58989688574678, 31.408750752], [120.58979159075058, 31.408569824], [120.58947570576194, 31.408841216], [120.58989688574678, 31.408750752]]], [[[120.59642517551175, 31.409655392], [120.59705694548902, 31.409022144], [120.59589870053071, 31.408841216], [120.59642517551175, 31.409655392]]], [[[120.58968629575436, 31.410017248], [120.58958100075816, 31.409112608], [120.58937041076574, 31.409203072], [120.58968629575436, 31.410017248]]], [[[120.59252926065201, 31.410107712], [120.59189749067475, 31.409384], [120.59147631068993, 31.410107712], [120.59252926065201, 31.410107712]]], [[[120.59116042570129, 31.41028864], [120.59073924571645, 31.409926784], [120.59063395072025, 31.410469568], [120.59116042570129, 31.41028864]]], [[[120.59389809560274, 31.410740960000002], [120.59379280060652, 31.41028864], [120.5935822106141, 31.410379104], [120.59389809560274, 31.410740960000002]]], [[[120.60042638536771, 31.412188384], [120.60305876027294, 31.409655392], [120.5947404555724, 31.413726272], [120.60042638536771, 31.412188384]]], [[[120.59526693055345, 31.41209792], [120.59410868559515, 31.411555136], [120.59389809560274, 31.411826528], [120.59526693055345, 31.41209792]]], [[[120.59600399552691, 31.41209792], [120.59610929052313, 31.411916992000002], [120.5957934055345, 31.411826528], [120.59600399552691, 31.41209792]]], [[[120.5912657206975, 31.412821632], [120.59000218074299, 31.411736064], [120.59000218074299, 31.412369312], [120.5912657206975, 31.412821632]]], [[[120.5968463554966, 31.416711584], [120.59705694548902, 31.416440192], [120.59653047050796, 31.41662112], [120.5968463554966, 31.416711584]]], [[[120.59158160568613, 31.417616224], [120.59337162062168, 31.415806944], [120.58821216580743, 31.417616224], [120.59158160568613, 31.417616224]]], [[[120.5934769156179, 31.422410816], [120.59337162062168, 31.422229888], [120.59316103062928, 31.422320352], [120.5934769156179, 31.422410816]]], [[[120.59926814040941, 31.431638144], [120.59916284541319, 31.430823968000002], [120.59832048544352, 31.431004896], [120.59926814040941, 31.431638144]]], [[[120.60758644510993, 31.444845888], [120.60748115011373, 31.444393568], [120.60727056012131, 31.444484032000002], [120.60758644510993, 31.444845888]]], [[[120.60116345034118, 31.454977856], [120.59653047050796, 31.456153888], [120.59379280060652, 31.457691776], [120.60116345034118, 31.454977856]]], [[[120.59200278567097, 31.466466784], [120.59189749067475, 31.466466784], [120.59200278567097, 31.466557248], [120.59200278567097, 31.466466784]]], [[[120.59189749067475, 31.466557248], [120.59179219567855, 31.466557248], [120.59189749067475, 31.466647712], [120.59189749067475, 31.466557248]]]]}}]}