{"type": "FeatureCollection", "features": [{"type": "Feature", "properties": {"area_ha": 0.0, "mean": null}, "geometry": {"type": "Polygon", "coordinates": [[[120.52177102319939, 31.469633024], [120.52166572820319, 31.46954256], [120.52177102319939, 31.46954256], [120.52177102319939, 31.469633024]]]}}, {"type": "Feature", "properties": {"area_ha": 0.01, "mean": 0.0774}, "geometry": {"type": "Polygon", "coordinates": [[[120.52040218824868, 31.46954256], [120.52019159825626, 31.469452096], [120.52040218824868, 31.469452096], [120.52040218824868, 31.46954256]]]}}, {"type": "Feature", "properties": {"area_ha": 0.0, "mean": null}, "geometry": {"type": "Polygon", "coordinates": [[[120.52198161319181, 31.46954256], [120.52187631819561, 31.469452096], [120.52198161319181, 31.469452096], [120.52198161319181, 31.46954256]]]}}, {"type": "Feature", "properties": {"area_ha": 0.01, "mean": 0.0489}, "geometry": {"type": "Polygon", "coordinates": [[[120.52008630326004, 31.469452096], [120.51987571326764, 31.469361632000002], [120.52008630326004, 31.469361632000002], [120.52008630326004, 31.469452096]]]}}, {"type": "Feature", "properties": {"area_ha": 0.0, "mean": null}, "geometry": {"type": "Polygon", "coordinates": [[[120.52219220318423, 31.469452096], [120.52208690818803, 31.469361632000002], [120.52219220318423, 31.469361632000002], [120.52219220318423, 31.469452096]]]}}, {"type": "Feature", "properties": {"area_ha": 0.0, "mean": null}, "geometry": {"type": "Polygon", "coordinates": [[[120.51966512327522, 31.469361632000002], [120.519559828279, 31.469271168000002], [120.51966512327522, 31.469271168000002], [120.51966512327522, 31.469361632000002]]]}}, {"type": "Feature", "properties": {"area_ha": 0.0, "mean": null}, "geometry": {"type": "Polygon", "coordinates": [[[120.52229749818045, 31.469361632000002], [120.52219220318423, 31.469271168000002], [120.52229749818045, 31.469271168000002], [120.52229749818045, 31.469361632000002]]]}}, {"type": "Feature", "properties": {"area_ha": 0.0, "mean": null}, "geometry": {"type": "Polygon", "coordinates": [[[120.5194545332828, 31.469271168000002], [120.51934923828658, 31.469180704], [120.5194545332828, 31.469180704], [120.5194545332828, 31.469271168000002]]]}}, {"type": "Feature", "properties": {"area_ha": 0.0, "mean": null}, "geometry": {"type": "Polygon", "coordinates": [[[120.52240279317665, 31.469271168000002], [120.52229749818045, 31.469180704], [120.52240279317665, 31.469180704], [120.52240279317665, 31.469271168000002]]]}}, {"type": "Feature", "properties": {"area_ha": 0.0, "mean": null}, "geometry": {"type": "Polygon", "coordinates": [[[120.51892805830175, 31.46909024], [120.51882276330554, 31.468999776], [120.51892805830175, 31.468999776], [120.51892805830175, 31.46909024]]]}}, {"type": "Feature", "properties": {"area_ha": 0.0, "mean": null}, "geometry": {"type": "Polygon", "coordinates": [[[120.52250808817286, 31.46909024], [120.52240279317665, 31.468999776], [120.52250808817286, 31.468999776], [120.52250808817286, 31.46909024]]]}}, {"type": "Feature", "properties": {"area_ha": 0.01, "mean": 0.0231}, "geometry": {"type": "Polygon", "coordinates": [[[120.53008932789993, 31.46909024], [120.52987873790751, 31.468999776], [120.53008932789993, 31.468999776], [120.53008932789993, 31.46909024]]]}}, {"type": "Feature", "properties": {"area_ha": 0.0, "mean": null}, "geometry": {"type": "Polygon", "coordinates": [[[120.52261338316907, 31.468999776], [120.52250808817286, 31.468909312], [120.52261338316907, 31.468909312], [120.52261338316907, 31.468999776]]]}}, {"type": "Feature", "properties": {"area_ha": 0.01, "mean": 0.054}, "geometry": {"type": "Polygon", "coordinates": [[[120.52945755792267, 31.468999776], [120.52914167293405, 31.468909312], [120.52945755792267, 31.468909312], [120.52945755792267, 31.468999776]]]}}, {"type": "Feature", "properties": {"area_ha": 0.0, "mean": null}, "geometry": {"type": "Polygon", "coordinates": [[[120.5184015833207, 31.468909312], [120.51829628832449, 31.468818848], [120.5184015833207, 31.468818848], [120.5184015833207, 31.468909312]]]}}, {"type": "Feature", "properties": {"area_ha": 0.0, "mean": null}, "geometry": {"type": "Polygon", "coordinates": [[[120.51819099332829, 31.468818848], [120.51808569833207, 31.468728384000002], [120.51819099332829, 31.468728384000002], [120.51819099332829, 31.468818848]]]}}, {"type": "Feature", "properties": {"area_ha": 0.0, "mean": null}, "geometry": {"type": "Polygon", "coordinates": [[[120.53166875284306, 31.468818848], [120.53156345784686, 31.468728384000002], [120.53166875284306, 31.468728384000002], [120.53166875284306, 31.468818848]]]}}, {"type": "Feature", "properties": {"area_ha": 0.0, "mean": null}, "geometry": {"type": "Polygon", "coordinates": [[[120.51787510833965, 31.468728384000002], [120.51776981334345, 31.46863792], [120.51787510833965, 31.46863792], [120.51787510833965, 31.468728384000002]]]}}, {"type": "Feature", "properties": {"area_ha": 0.0, "mean": null}, "geometry": {"type": "Polygon", "coordinates": [[[120.52271867816528, 31.46863792], [120.52261338316907, 31.468547456], [120.52271867816528, 31.468547456], [120.52271867816528, 31.46863792]]]}}, {"type": "Feature", "properties": {"area_ha": 0.0, "mean": null}, "geometry": {"type": "Polygon", "coordinates": [[[120.52850990295678, 31.468456992], [120.52840460796058, 31.468366528], [120.52850990295678, 31.468366528], [120.52850990295678, 31.468456992]]]}}, {"type": "Feature", "properties": {"area_ha": 0.0, "mean": null}, "geometry": {"type": "Polygon", "coordinates": [[[120.5172433383624, 31.468366528], [120.51713804336619, 31.468276064], [120.5172433383624, 31.468276064], [120.5172433383624, 31.468366528]]]}}, {"type": "Feature", "properties": {"area_ha": 0.0, "mean": null}, "geometry": {"type": "Polygon", "coordinates": [[[120.5228239731615, 31.468366528], [120.52271867816528, 31.468276064], [120.5228239731615, 31.468276064], [120.5228239731615, 31.468366528]]]}}, {"type": "Feature", "properties": {"area_ha": 0.0, "mean": null}, "geometry": {"type": "Polygon", "coordinates": [[[120.52840460796058, 31.468366528], [120.52829931296438, 31.468276064], [120.52840460796058, 31.468276064], [120.52840460796058, 31.468366528]]]}}, {"type": "Feature", "properties": {"area_ha": 0.0, "mean": null}, "geometry": {"type": "Polygon", "coordinates": [[[120.5229292681577, 31.468004672], [120.5228239731615, 31.467914208], [120.5229292681577, 31.467914208], [120.5229292681577, 31.468004672]]]}}, {"type": "Feature", "properties": {"area_ha": 0.0, "mean": null}, "geometry": {"type": "Polygon", "coordinates": [[[120.52808872297196, 31.467914208], [120.52798342797574, 31.467823744], [120.52808872297196, 31.467823744], [120.52808872297196, 31.467914208]]]}}, {"type": "Feature", "properties": {"area_ha": 0.0, "mean": null}, "geometry": {"type": "Polygon", "coordinates": [[[120.52798342797574, 31.467823744], [120.52787813297954, 31.46773328], [120.52798342797574, 31.46773328], [120.52798342797574, 31.467823744]]]}}, {"type": "Feature", "properties": {"area_ha": 0.01, "mean": 0.0357}, "geometry": {"type": "Polygon", "coordinates": [[[120.52766754298712, 31.46773328], [120.5273516579985, 31.467642816], [120.52766754298712, 31.467642816], [120.52766754298712, 31.46773328]]]}}, {"type": "Feature", "properties": {"area_ha": 0.0, "mean": null}, "geometry": {"type": "Polygon", "coordinates": [[[120.52303456315391, 31.467642816], [120.5229292681577, 31.467552352000002], [120.52303456315391, 31.467552352000002], [120.52303456315391, 31.467642816]]]}}, {"type": "Feature", "properties": {"area_ha": 0.02, "mean": 0.1175}, "geometry": {"type": "Polygon", "coordinates": [[[120.53114227786202, 31.467642816], [120.53061580288097, 31.467552352000002], [120.53114227786202, 31.467552352000002], [120.53114227786202, 31.467642816]]]}}, {"type": "Feature", "properties": {"area_ha": 0.0, "mean": null}, "geometry": {"type": "Polygon", "coordinates": [[[120.52693047801365, 31.467552352000002], [120.52682518301744, 31.467461888], [120.52693047801365, 31.467461888], [120.52693047801365, 31.467552352000002]]]}}, {"type": "Feature", "properties": {"area_ha": 0.0, "mean": null}, "geometry": {"type": "Polygon", "coordinates": [[[120.53124757285823, 31.467552352000002], [120.53114227786202, 31.467461888], [120.53124757285823, 31.467461888], [120.53124757285823, 31.467552352000002]]]}}, {"type": "Feature", "properties": {"area_ha": 0.01, "mean": 0.0396}, "geometry": {"type": "Polygon", "coordinates": [[[120.5309316878696, 31.467461888], [120.53061580288097, 31.467371424], [120.5309316878696, 31.467371424], [120.5309316878696, 31.467461888]]]}}, {"type": "Feature", "properties": {"area_ha": 0.0, "mean": null}, "geometry": {"type": "Polygon", "coordinates": [[[120.53040521288855, 31.467371424], [120.53029991789235, 31.46728096], [120.53040521288855, 31.46728096], [120.53040521288855, 31.467371424]]]}}, {"type": "Feature", "properties": {"area_ha": 0.01, "mean": 0.2237}, "geometry": {"type": "Polygon", "coordinates": [[[120.52313985815012, 31.467371424], [120.52303456315391, 31.467190496], [120.52313985815012, 31.467190496], [120.52313985815012, 31.467371424]]]}}, {"type": "Feature", "properties": {"area_ha": 0.0, "mean": null}, "geometry": {"type": "Polygon", "coordinates": [[[120.51545332342684, 31.467190496], [120.51534802843064, 31.467100032], [120.51545332342684, 31.467100032], [120.51545332342684, 31.467190496]]]}}, {"type": "Feature", "properties": {"area_ha": 0.0, "mean": null}, "geometry": {"type": "Polygon", "coordinates": [[[120.52324515314633, 31.467190496], [120.52313985815012, 31.467100032], [120.52324515314633, 31.467100032], [120.52324515314633, 31.467190496]]]}}, {"type": "Feature", "properties": {"area_ha": 0.0, "mean": null}, "geometry": {"type": "Polygon", "coordinates": [[[120.53072109787719, 31.467190496], [120.53061580288097, 31.467100032], [120.53072109787719, 31.467100032], [120.53072109787719, 31.467190496]]]}}, {"type": "Feature", "properties": {"area_ha": 0.1, "mean": 0.3401}, "geometry": {"type": "Polygon", "coordinates": [[[120.5297734429113, 31.46773328], [120.52903637793784, 31.467100032], [120.52935226292647, 31.467009568], [120.5297734429113, 31.46773328]]]}}, {"type": "Feature", "properties": {"area_ha": 0.0, "mean": null}, "geometry": {"type": "Polygon", "coordinates": [[[120.52335044814254, 31.467100032], [120.52324515314633, 31.467009568], [120.52335044814254, 31.467009568], [120.52335044814254, 31.467100032]]]}}, {"type": "Feature", "properties": {"area_ha": 0.0, "mean": null}, "geometry": {"type": "Polygon", "coordinates": [[[120.51513743843822, 31.467009568], [120.515032143442, 31.466919104000002], [120.51513743843822, 31.466919104000002], [120.51513743843822, 31.467009568]]]}}, {"type": "Feature", "properties": {"area_ha": 0.0, "mean": null}, "geometry": {"type": "Polygon", "coordinates": [[[120.5239822181198, 31.466919104000002], [120.52387692312358, 31.46682864], [120.5239822181198, 31.46682864], [120.5239822181198, 31.466919104000002]]]}}, {"type": "Feature", "properties": {"area_ha": 0.09, "mean": 0.1582}, "geometry": {"type": "Polygon", "coordinates": [[[120.53124757285823, 31.467100032], [120.53061580288097, 31.466919104000002], [120.53103698286581, 31.466738176], [120.53124757285823, 31.467100032]]]}}, {"type": "Feature", "properties": {"area_ha": 0.0, "mean": null}, "geometry": {"type": "Polygon", "coordinates": [[[120.5148215534496, 31.46682864], [120.51471625845338, 31.466738176], [120.5148215534496, 31.466738176], [120.5148215534496, 31.46682864]]]}}, {"type": "Feature", "properties": {"area_ha": 0.0, "mean": null}, "geometry": {"type": "Polygon", "coordinates": [[[120.524087513116, 31.46682864], [120.5239822181198, 31.466738176], [120.524087513116, 31.466738176], [120.524087513116, 31.46682864]]]}}, {"type": "Feature", "properties": {"area_ha": 0.02, "mean": 0.0265}, "geometry": {"type": "Polygon", "coordinates": [[[120.51334742350265, 31.466738176], [120.51282094852161, 31.466647712], [120.51334742350265, 31.466647712], [120.51334742350265, 31.466738176]]]}}, {"type": "Feature", "properties": {"area_ha": 0.0, "mean": null}, "geometry": {"type": "Polygon", "coordinates": [[[120.51450566846096, 31.466738176], [120.51440037346475, 31.466647712], [120.51450566846096, 31.466647712], [120.51450566846096, 31.466738176]]]}}, {"type": "Feature", "properties": {"area_ha": 0.0, "mean": null}, "geometry": {"type": "Polygon", "coordinates": [[[120.5241928081122, 31.466738176], [120.524087513116, 31.466647712], [120.5241928081122, 31.466647712], [120.5241928081122, 31.466738176]]]}}, {"type": "Feature", "properties": {"area_ha": 0.01, "mean": 0.0401}, "geometry": {"type": "Polygon", "coordinates": [[[120.53303758779379, 31.466738176], [120.53293229279758, 31.466466784], [120.53303758779379, 31.466466784], [120.53303758779379, 31.466738176]]]}}, {"type": "Feature", "properties": {"area_ha": 0.0, "mean": null}, "geometry": {"type": "Polygon", "coordinates": [[[120.51250506353298, 31.466557248], [120.51239976853678, 31.466466784], [120.51250506353298, 31.466466784], [120.51250506353298, 31.466557248]]]}}, {"type": "Feature", "properties": {"area_ha": 0.03, "mean": 0.0549}, "geometry": {"type": "Polygon", "coordinates": [[[120.52461398809704, 31.466557248], [120.52440339810462, 31.466195392], [120.52461398809704, 31.466285856], [120.52461398809704, 31.466557248]]]}}, {"type": "Feature", "properties": {"area_ha": 0.01, "mean": 0.1007}, "geometry": {"type": "Polygon", "coordinates": [[[120.5332481777862, 31.466195392], [120.53314288279, 31.466285856], [120.53303758779379, 31.466195392], [120.5332481777862, 31.466195392]]]}}, {"type": "Feature", "properties": {"area_ha": 0.0, "mean": null}, "geometry": {"type": "Polygon", "coordinates": [[[120.52608811804397, 31.464386112], [120.52598282304777, 31.464295648], [120.52608811804397, 31.464295648], [120.52608811804397, 31.464386112]]]}}, {"type": "Feature", "properties": {"area_ha": 0.0, "mean": null}, "geometry": {"type": "Polygon", "coordinates": [[[120.52619341304019, 31.464295648], [120.52608811804397, 31.464205184], [120.52619341304019, 31.464205184], [120.52619341304019, 31.464295648]]]}}, {"type": "Feature", "properties": {"area_ha": 0.0, "mean": null}, "geometry": {"type": "Polygon", "coordinates": [[[120.51176799855952, 31.464205184], [120.51166270356332, 31.46411472], [120.51176799855952, 31.46411472], [120.51176799855952, 31.464205184]]]}}, {"type": "Feature", "properties": {"area_ha": 0.01, "mean": 0.0642}, "geometry": {"type": "Polygon", "coordinates": [[[120.5036602838514, 31.45959152], [120.50334439886278, 31.459501056], [120.5036602838514, 31.459501056], [120.5036602838514, 31.45959152]]]}}, {"type": "Feature", "properties": {"area_ha": 0.0, "mean": null}, "geometry": {"type": "Polygon", "coordinates": [[[120.50660854374527, 31.45959152], [120.50650324874906, 31.459501056], [120.50660854374527, 31.459501056], [120.50660854374527, 31.45959152]]]}}, {"type": "Feature", "properties": {"area_ha": 0.0, "mean": null}, "geometry": {"type": "Polygon", "coordinates": [[[120.5069244287339, 31.45959152], [120.50681913373768, 31.459501056], [120.5069244287339, 31.459501056], [120.5069244287339, 31.45959152]]]}}, {"type": "Feature", "properties": {"area_ha": 0.01, "mean": 0.0304}, "geometry": {"type": "Polygon", "coordinates": [[[120.50745090371494, 31.45959152], [120.50724031372252, 31.459501056], [120.50745090371494, 31.459501056], [120.50745090371494, 31.45959152]]]}}, {"type": "Feature", "properties": {"area_ha": 0.0, "mean": null}, "geometry": {"type": "Polygon", "coordinates": [[[120.50608206876421, 31.459501056], [120.50597677376801, 31.459410592], [120.50608206876421, 31.459410592], [120.50608206876421, 31.459501056]]]}}, {"type": "Feature", "properties": {"area_ha": 0.0, "mean": null}, "geometry": {"type": "Polygon", "coordinates": [[[120.50397616884004, 31.459320128], [120.50387087384382, 31.459229664000002], [120.50397616884004, 31.459229664000002], [120.50397616884004, 31.459320128]]]}}, {"type": "Feature", "properties": {"area_ha": 0.01, "mean": 0.1756}, "geometry": {"type": "Polygon", "coordinates": [[[120.50408146383624, 31.4591392], [120.50397616884004, 31.458958272], [120.50408146383624, 31.458958272], [120.50408146383624, 31.4591392]]]}}, {"type": "Feature", "properties": {"area_ha": 0.01, "mean": 0.1724}, "geometry": {"type": "Polygon", "coordinates": [[[120.50418675883246, 31.458958272], [120.50408146383624, 31.458777344], [120.50418675883246, 31.458777344], [120.50418675883246, 31.458958272]]]}}, {"type": "Feature", "properties": {"area_ha": 0.02, "mean": 0.0859}, "geometry": {"type": "Polygon", "coordinates": [[[120.50439734882487, 31.458505952], [120.50418675883246, 31.458415488], [120.50439734882487, 31.45823456], [120.50439734882487, 31.458505952]]]}}, {"type": "Feature", "properties": {"area_ha": 0.0, "mean": null}, "geometry": {"type": "Polygon", "coordinates": [[[120.50460793881729, 31.458144096], [120.50450264382108, 31.458053632000002], [120.50460793881729, 31.458053632000002], [120.50460793881729, 31.458144096]]]}}, {"type": "Feature", "properties": {"area_ha": 0.01, "mean": 0.081}, "geometry": {"type": "Polygon", "coordinates": [[[120.51050445860501, 31.458053632000002], [120.51018857361638, 31.457963168], [120.51050445860501, 31.457963168], [120.51050445860501, 31.458053632000002]]]}}, {"type": "Feature", "properties": {"area_ha": 0.0, "mean": null}, "geometry": {"type": "Polygon", "coordinates": [[[120.49607904412434, 31.457691776], [120.49597374912813, 31.457601312], [120.49607904412434, 31.457601312], [120.49607904412434, 31.457691776]]]}}, {"type": "Feature", "properties": {"area_ha": 0.01, "mean": 0.1584}, "geometry": {"type": "Polygon", "coordinates": [[[120.5354593727066, 31.456606208], [120.5353540777104, 31.456334816000002], [120.5354593727066, 31.456334816000002], [120.5354593727066, 31.456606208]]]}}, {"type": "Feature", "properties": {"area_ha": 0.0, "mean": null}, "geometry": {"type": "Polygon", "coordinates": [[[120.53556466770281, 31.456334816000002], [120.5354593727066, 31.456244352000002], [120.53556466770281, 31.456244352000002], [120.53556466770281, 31.456334816000002]]]}}, {"type": "Feature", "properties": {"area_ha": 0.01, "mean": 0.2608}, "geometry": {"type": "Polygon", "coordinates": [[[120.53556466770281, 31.456153888], [120.5354593727066, 31.455882496], [120.53556466770281, 31.455882496], [120.53556466770281, 31.456153888]]]}}, {"type": "Feature", "properties": {"area_ha": 0.64, "mean": 0.1125}, "geometry": {"type": "Polygon", "coordinates": [[[120.53714409264595, 31.448012128000002], [120.53724938764216, 31.446745632], [120.53756527263079, 31.446293312], [120.5377758626232, 31.447469344], [120.53714409264595, 31.448012128000002]], [[120.53735468263837, 31.447288416], [120.53756527263079, 31.447469344], [120.53756527263079, 31.447197952], [120.53735468263837, 31.447288416]], [[120.53735468263837, 31.447017024], [120.53745997763457, 31.447107488], [120.53745997763457, 31.447017024], [120.53735468263837, 31.447017024]]]}}, {"type": "Feature", "properties": {"area_ha": 0.0, "mean": null}, "geometry": {"type": "Polygon", "coordinates": [[[120.54019764753602, 31.446202848000002], [120.5400923525398, 31.446112384], [120.54019764753602, 31.446112384], [120.54019764753602, 31.446202848000002]]]}}, {"type": "Feature", "properties": {"area_ha": 0.03, "mean": 0.1277}, "geometry": {"type": "Polygon", "coordinates": [[[120.5377758626232, 31.44602192], [120.53745997763457, 31.445840992], [120.5377758626232, 31.445840992], [120.5377758626232, 31.44602192]]]}}, {"type": "Feature", "properties": {"area_ha": 0.06, "mean": 0.1105}, "geometry": {"type": "Polygon", "coordinates": [[[120.53924999257013, 31.445750528], [120.53872351758909, 31.445388672], [120.53903940257771, 31.445388672], [120.53924999257013, 31.445750528]]]}}, {"type": "Feature", "properties": {"area_ha": 0.0, "mean": null}, "geometry": {"type": "Polygon", "coordinates": [[[120.53893410758151, 31.445388672], [120.5388288125853, 31.445298208], [120.53893410758151, 31.445298208], [120.53893410758151, 31.445388672]]]}}, {"type": "Feature", "properties": {"area_ha": 0.03, "mean": 0.1097}, "geometry": {"type": "Polygon", "coordinates": [[[120.53788115761941, 31.445479136], [120.53756527263079, 31.445207744], [120.5377758626232, 31.44511728], [120.53788115761941, 31.445479136]]]}}, {"type": "Feature", "properties": {"area_ha": 0.04, "mean": 0.175}, "geometry": {"type": "Polygon", "coordinates": [[[120.53809174761183, 31.444303104], [120.5377758626232, 31.444122176], [120.53798645261563, 31.444031712], [120.53809174761183, 31.444303104]]]}}, {"type": "Feature", "properties": {"area_ha": 0.02, "mean": 0.1578}, "geometry": {"type": "Polygon", "coordinates": [[[120.53830233760425, 31.443217536], [120.53798645261563, 31.443127072], [120.53819704260805, 31.443036608], [120.53830233760425, 31.443217536]]]}}, {"type": "Feature", "properties": {"area_ha": 0.04, "mean": 0.1222}, "geometry": {"type": "Polygon", "coordinates": [[[120.53840763260045, 31.442765216], [120.53809174761183, 31.442584288], [120.53830233760425, 31.442493824], [120.53840763260045, 31.442765216]]]}}, {"type": "Feature", "properties": {"area_ha": 0.06, "mean": 0.1304}, "geometry": {"type": "Polygon", "coordinates": [[[120.5388288125853, 31.440684544], [120.53851292759667, 31.440322688000002], [120.53872351758909, 31.440232224], [120.5388288125853, 31.440684544]]]}}, {"type": "Feature", "properties": {"area_ha": 0.25, "mean": 0.0768}, "geometry": {"type": "Polygon", "coordinates": [[[120.57957797611827, 31.438965728], [120.57894620614103, 31.438603872], [120.5797885661107, 31.43833248], [120.57957797611827, 31.438965728]], [[120.57915679613343, 31.438603872], [120.57926209112965, 31.438694336], [120.57926209112965, 31.438603872], [120.57915679613343, 31.438603872]]]}}, {"type": "Feature", "properties": {"area_ha": 0.0, "mean": null}, "geometry": {"type": "Polygon", "coordinates": [[[120.58273682600455, 31.437789696], [120.58263153100835, 31.437699232], [120.58273682600455, 31.437699232], [120.58273682600455, 31.437789696]]]}}, {"type": "Feature", "properties": {"area_ha": 0.0, "mean": null}, "geometry": {"type": "Polygon", "coordinates": [[[120.58263153100835, 31.437699232], [120.58252623601213, 31.437608768], [120.58263153100835, 31.437608768], [120.58263153100835, 31.437699232]]]}}, {"type": "Feature", "properties": {"area_ha": 0.0, "mean": null}, "geometry": {"type": "Polygon", "coordinates": [[[120.5822103510235, 31.437518304], [120.5821050560273, 31.43742784], [120.5822103510235, 31.43742784], [120.5822103510235, 31.437518304]]]}}, {"type": "Feature", "properties": {"area_ha": 0.83, "mean": 0.0738}, "geometry": {"type": "Polygon", "coordinates": [[[120.58284212100077, 31.437789696], [120.5822103510235, 31.43742784], [120.58231564601972, 31.436613664], [120.58347389097801, 31.437246912], [120.58284212100077, 31.437789696]], [[120.58305271099319, 31.437156448], [120.58315800598939, 31.437337376000002], [120.58315800598939, 31.437156448], [120.58305271099319, 31.437156448]], [[120.58242094101593, 31.436885056], [120.58263153100835, 31.437156448], [120.58252623601213, 31.436885056], [120.58242094101593, 31.436885056]]]}}, {"type": "Feature", "properties": {"area_ha": 0.02, "mean": 0.1323}, "geometry": {"type": "Polygon", "coordinates": [[[120.53977646755118, 31.43561856], [120.53946058256255, 31.435528096], [120.53967117255497, 31.435437632], [120.53977646755118, 31.43561856]]]}}, {"type": "Feature", "properties": {"area_ha": 0.35, "mean": 0.2615}, "geometry": {"type": "Polygon", "coordinates": [[[120.58515861091736, 31.434442528], [120.58505331592116, 31.433809280000002], [120.58610626588325, 31.433718816], [120.58515861091736, 31.434442528]]]}}, {"type": "Feature", "properties": {"area_ha": 0.0, "mean": null}, "geometry": {"type": "Polygon", "coordinates": [[[120.5400923525398, 31.43290464], [120.5399870575436, 31.432814176], [120.5400923525398, 31.432814176], [120.5400923525398, 31.43290464]]]}}, {"type": "Feature", "properties": {"area_ha": 0.0, "mean": null}, "geometry": {"type": "Polygon", "coordinates": [[[120.60211110530706, 31.43290464], [120.60200581031084, 31.432814176], [120.60211110530706, 31.432814176], [120.60211110530706, 31.43290464]]]}}, {"type": "Feature", "properties": {"area_ha": 0.07, "mean": 0.0459}, "geometry": {"type": "Polygon", "coordinates": [[[120.60295346527673, 31.432814176], [120.60221640030326, 31.432542784], [120.60295346527673, 31.432633248000002], [120.60295346527673, 31.432814176]]]}}, {"type": "Feature", "properties": {"area_ha": 0.3, "mean": 0.1714}, "geometry": {"type": "Polygon", "coordinates": [[[120.58947570576194, 31.43245232], [120.58852805079606, 31.432633248000002], [120.58873864078848, 31.432000000000002], [120.58947570576194, 31.43245232]]]}}, {"type": "Feature", "properties": {"area_ha": 0.01, "mean": 0.1404}, "geometry": {"type": "Polygon", "coordinates": [[[120.5194545332828, 31.432090464], [120.51924394329038, 31.432000000000002], [120.5194545332828, 31.432000000000002], [120.5194545332828, 31.432090464]]]}}, {"type": "Feature", "properties": {"area_ha": 0.0, "mean": null}, "geometry": {"type": "Polygon", "coordinates": [[[120.519559828279, 31.432000000000002], [120.5194545332828, 31.431909536], [120.519559828279, 31.431909536], [120.519559828279, 31.432000000000002]]]}}, {"type": "Feature", "properties": {"area_ha": 0.01, "mean": 0.0978}, "geometry": {"type": "Polygon", "coordinates": [[[120.54051353252464, 31.431909536], [120.54040823752844, 31.431728608], [120.54051353252464, 31.431728608], [120.54051353252464, 31.431909536]]]}}, {"type": "Feature", "properties": {"area_ha": 0.25, "mean": 0.0445}, "geometry": {"type": "Polygon", "coordinates": [[[120.54093471250948, 31.43245232], [120.5399870575436, 31.432000000000002], [120.54030294253222, 31.431638144], [120.54093471250948, 31.43245232]]]}}, {"type": "Feature", "properties": {"area_ha": 0.04, "mean": 0.1497}, "geometry": {"type": "Polygon", "coordinates": [[[120.56704787156937, 31.431276288], [120.56673198658075, 31.43109536], [120.56715316656559, 31.43109536], [120.56704787156937, 31.431276288]]]}}, {"type": "Feature", "properties": {"area_ha": 0.34, "mean": 0.2309}, "geometry": {"type": "Polygon", "coordinates": [[[120.59958402539803, 31.431366752], [120.59832048544352, 31.43109536], [120.59937343540561, 31.430823968000002], [120.59958402539803, 31.431366752]]]}}, {"type": "Feature", "properties": {"area_ha": 0.01, "mean": 0.0864}, "geometry": {"type": "Polygon", "coordinates": [[[120.51977041827142, 31.43109536], [120.51966512327522, 31.430823968000002], [120.51977041827142, 31.430823968000002], [120.51977041827142, 31.43109536]]]}}, {"type": "Feature", "properties": {"area_ha": 0.02, "mean": 0.1477}, "geometry": {"type": "Polygon", "coordinates": [[[120.56883788650494, 31.430100256], [120.5685220015163, 31.430009792], [120.56873259150872, 31.429919328], [120.56883788650494, 31.430100256]]]}}, {"type": "Feature", "properties": {"area_ha": 0.01, "mean": 0.121}, "geometry": {"type": "Polygon", "coordinates": [[[120.56915377149356, 31.430009792], [120.56894318150114, 31.429919328], [120.56915377149356, 31.429919328], [120.56915377149356, 31.430009792]]]}}, {"type": "Feature", "properties": {"area_ha": 0.0, "mean": null}, "geometry": {"type": "Polygon", "coordinates": [[[120.56925906648976, 31.429919328], [120.56915377149356, 31.429828864], [120.56925906648976, 31.429828864], [120.56925906648976, 31.429919328]]]}}, {"type": "Feature", "properties": {"area_ha": 0.0, "mean": null}, "geometry": {"type": "Polygon", "coordinates": [[[120.57915679613343, 31.429919328], [120.57905150113723, 31.429828864], [120.57915679613343, 31.429828864], [120.57915679613343, 31.429919328]]]}}, {"type": "Feature", "properties": {"area_ha": 0.0, "mean": null}, "geometry": {"type": "Polygon", "coordinates": [[[120.56904847649736, 31.429828864], [120.56894318150114, 31.4297384], [120.56904847649736, 31.4297384], [120.56904847649736, 31.429828864]]]}}, {"type": "Feature", "properties": {"area_ha": 0.17, "mean": 0.1782}, "geometry": {"type": "Polygon", "coordinates": [[[120.57894620614103, 31.429467008], [120.57820914116755, 31.429467008], [120.57831443616377, 31.429014688], [120.57894620614103, 31.429467008]]]}}, {"type": "Feature", "properties": {"area_ha": 0.07, "mean": 0.2032}, "geometry": {"type": "Polygon", "coordinates": [[[120.54851595223654, 31.42928608], [120.54809477225172, 31.429105152], [120.54841065724034, 31.428924224], [120.54851595223654, 31.42928608]]]}}, {"type": "Feature", "properties": {"area_ha": 0.0, "mean": null}, "geometry": {"type": "Polygon", "coordinates": [[[120.57852502615619, 31.429014688], [120.57841973115997, 31.428924224], [120.57852502615619, 31.428924224], [120.57852502615619, 31.429014688]]]}}, {"type": "Feature", "properties": {"area_ha": 0.05, "mean": 0.0612}, "geometry": {"type": "Polygon", "coordinates": [[[120.57094378642911, 31.429105152], [120.56999613146323, 31.428924224], [120.57094378642911, 31.429014688], [120.57094378642911, 31.429105152]]]}}, {"type": "Feature", "properties": {"area_ha": 0.01, "mean": 0.0826}, "geometry": {"type": "Polygon", "coordinates": [[[120.5206127782411, 31.428290976], [120.52050748324488, 31.428110048], [120.5206127782411, 31.428110048], [120.5206127782411, 31.428290976]]]}}, {"type": "Feature", "properties": {"area_ha": 0.0, "mean": null}, "geometry": {"type": "Polygon", "coordinates": [[[120.57968327111449, 31.428200512], [120.57957797611827, 31.428110048], [120.57968327111449, 31.428110048], [120.57968327111449, 31.428200512]]]}}, {"type": "Feature", "properties": {"area_ha": 0.04, "mean": 0.1215}, "geometry": {"type": "Polygon", "coordinates": [[[120.57810384617135, 31.428290976], [120.57778796118272, 31.428110048], [120.57799855117514, 31.428019584], [120.57810384617135, 31.428290976]]]}}, {"type": "Feature", "properties": {"area_ha": 1.23, "mean": 0.0929}, "geometry": {"type": "Polygon", "coordinates": [[[120.57210203138742, 31.429195616], [120.57052260644429, 31.428743296], [120.57273380136468, 31.427838656], [120.57210203138742, 31.429195616]], [[120.57157555640637, 31.428652832], [120.571891441395, 31.428562368], [120.57157555640637, 31.428562368], [120.57157555640637, 31.428652832]]]}}, {"type": "Feature", "properties": {"area_ha": 0.0, "mean": null}, "geometry": {"type": "Polygon", "coordinates": [[[120.57315498134952, 31.427838656], [120.5730496863533, 31.427748192], [120.57315498134952, 31.427748192], [120.57315498134952, 31.427838656]]]}}, {"type": "Feature", "properties": {"area_ha": 0.24, "mean": 0.0409}, "geometry": {"type": "Polygon", "coordinates": [[[120.54104000750569, 31.42838144], [120.54040823752844, 31.428110048], [120.54072412251706, 31.427567264], [120.54104000750569, 31.42838144]]]}}, {"type": "Feature", "properties": {"area_ha": 0.0, "mean": null}, "geometry": {"type": "Polygon", "coordinates": [[[120.57273380136468, 31.427657728], [120.57262850636846, 31.427567264], [120.57273380136468, 31.427567264], [120.57273380136468, 31.427657728]]]}}, {"type": "Feature", "properties": {"area_ha": 0.01, "mean": 0.1202}, "geometry": {"type": "Polygon", "coordinates": [[[120.57789325617892, 31.427657728], [120.57778796118272, 31.4274768], [120.57789325617892, 31.4274768], [120.57789325617892, 31.427657728]]]}}, {"type": "Feature", "properties": {"area_ha": 0.0, "mean": null}, "geometry": {"type": "Polygon", "coordinates": [[[120.57326027634572, 31.427567264], [120.57315498134952, 31.4274768], [120.57326027634572, 31.4274768], [120.57326027634572, 31.427567264]]]}}, {"type": "Feature", "properties": {"area_ha": 0.13, "mean": 0.1875}, "geometry": {"type": "Polygon", "coordinates": [[[120.57389204632298, 31.427748192], [120.57315498134952, 31.427657728], [120.57389204632298, 31.427386336], [120.57389204632298, 31.427748192]]]}}, {"type": "Feature", "properties": {"area_ha": 0.06, "mean": 0.0338}, "geometry": {"type": "Polygon", "coordinates": [[[120.57315498134952, 31.4274768], [120.57273380136468, 31.427386336], [120.57336557134192, 31.427205408], [120.57315498134952, 31.4274768]]]}}, {"type": "Feature", "properties": {"area_ha": 0.07, "mean": 0.1074}, "geometry": {"type": "Polygon", "coordinates": [[[120.52335044814254, 31.427567264], [120.52313985815012, 31.427205408], [120.52356103813496, 31.427295872000002], [120.52335044814254, 31.427567264]]]}}, {"type": "Feature", "properties": {"area_ha": 4.77, "mean": 0.1292}, "geometry": {"type": "Polygon", "coordinates": [[[120.52177102319939, 31.427386336], [120.51776981334345, 31.431185824], [120.519559828279, 31.427205408], [120.52177102319939, 31.427386336]], [[120.5194545332828, 31.429195616], [120.51966512327522, 31.429376544], [120.51966512327522, 31.42928608], [120.5194545332828, 31.429195616]], [[120.52019159825626, 31.427838656], [120.52029689325246, 31.427748192], [120.52008630326004, 31.427748192], [120.52019159825626, 31.427838656]], [[120.52050748324488, 31.427567264], [120.5206127782411, 31.427748192], [120.5206127782411, 31.427567264], [120.52050748324488, 31.427567264]], [[120.51987571326764, 31.427386336], [120.52008630326004, 31.427567264], [120.52008630326004, 31.427386336], [120.51987571326764, 31.427386336]]]}}, {"type": "Feature", "properties": {"area_ha": 0.16, "mean": 0.2018}, "geometry": {"type": "Polygon", "coordinates": [[[120.51808569833207, 31.427838656], [120.51766451834723, 31.427114944], [120.51798040333587, 31.426934016], [120.51808569833207, 31.427838656]]]}}, {"type": "Feature", "properties": {"area_ha": 0.65, "mean": 0.2756}, "geometry": {"type": "Polygon", "coordinates": [[[120.54872654222896, 31.428019584], [120.54714711728583, 31.427205408], [120.5479894772555, 31.426843552], [120.54872654222896, 31.428019584]]]}}, {"type": "Feature", "properties": {"area_ha": 0.01, "mean": 0.1429}, "geometry": {"type": "Polygon", "coordinates": [[[120.57578735625474, 31.426934016], [120.57557676626233, 31.426843552], [120.57578735625474, 31.426843552], [120.57578735625474, 31.426934016]]]}}, {"type": "Feature", "properties": {"area_ha": 1.49, "mean": 0.1987}, "geometry": {"type": "Polygon", "coordinates": [[[120.57747207619408, 31.42702448], [120.57705089620926, 31.427386336], [120.57389204632298, 31.427386336], [120.57378675132676, 31.426934016], [120.57747207619408, 31.42702448]]]}}, {"type": "Feature", "properties": {"area_ha": 0.0, "mean": null}, "geometry": {"type": "Polygon", "coordinates": [[[120.57662971622442, 31.426843552], [120.57652442122821, 31.426753088], [120.57662971622442, 31.426753088], [120.57662971622442, 31.426843552]]]}}, {"type": "Feature", "properties": {"area_ha": 0.0, "mean": null}, "geometry": {"type": "Polygon", "coordinates": [[[120.57715619120546, 31.426843552], [120.57705089620926, 31.426753088], [120.57715619120546, 31.426753088], [120.57715619120546, 31.426843552]]]}}, {"type": "Feature", "properties": {"area_ha": 0.0, "mean": null}, "geometry": {"type": "Polygon", "coordinates": [[[120.5775773711903, 31.426843552], [120.57747207619408, 31.426753088], [120.5775773711903, 31.426753088], [120.5775773711903, 31.426843552]]]}}, {"type": "Feature", "properties": {"area_ha": 0.06, "mean": 0.0818}, "geometry": {"type": "Polygon", "coordinates": [[[120.54104000750569, 31.427205408], [120.54072412251706, 31.426753088], [120.54093471250948, 31.426662624], [120.54104000750569, 31.427205408]]]}}, {"type": "Feature", "properties": {"area_ha": 0.0, "mean": null}, "geometry": {"type": "Polygon", "coordinates": [[[120.57726148620168, 31.426753088], [120.57715619120546, 31.426662624], [120.57726148620168, 31.426662624], [120.57726148620168, 31.426753088]]]}}, {"type": "Feature", "properties": {"area_ha": 0.0, "mean": null}, "geometry": {"type": "Polygon", "coordinates": [[[120.5776826661865, 31.426753088], [120.5775773711903, 31.426662624], [120.5776826661865, 31.426662624], [120.5776826661865, 31.426753088]]]}}, {"type": "Feature", "properties": {"area_ha": 0.01, "mean": 0.0416}, "geometry": {"type": "Polygon", "coordinates": [[[120.57526088127369, 31.426662624], [120.57505029128127, 31.42657216], [120.57526088127369, 31.42657216], [120.57526088127369, 31.426662624]]]}}, {"type": "Feature", "properties": {"area_ha": 0.0, "mean": null}, "geometry": {"type": "Polygon", "coordinates": [[[120.53008932789993, 31.426481696], [120.52998403290371, 31.426391232], [120.53008932789993, 31.426391232], [120.53008932789993, 31.426481696]]]}}, {"type": "Feature", "properties": {"area_ha": 0.02, "mean": 0.0356}, "geometry": {"type": "Polygon", "coordinates": [[[120.57778796118272, 31.426481696], [120.5776826661865, 31.426300768], [120.57789325617892, 31.426300768], [120.57778796118272, 31.426481696]]]}}, {"type": "Feature", "properties": {"area_ha": 0.0, "mean": null}, "geometry": {"type": "Polygon", "coordinates": [[[120.53019462289613, 31.426391232], [120.53008932789993, 31.426300768], [120.53019462289613, 31.426300768], [120.53019462289613, 31.426391232]]]}}, {"type": "Feature", "properties": {"area_ha": 0.0, "mean": null}, "geometry": {"type": "Polygon", "coordinates": [[[120.57820914116755, 31.426391232], [120.57810384617135, 31.426300768], [120.57820914116755, 31.426300768], [120.57820914116755, 31.426391232]]]}}, {"type": "Feature", "properties": {"area_ha": 0.01, "mean": 0.0383}, "geometry": {"type": "Polygon", "coordinates": [[[120.57915679613343, 31.426391232], [120.57894620614103, 31.426300768], [120.57915679613343, 31.426300768], [120.57915679613343, 31.426391232]]]}}, {"type": "Feature", "properties": {"area_ha": 0.0, "mean": null}, "geometry": {"type": "Polygon", "coordinates": [[[120.57810384617135, 31.426300768], [120.57789325617892, 31.426119840000002], [120.57810384617135, 31.426210304], [120.57810384617135, 31.426300768]]]}}, {"type": "Feature", "properties": {"area_ha": 0.01, "mean": 0.105}, "geometry": {"type": "Polygon", "coordinates": [[[120.53019462289613, 31.426210304], [120.53008932789993, 31.426029376], [120.53019462289613, 31.426029376], [120.53019462289613, 31.426210304]]]}}, {"type": "Feature", "properties": {"area_ha": 0.0, "mean": null}, "geometry": {"type": "Polygon", "coordinates": [[[120.53114227786202, 31.426119840000002], [120.53103698286581, 31.426029376], [120.53114227786202, 31.426029376], [120.53114227786202, 31.426119840000002]]]}}, {"type": "Feature", "properties": {"area_ha": 0.0, "mean": null}, "geometry": {"type": "Polygon", "coordinates": [[[120.53145816285065, 31.426029376], [120.53135286785444, 31.425938912], [120.53145816285065, 31.425938912], [120.53145816285065, 31.426029376]]]}}, {"type": "Feature", "properties": {"area_ha": 0.2, "mean": 0.0809}, "geometry": {"type": "Polygon", "coordinates": [[[120.52935226292647, 31.425848448], [120.52935226292647, 31.426391232], [120.528615197953, 31.425938912], [120.52935226292647, 31.425848448]]]}}, {"type": "Feature", "properties": {"area_ha": 0.01, "mean": 0.1522}, "geometry": {"type": "Polygon", "coordinates": [[[120.53008932789993, 31.426029376], [120.52998403290371, 31.425848448], [120.53008932789993, 31.425848448], [120.53008932789993, 31.426029376]]]}}, {"type": "Feature", "properties": {"area_ha": 0.0, "mean": null}, "geometry": {"type": "Polygon", "coordinates": [[[120.53177404783928, 31.425938912], [120.53166875284306, 31.425848448], [120.53177404783928, 31.425848448], [120.53177404783928, 31.425938912]]]}}, {"type": "Feature", "properties": {"area_ha": 0.0, "mean": null}, "geometry": {"type": "Polygon", "coordinates": [[[120.53114227786202, 31.425848448], [120.53103698286581, 31.425757984], [120.53114227786202, 31.425757984], [120.53114227786202, 31.425848448]]]}}, {"type": "Feature", "properties": {"area_ha": 0.0, "mean": null}, "geometry": {"type": "Polygon", "coordinates": [[[120.53219522782412, 31.425757984], [120.5320899328279, 31.42566752], [120.53219522782412, 31.42566752], [120.53219522782412, 31.425757984]]]}}, {"type": "Feature", "properties": {"area_ha": 0.25, "mean": 0.0415}, "geometry": {"type": "Polygon", "coordinates": [[[120.57863032115239, 31.425848448], [120.57799855117514, 31.426119840000002], [120.57810384617135, 31.425396128], [120.57863032115239, 31.425848448]]]}}, {"type": "Feature", "properties": {"area_ha": 0.0, "mean": null}, "geometry": {"type": "Polygon", "coordinates": [[[120.5319846378317, 31.425396128], [120.53187934283548, 31.425305664], [120.5319846378317, 31.425305664], [120.5319846378317, 31.425396128]]]}}, {"type": "Feature", "properties": {"area_ha": 0.16, "mean": 0.0272}, "geometry": {"type": "Polygon", "coordinates": [[[120.5320899328279, 31.42566752], [120.53166875284306, 31.425396128], [120.53251111281274, 31.425305664], [120.5320899328279, 31.42566752]]]}}, {"type": "Feature", "properties": {"area_ha": 0.01, "mean": 0.1023}, "geometry": {"type": "Polygon", "coordinates": [[[120.57894620614103, 31.425396128], [120.57884091114481, 31.4252152], [120.57894620614103, 31.4252152], [120.57894620614103, 31.425396128]]]}}, {"type": "Feature", "properties": {"area_ha": 0.01, "mean": 0.0833}, "geometry": {"type": "Polygon", "coordinates": [[[120.57968327111449, 31.425396128], [120.57957797611827, 31.4252152], [120.57968327111449, 31.4252152], [120.57968327111449, 31.425396128]]]}}, {"type": "Feature", "properties": {"area_ha": 0.0, "mean": null}, "geometry": {"type": "Polygon", "coordinates": [[[120.53303758779379, 31.425305664], [120.53293229279758, 31.4252152], [120.53303758779379, 31.4252152], [120.53303758779379, 31.425305664]]]}}, {"type": "Feature", "properties": {"area_ha": 0.0, "mean": null}, "geometry": {"type": "Polygon", "coordinates": [[[120.57841973115997, 31.4252152], [120.57831443616377, 31.425124736], [120.57841973115997, 31.425124736], [120.57841973115997, 31.4252152]]]}}, {"type": "Feature", "properties": {"area_ha": 0.01, "mean": 0.0547}, "geometry": {"type": "Polygon", "coordinates": [[[120.57947268112207, 31.4252152], [120.57926209112965, 31.425034272], [120.57947268112207, 31.425034272], [120.57947268112207, 31.4252152]]]}}, {"type": "Feature", "properties": {"area_ha": 0.04, "mean": 0.0484}, "geometry": {"type": "Polygon", "coordinates": [[[120.5343011277483, 31.4252152], [120.53356406277483, 31.425034272], [120.5343011277483, 31.425124736], [120.5343011277483, 31.4252152]]]}}, {"type": "Feature", "properties": {"area_ha": 0.04, "mean": 0.0972}, "geometry": {"type": "Polygon", "coordinates": [[[120.53524878271418, 31.425124736], [120.53440642274451, 31.425034272], [120.53524878271418, 31.425034272], [120.53524878271418, 31.425124736]]]}}, {"type": "Feature", "properties": {"area_ha": 0.01, "mean": 0.097}, "geometry": {"type": "Polygon", "coordinates": [[[120.57884091114481, 31.425124736], [120.5787356161486, 31.424943808000002], [120.57884091114481, 31.424943808000002], [120.57884091114481, 31.425124736]]]}}, {"type": "Feature", "properties": {"area_ha": 0.02, "mean": 0.0733}, "geometry": {"type": "Polygon", "coordinates": [[[120.5366176176649, 31.425034272], [120.53619643768006, 31.424943808000002], [120.5366176176649, 31.424943808000002], [120.5366176176649, 31.425034272]]]}}, {"type": "Feature", "properties": {"area_ha": 0.0, "mean": null}, "geometry": {"type": "Polygon", "coordinates": [[[120.57863032115239, 31.425034272], [120.57852502615619, 31.424943808000002], [120.57863032115239, 31.424943808000002], [120.57863032115239, 31.425034272]]]}}, {"type": "Feature", "properties": {"area_ha": 0.01, "mean": 0.02}, "geometry": {"type": "Polygon", "coordinates": [[[120.53377465276725, 31.424943808000002], [120.53356406277483, 31.424853344], [120.53377465276725, 31.424853344], [120.53377465276725, 31.424943808000002]]]}}, {"type": "Feature", "properties": {"area_ha": 0.01, "mean": 0.0831}, "geometry": {"type": "Polygon", "coordinates": [[[120.53693350265353, 31.424943808000002], [120.5366176176649, 31.424853344], [120.53693350265353, 31.424853344], [120.53693350265353, 31.424943808000002]]]}}, {"type": "Feature", "properties": {"area_ha": 0.02, "mean": 0.054}, "geometry": {"type": "Polygon", "coordinates": [[[120.57936738612585, 31.424943808000002], [120.57905150113723, 31.42476288], [120.57936738612585, 31.424853344], [120.57936738612585, 31.424943808000002]]]}}, {"type": "Feature", "properties": {"area_ha": 0.01, "mean": 0.0444}, "geometry": {"type": "Polygon", "coordinates": [[[120.5343011277483, 31.424853344], [120.53398524275967, 31.42476288], [120.5343011277483, 31.42476288], [120.5343011277483, 31.424853344]]]}}, {"type": "Feature", "properties": {"area_ha": 0.01, "mean": 0.0211}, "geometry": {"type": "Polygon", "coordinates": [[[120.53461701273693, 31.42476288], [120.53440642274451, 31.424672416], [120.53461701273693, 31.424672416], [120.53461701273693, 31.42476288]]]}}, {"type": "Feature", "properties": {"area_ha": 0.01, "mean": 0.0252}, "geometry": {"type": "Polygon", "coordinates": [[[120.58042033608795, 31.42476288], [120.58020974609553, 31.424672416], [120.58042033608795, 31.424672416], [120.58042033608795, 31.42476288]]]}}, {"type": "Feature", "properties": {"area_ha": 0.0, "mean": null}, "geometry": {"type": "Polygon", "coordinates": [[[120.53503819272176, 31.424672416], [120.53493289772555, 31.424581952], [120.53503819272176, 31.424581952], [120.53503819272176, 31.424672416]]]}}, {"type": "Feature", "properties": {"area_ha": 0.05, "mean": 0.0545}, "geometry": {"type": "Polygon", "coordinates": [[[120.5798938611069, 31.424853344], [120.57968327111449, 31.424581952], [120.57999915610311, 31.424491488], [120.5798938611069, 31.424853344]]]}}, {"type": "Feature", "properties": {"area_ha": 0.0, "mean": null}, "geometry": {"type": "Polygon", "coordinates": [[[120.5798938611069, 31.423948704], [120.5797885661107, 31.42385824], [120.5798938611069, 31.42385824], [120.5798938611069, 31.423948704]]]}}, {"type": "Feature", "properties": {"area_ha": 0.0, "mean": null}, "geometry": {"type": "Polygon", "coordinates": [[[120.58010445109932, 31.42385824], [120.57999915610311, 31.423767776000002], [120.58010445109932, 31.423767776000002], [120.58010445109932, 31.42385824]]]}}, {"type": "Feature", "properties": {"area_ha": 0.27, "mean": 0.0649}, "geometry": {"type": "Polygon", "coordinates": [[[120.58010445109932, 31.42431056], [120.57968327111449, 31.423948704], [120.580946811069, 31.423767776000002], [120.58031504109174, 31.424220096], [120.58010445109932, 31.424220096], [120.58010445109932, 31.42431056]], [[120.57999915610311, 31.424129632], [120.58010445109932, 31.424220096], [120.58010445109932, 31.424129632], [120.57999915610311, 31.424129632]]]}}, {"type": "Feature", "properties": {"area_ha": 0.0, "mean": null}, "geometry": {"type": "Polygon", "coordinates": [[[120.58031504109174, 31.423677312], [120.58020974609553, 31.423586848], [120.58031504109174, 31.423586848], [120.58031504109174, 31.423677312]]]}}, {"type": "Feature", "properties": {"area_ha": 0.0, "mean": null}, "geometry": {"type": "Polygon", "coordinates": [[[120.58063092608037, 31.423496384], [120.58052563108416, 31.42340592], [120.58063092608037, 31.42340592], [120.58063092608037, 31.423496384]]]}}, {"type": "Feature", "properties": {"area_ha": 0.0, "mean": null}, "geometry": {"type": "Polygon", "coordinates": [[[120.58073622107658, 31.42340592], [120.58063092608037, 31.423315456], [120.58073622107658, 31.423315456], [120.58073622107658, 31.42340592]]]}}, {"type": "Feature", "properties": {"area_ha": 0.0, "mean": null}, "geometry": {"type": "Polygon", "coordinates": [[[120.5810521060652, 31.423224992], [120.580946811069, 31.423134528000002], [120.5810521060652, 31.423134528000002], [120.5810521060652, 31.423224992]]]}}, {"type": "Feature", "properties": {"area_ha": 0.0, "mean": null}, "geometry": {"type": "Polygon", "coordinates": [[[120.54177707247915, 31.4229536], [120.54167177748295, 31.422863136], [120.54177707247915, 31.422863136], [120.54177707247915, 31.4229536]]]}}, {"type": "Feature", "properties": {"area_ha": 0.07, "mean": 0.4131}, "geometry": {"type": "Polygon", "coordinates": [[[120.5934769156179, 31.42250128], [120.59305573563306, 31.422320352], [120.59337162062168, 31.422139424], [120.5934769156179, 31.42250128]]]}}, {"type": "Feature", "properties": {"area_ha": 0.0, "mean": null}, "geometry": {"type": "Polygon", "coordinates": [[[120.5855797909022, 31.42023968], [120.585474495906, 31.420149216], [120.5855797909022, 31.420149216], [120.5855797909022, 31.42023968]]]}}, {"type": "Feature", "properties": {"area_ha": 1.68, "mean": 0.1276}, "geometry": {"type": "Polygon", "coordinates": [[[120.58652744586809, 31.420511072], [120.58115740106142, 31.4229536], [120.58642215087188, 31.419968288], [120.58652744586809, 31.420511072]]]}}, {"type": "Feature", "properties": {"area_ha": 7.34, "mean": 0.1024}, "geometry": {"type": "Polygon", "coordinates": [[[120.54093471250948, 31.425396128], [120.54040823752844, 31.422682208], [120.5411453025019, 31.420149216], [120.54030294253222, 31.419425504], [120.54167177748295, 31.418339936], [120.54219825246399, 31.423315456], [120.54093471250948, 31.425396128]], [[120.54093471250948, 31.423767776000002], [120.54146118749053, 31.423586848], [120.54093471250948, 31.423496384], [120.54093471250948, 31.423767776000002]], [[120.54061882752086, 31.42340592], [120.54072412251706, 31.423496384], [120.54072412251706, 31.42340592], [120.54061882752086, 31.42340592]], [[120.54135589249432, 31.423315456], [120.54146118749053, 31.42340592], [120.54146118749053, 31.423315456], [120.54135589249432, 31.423315456]], [[120.54104000750569, 31.423044064], [120.54209295746779, 31.423315456], [120.54198766247157, 31.422682208], [120.54104000750569, 31.423044064]], [[120.54104000750569, 31.42250128], [120.54135589249432, 31.422591744], [120.54135589249432, 31.422410816], [120.54104000750569, 31.42250128]], [[120.54082941751327, 31.419515968], [120.54135589249432, 31.419696896], [120.54135589249432, 31.419515968], [120.54082941751327, 31.419515968]], [[120.54072412251706, 31.419244576], [120.54082941751327, 31.419515968], [120.54093471250948, 31.419244576], [120.54072412251706, 31.419244576]]]}}, {"type": "Feature", "properties": {"area_ha": 1.05, "mean": 0.0649}, "geometry": {"type": "Polygon", "coordinates": [[[120.54051353252464, 31.418068544], [120.53977646755118, 31.41707344], [120.54167177748295, 31.417435296], [120.54167177748295, 31.417887616], [120.5412505974981, 31.417887616], [120.54051353252464, 31.418068544]], [[120.54040823752844, 31.417706688], [120.54051353252464, 31.417887616], [120.54051353252464, 31.417706688], [120.54040823752844, 31.417706688]], [[120.54072412251706, 31.417797152], [120.5412505974981, 31.417887616], [120.5412505974981, 31.417797152], [120.54072412251706, 31.417797152]], [[120.54072412251706, 31.417344832], [120.54082941751327, 31.417435296], [120.54082941751327, 31.417344832], [120.54072412251706, 31.417344832]]]}}, {"type": "Feature", "properties": {"area_ha": 45.61, "mean": 0.1197}, "geometry": {"type": "Polygon", "coordinates": [[[120.54714711728583, 31.426843552], [120.54272472744503, 31.422772672], [120.5513589171342, 31.416349728], [120.54999008218347, 31.425305664], [120.54714711728583, 31.426843552]], [[120.54283002244125, 31.422772672], [120.54293531743745, 31.422863136], [120.54293531743745, 31.422772672], [120.54283002244125, 31.422772672]], [[120.5434617924185, 31.422410816], [120.54356708741471, 31.422591744], [120.54356708741471, 31.422410816], [120.5434617924185, 31.422410816]], [[120.54377767740714, 31.422139424], [120.54409356239576, 31.422229888], [120.54409356239576, 31.422139424], [120.54377767740714, 31.422139424]]]}}, {"type": "Feature", "properties": {"area_ha": 0.44, "mean": 0.1197}, "geometry": {"type": "Polygon", "coordinates": [[[120.53377465276725, 31.416802048], [120.53177404783928, 31.41662112], [120.53145816285065, 31.4161688], [120.53377465276725, 31.416802048]]]}}, {"type": "Feature", "properties": {"area_ha": 0.0, "mean": null}, "geometry": {"type": "Polygon", "coordinates": [[[120.53145816285065, 31.4161688], [120.53135286785444, 31.416078336], [120.53145816285065, 31.416078336], [120.53145816285065, 31.4161688]]]}}, {"type": "Feature", "properties": {"area_ha": 0.23, "mean": 0.1137}, "geometry": {"type": "Polygon", "coordinates": [[[120.55462306201669, 31.416078336], [120.55388599704322, 31.41571648], [120.55472835701289, 31.415535552], [120.55462306201669, 31.416078336]]]}}, {"type": "Feature", "properties": {"area_ha": 0.38, "mean": 0.1525}, "geometry": {"type": "Polygon", "coordinates": [[[120.53135286785444, 31.415987872], [120.52998403290371, 31.415535552], [120.52882578794542, 31.414540448], [120.53135286785444, 31.415987872]]]}}, {"type": "Feature", "properties": {"area_ha": 0.03, "mean": 0.127}, "geometry": {"type": "Polygon", "coordinates": [[[120.52882578794542, 31.41435952], [120.52819401796816, 31.414088128], [120.52819401796816, 31.413997664], [120.52882578794542, 31.41435952]]]}}, {"type": "Feature", "properties": {"area_ha": 0.0, "mean": null}, "geometry": {"type": "Polygon", "coordinates": [[[120.52819401796816, 31.413997664], [120.52808872297196, 31.4139072], [120.52819401796816, 31.4139072], [120.52819401796816, 31.413997664]]]}}, {"type": "Feature", "properties": {"area_ha": 0.0, "mean": null}, "geometry": {"type": "Polygon", "coordinates": [[[120.52808872297196, 31.4139072], [120.52798342797574, 31.413816736], [120.52808872297196, 31.413816736], [120.52808872297196, 31.4139072]]]}}, {"type": "Feature", "properties": {"area_ha": 0.0, "mean": null}, "geometry": {"type": "Polygon", "coordinates": [[[120.52798342797574, 31.413816736], [120.52787813297954, 31.413726272], [120.52798342797574, 31.413726272], [120.52798342797574, 31.413816736]]]}}, {"type": "Feature", "properties": {"area_ha": 0.3, "mean": 0.2281}, "geometry": {"type": "Polygon", "coordinates": [[[120.52787813297954, 31.413635808], [120.52629870803639, 31.412821632], [120.52598282304777, 31.412278848], [120.52787813297954, 31.413635808]]]}}, {"type": "Feature", "properties": {"area_ha": 0.0, "mean": null}, "geometry": {"type": "Polygon", "coordinates": [[[120.52429810310842, 31.410921888], [120.5241928081122, 31.410831424], [120.52429810310842, 31.410831424], [120.52429810310842, 31.410921888]]]}}, {"type": "Feature", "properties": {"area_ha": 0.0, "mean": null}, "geometry": {"type": "Polygon", "coordinates": [[[120.5241928081122, 31.410831424], [120.524087513116, 31.410740960000002], [120.5241928081122, 31.410740960000002], [120.5241928081122, 31.410831424]]]}}, {"type": "Feature", "properties": {"area_ha": 0.18, "mean": 0.3461}, "geometry": {"type": "Polygon", "coordinates": [[[120.52240279317665, 31.409203072], [120.52240279317665, 31.41028864], [120.52208690818803, 31.409384], [120.52240279317665, 31.409203072]]]}}]}