{"type": "FeatureCollection", "features": [{"type": "Feature", "properties": {"area_ha": 0.0, "mean": null}, "geometry": {"type": "Polygon", "coordinates": [[[120.52250808817286, 31.46909024], [120.52240279317665, 31.468999776], [120.52250808817286, 31.468999776], [120.52250808817286, 31.46909024]]]}}, {"type": "Feature", "properties": {"area_ha": 0.0, "mean": null}, "geometry": {"type": "Polygon", "coordinates": [[[120.524087513116, 31.46682864], [120.5239822181198, 31.466738176], [120.524087513116, 31.466738176], [120.524087513116, 31.46682864]]]}}, {"type": "Feature", "properties": {"area_ha": 0.0, "mean": null}, "geometry": {"type": "Polygon", "coordinates": [[[120.53714409264595, 31.4478312], [120.53703879764974, 31.447740736], [120.53714409264595, 31.447740736], [120.53714409264595, 31.4478312]]]}}, {"type": "Feature", "properties": {"area_ha": 0.0, "mean": null}, "geometry": {"type": "Polygon", "coordinates": [[[120.53767056762699, 31.445298208], [120.53756527263079, 31.445207744], [120.53767056762699, 31.445207744], [120.53767056762699, 31.445298208]]]}}, {"type": "Feature", "properties": {"area_ha": 0.01, "mean": 0.2612}, "geometry": {"type": "Polygon", "coordinates": [[[120.53861822259287, 31.440503616], [120.53851292759667, 31.440322688000002], [120.53861822259287, 31.440322688000002], [120.53861822259287, 31.440503616]]]}}, {"type": "Feature", "properties": {"area_ha": 0.35, "mean": 0.2615}, "geometry": {"type": "Polygon", "coordinates": [[[120.58515861091736, 31.434442528], [120.58505331592116, 31.433809280000002], [120.58610626588325, 31.433718816], [120.58515861091736, 31.434442528]]]}}, {"type": "Feature", "properties": {"area_ha": 0.12, "mean": 0.147}, "geometry": {"type": "Polygon", "coordinates": [[[120.59916284541319, 31.432995104], [120.59884696042457, 31.432995104], [120.59895225542078, 31.432271392], [120.59916284541319, 31.432995104]]]}}, {"type": "Feature", "properties": {"area_ha": 0.0, "mean": null}, "geometry": {"type": "Polygon", "coordinates": [[[120.59895225542078, 31.432271392], [120.59884696042457, 31.432180928], [120.59895225542078, 31.432180928], [120.59895225542078, 31.432271392]]]}}, {"type": "Feature", "properties": {"area_ha": 0.44, "mean": 0.1873}, "geometry": {"type": "Polygon", "coordinates": [[[120.5888439357847, 31.43290464], [120.58852805079606, 31.432633248000002], [120.58873864078848, 31.432000000000002], [120.58947570576194, 31.43245232], [120.5888439357847, 31.43290464]], [[120.58863334579227, 31.43245232], [120.58873864078848, 31.432633248000002], [120.58873864078848, 31.43245232], [120.58863334579227, 31.43245232]]]}}, {"type": "Feature", "properties": {"area_ha": 0.0, "mean": null}, "geometry": {"type": "Polygon", "coordinates": [[[120.59895225542078, 31.432090464], [120.59884696042457, 31.432000000000002], [120.59895225542078, 31.432000000000002], [120.59895225542078, 31.432090464]]]}}, {"type": "Feature", "properties": {"area_ha": 0.0, "mean": null}, "geometry": {"type": "Polygon", "coordinates": [[[120.51787510833965, 31.43154768], [120.51776981334345, 31.431457216000002], [120.51787510833965, 31.431457216000002], [120.51787510833965, 31.43154768]]]}}, {"type": "Feature", "properties": {"area_ha": 0.12, "mean": 0.2634}, "geometry": {"type": "Polygon", "coordinates": [[[120.59884696042457, 31.431457216000002], [120.59832048544352, 31.431276288], [120.59853107543594, 31.430914432], [120.59884696042457, 31.431457216000002]]]}}, {"type": "Feature", "properties": {"area_ha": 0.0, "mean": null}, "geometry": {"type": "Polygon", "coordinates": [[[120.59895225542078, 31.430914432], [120.59884696042457, 31.430823968000002], [120.59895225542078, 31.430823968000002], [120.59895225542078, 31.430914432]]]}}, {"type": "Feature", "properties": {"area_ha": 0.0, "mean": null}, "geometry": {"type": "Polygon", "coordinates": [[[120.59916284541319, 31.430914432], [120.59905755041699, 31.430823968000002], [120.59916284541319, 31.430823968000002], [120.59916284541319, 31.430914432]]]}}, {"type": "Feature", "properties": {"area_ha": 0.08, "mean": 0.1507}, "geometry": {"type": "Polygon", "coordinates": [[[120.57231262137984, 31.428743296], [120.571891441395, 31.42883376], [120.57231262137984, 31.42838144], [120.57231262137984, 31.428743296]]]}}, {"type": "Feature", "properties": {"area_ha": 0.06, "mean": 0.2564}, "geometry": {"type": "Polygon", "coordinates": [[[120.57389204632298, 31.427748192], [120.57347086633814, 31.427657728], [120.57389204632298, 31.4274768], [120.57389204632298, 31.427748192]]]}}, {"type": "Feature", "properties": {"area_ha": 0.0, "mean": null}, "geometry": {"type": "Polygon", "coordinates": [[[120.52187631819561, 31.427567264], [120.52177102319939, 31.4274768], [120.52187631819561, 31.4274768], [120.52187631819561, 31.427567264]]]}}, {"type": "Feature", "properties": {"area_ha": 0.0, "mean": null}, "geometry": {"type": "Polygon", "coordinates": [[[120.57715619120546, 31.4274768], [120.57705089620926, 31.427386336], [120.57715619120546, 31.427386336], [120.57715619120546, 31.4274768]]]}}, {"type": "Feature", "properties": {"area_ha": 0.06, "mean": 0.1601}, "geometry": {"type": "Polygon", "coordinates": [[[120.57694560121304, 31.427386336], [120.57578735625474, 31.427205408], [120.57694560121304, 31.427295872000002], [120.57694560121304, 31.427386336]]]}}, {"type": "Feature", "properties": {"area_ha": 0.0, "mean": null}, "geometry": {"type": "Polygon", "coordinates": [[[120.54072412251706, 31.427205408], [120.54061882752086, 31.427114944], [120.54072412251706, 31.427114944], [120.54072412251706, 31.427205408]]]}}, {"type": "Feature", "properties": {"area_ha": 0.02, "mean": 0.2365}, "geometry": {"type": "Polygon", "coordinates": [[[120.57568206125853, 31.427295872000002], [120.57536617626991, 31.427114944], [120.57568206125853, 31.427205408], [120.57568206125853, 31.427295872000002]]]}}, {"type": "Feature", "properties": {"area_ha": 0.01, "mean": 0.2168}, "geometry": {"type": "Polygon", "coordinates": [[[120.57473440629265, 31.426934016], [120.57462911129645, 31.42702448], [120.57452381630023, 31.426934016], [120.57473440629265, 31.426934016]]]}}, {"type": "Feature", "properties": {"area_ha": 0.03, "mean": 0.2283}, "geometry": {"type": "Polygon", "coordinates": [[[120.57536617626991, 31.427114944], [120.57483970128887, 31.426934016], [120.57536617626991, 31.42702448], [120.57536617626991, 31.427114944]]]}}, {"type": "Feature", "properties": {"area_ha": 0.01, "mean": 0.3017}, "geometry": {"type": "Polygon", "coordinates": [[[120.5411453025019, 31.425305664], [120.54104000750569, 31.425124736], [120.5411453025019, 31.425124736], [120.5411453025019, 31.425305664]]]}}, {"type": "Feature", "properties": {"area_ha": 0.01, "mean": 0.2523}, "geometry": {"type": "Polygon", "coordinates": [[[120.5411453025019, 31.424853344], [120.54104000750569, 31.424672416], [120.5411453025019, 31.424672416], [120.5411453025019, 31.424853344]]]}}, {"type": "Feature", "properties": {"area_ha": 0.0, "mean": null}, "geometry": {"type": "Polygon", "coordinates": [[[120.54051353252464, 31.424581952], [120.54040823752844, 31.424491488], [120.54051353252464, 31.424491488], [120.54051353252464, 31.424581952]]]}}, {"type": "Feature", "properties": {"area_ha": 0.0, "mean": null}, "geometry": {"type": "Polygon", "coordinates": [[[120.58147328605004, 31.424220096], [120.58136799105384, 31.424129632], [120.58147328605004, 31.424129632], [120.58147328605004, 31.424220096]]]}}, {"type": "Feature", "properties": {"area_ha": 0.0, "mean": null}, "geometry": {"type": "Polygon", "coordinates": [[[120.58157858104624, 31.424129632], [120.58147328605004, 31.424039168], [120.58157858104624, 31.424039168], [120.58157858104624, 31.424129632]]]}}, {"type": "Feature", "properties": {"area_ha": 0.0, "mean": null}, "geometry": {"type": "Polygon", "coordinates": [[[120.58168387604246, 31.424039168], [120.58157858104624, 31.423948704], [120.58168387604246, 31.423948704], [120.58168387604246, 31.424039168]]]}}, {"type": "Feature", "properties": {"area_ha": 0.0, "mean": null}, "geometry": {"type": "Polygon", "coordinates": [[[120.58199976103108, 31.42385824], [120.58189446603488, 31.423767776000002], [120.58199976103108, 31.423767776000002], [120.58199976103108, 31.42385824]]]}}, {"type": "Feature", "properties": {"area_ha": 0.0, "mean": null}, "geometry": {"type": "Polygon", "coordinates": [[[120.54862124723276, 31.423767776000002], [120.54851595223654, 31.423677312], [120.54862124723276, 31.423677312], [120.54862124723276, 31.423767776000002]]]}}, {"type": "Feature", "properties": {"area_ha": 0.0, "mean": null}, "geometry": {"type": "Polygon", "coordinates": [[[120.5822103510235, 31.423677312], [120.5821050560273, 31.423586848], [120.5822103510235, 31.423586848], [120.5822103510235, 31.423677312]]]}}, {"type": "Feature", "properties": {"area_ha": 0.0, "mean": null}, "geometry": {"type": "Polygon", "coordinates": [[[120.58231564601972, 31.423586848], [120.5822103510235, 31.423496384], [120.58231564601972, 31.423496384], [120.58231564601972, 31.423586848]]]}}, {"type": "Feature", "properties": {"area_ha": 0.0, "mean": null}, "geometry": {"type": "Polygon", "coordinates": [[[120.54851595223654, 31.423496384], [120.54841065724034, 31.42340592], [120.54851595223654, 31.42340592], [120.54851595223654, 31.423496384]]]}}, {"type": "Feature", "properties": {"area_ha": 0.0, "mean": null}, "geometry": {"type": "Polygon", "coordinates": [[[120.58242094101593, 31.423496384], [120.58231564601972, 31.42340592], [120.58242094101593, 31.42340592], [120.58242094101593, 31.423496384]]]}}, {"type": "Feature", "properties": {"area_ha": 0.0, "mean": null}, "geometry": {"type": "Polygon", "coordinates": [[[120.54851595223654, 31.423315456], [120.54841065724034, 31.423224992], [120.54851595223654, 31.423224992], [120.54851595223654, 31.423315456]]]}}, {"type": "Feature", "properties": {"area_ha": 0.02, "mean": 0.1249}, "geometry": {"type": "Polygon", "coordinates": [[[120.54893713222138, 31.423224992], [120.54851595223654, 31.423134528000002], [120.54893713222138, 31.423134528000002], [120.54893713222138, 31.423224992]]]}}, {"type": "Feature", "properties": {"area_ha": 0.05, "mean": 0.114}, "geometry": {"type": "Polygon", "coordinates": [[[120.54967419719485, 31.4229536], [120.5491477222138, 31.4229536], [120.54967419719485, 31.422772672], [120.54967419719485, 31.4229536]]]}}, {"type": "Feature", "properties": {"area_ha": 0.0, "mean": null}, "geometry": {"type": "Polygon", "coordinates": [[[120.58326330098559, 31.422863136], [120.58315800598939, 31.422772672], [120.58326330098559, 31.422772672], [120.58326330098559, 31.422863136]]]}}, {"type": "Feature", "properties": {"area_ha": 0.02, "mean": 0.1006}, "geometry": {"type": "Polygon", "coordinates": [[[120.54977949219106, 31.422320352], [120.54967419719485, 31.422410816], [120.54935831220622, 31.422139424], [120.54977949219106, 31.422320352]]]}}, {"type": "Feature", "properties": {"area_ha": 0.02, "mean": 0.4306}, "geometry": {"type": "Polygon", "coordinates": [[[120.5934769156179, 31.422229888], [120.59326632562548, 31.422320352], [120.59326632562548, 31.422139424], [120.5934769156179, 31.422229888]]]}}, {"type": "Feature", "properties": {"area_ha": 0.0, "mean": null}, "geometry": {"type": "Polygon", "coordinates": [[[120.54999008218347, 31.422229888], [120.54988478718727, 31.422139424], [120.54999008218347, 31.422139424], [120.54999008218347, 31.422229888]]]}}, {"type": "Feature", "properties": {"area_ha": 0.01, "mean": 0.1295}, "geometry": {"type": "Polygon", "coordinates": [[[120.54967419719485, 31.422139424], [120.54956890219864, 31.421958496000002], [120.54967419719485, 31.421958496000002], [120.54967419719485, 31.422139424]]]}}, {"type": "Feature", "properties": {"area_ha": 0.01, "mean": 0.1175}, "geometry": {"type": "Polygon", "coordinates": [[[120.54977949219106, 31.421958496000002], [120.54967419719485, 31.421777568], [120.54977949219106, 31.421777568], [120.54977949219106, 31.421958496000002]]]}}, {"type": "Feature", "properties": {"area_ha": 0.0, "mean": null}, "geometry": {"type": "Polygon", "coordinates": [[[120.58421095595148, 31.421868032], [120.58410566095527, 31.421777568], [120.58421095595148, 31.421777568], [120.58421095595148, 31.421868032]]]}}, {"type": "Feature", "properties": {"area_ha": 0.03, "mean": 0.1189}, "geometry": {"type": "Polygon", "coordinates": [[[120.54999008218347, 31.421777568], [120.54999008218347, 31.421506176], [120.55020067217589, 31.421506176], [120.54999008218347, 31.421777568]]]}}, {"type": "Feature", "properties": {"area_ha": 0.02, "mean": 0.1325}, "geometry": {"type": "Polygon", "coordinates": [[[120.55030596717211, 31.421325248], [120.55009537717969, 31.421234784], [120.55030596717211, 31.42114432], [120.55030596717211, 31.421325248]]]}}, {"type": "Feature", "properties": {"area_ha": 0.01, "mean": 0.2753}, "geometry": {"type": "Polygon", "coordinates": [[[120.5412505974981, 31.420963392], [120.5411453025019, 31.420692], [120.5412505974981, 31.420692], [120.5412505974981, 31.420963392]]]}}, {"type": "Feature", "properties": {"area_ha": 0.0, "mean": null}, "geometry": {"type": "Polygon", "coordinates": [[[120.55051655716453, 31.420782464000002], [120.55041126216831, 31.420692], [120.55051655716453, 31.420692], [120.55051655716453, 31.420782464000002]]]}}, {"type": "Feature", "properties": {"area_ha": 0.0, "mean": null}, "geometry": {"type": "Polygon", "coordinates": [[[120.58600097088704, 31.420782464000002], [120.58589567589082, 31.420692], [120.58600097088704, 31.420692], [120.58600097088704, 31.420782464000002]]]}}, {"type": "Feature", "properties": {"area_ha": 0.0, "mean": null}, "geometry": {"type": "Polygon", "coordinates": [[[120.58610626588325, 31.420692], [120.58600097088704, 31.420601536], [120.58610626588325, 31.420601536], [120.58610626588325, 31.420692]]]}}, {"type": "Feature", "properties": {"area_ha": 0.0, "mean": null}, "geometry": {"type": "Polygon", "coordinates": [[[120.58652744586809, 31.420511072], [120.58642215087188, 31.420420608], [120.58652744586809, 31.420420608], [120.58652744586809, 31.420511072]]]}}, {"type": "Feature", "properties": {"area_ha": 0.0, "mean": null}, "geometry": {"type": "Polygon", "coordinates": [[[120.55051655716453, 31.42023968], [120.55041126216831, 31.420149216], [120.55051655716453, 31.420149216], [120.55051655716453, 31.42023968]]]}}, {"type": "Feature", "properties": {"area_ha": 0.0, "mean": null}, "geometry": {"type": "Polygon", "coordinates": [[[120.52429810310842, 31.410921888], [120.5241928081122, 31.410831424], [120.52429810310842, 31.410831424], [120.52429810310842, 31.410921888]]]}}, {"type": "Feature", "properties": {"area_ha": 0.0, "mean": null}, "geometry": {"type": "Polygon", "coordinates": [[[120.5241928081122, 31.410831424], [120.524087513116, 31.410740960000002], [120.5241928081122, 31.410740960000002], [120.5241928081122, 31.410831424]]]}}, {"type": "Feature", "properties": {"area_ha": 0.13, "mean": 0.2405}, "geometry": {"type": "Polygon", "coordinates": [[[120.5229292681577, 31.409655392], [120.5228239731615, 31.410469568], [120.52261338316907, 31.409745856], [120.5229292681577, 31.409655392]]]}}, {"type": "Feature", "properties": {"area_ha": 0.0, "mean": null}, "geometry": {"type": "Polygon", "coordinates": [[[120.5228239731615, 31.409655392], [120.52271867816528, 31.409564928], [120.5228239731615, 31.409564928], [120.5228239731615, 31.409655392]]]}}, {"type": "Feature", "properties": {"area_ha": 0.0, "mean": null}, "geometry": {"type": "Polygon", "coordinates": [[[120.52271867816528, 31.409564928], [120.52261338316907, 31.409474464], [120.52271867816528, 31.409474464], [120.52271867816528, 31.409564928]]]}}, {"type": "Feature", "properties": {"area_ha": 0.0, "mean": null}, "geometry": {"type": "Polygon", "coordinates": [[[120.52261338316907, 31.409474464], [120.52250808817286, 31.409384], [120.52261338316907, 31.409384], [120.52261338316907, 31.409474464]]]}}, {"type": "Feature", "properties": {"area_ha": 0.01, "mean": 0.3059}, "geometry": {"type": "Polygon", "coordinates": [[[120.52240279317665, 31.409384], [120.52229749818045, 31.409203072], [120.52240279317665, 31.409203072], [120.52240279317665, 31.409384]]]}}]}