{"type": "FeatureCollection", "features": [{"type": "Feature", "properties": {"name": "黄埭镇水体边界 (JRC参考+S2 10m细化)"}, "geometry": {"type": "MultiPolygon", "coordinates": [[[[120.52240279317665, 31.41028864], [120.52240279317665, 31.409203072], [120.52208690818803, 31.409384], [120.52240279317665, 31.41028864]]], [[[120.5241928081122, 31.410831424], [120.5241928081122, 31.410740960000002], [120.524087513116, 31.410740960000002], [120.5241928081122, 31.410831424]]], [[[120.5241928081122, 31.410831424], [120.52429810310842, 31.410921888], [120.52429810310842, 31.410831424], [120.5241928081122, 31.410831424]]], [[[120.52787813297954, 31.413635808], [120.52598282304777, 31.412278848], [120.52629870803639, 31.412821632], [120.52787813297954, 31.413635808]]], [[[120.52798342797574, 31.413816736], [120.52798342797574, 31.413726272], [120.52787813297954, 31.413726272], [120.52798342797574, 31.413816736]]], [[[120.52808872297196, 31.4139072], [120.52808872297196, 31.413816736], [120.52798342797574, 31.413816736], [120.52808872297196, 31.4139072]]], [[[120.52808872297196, 31.4139072], [120.52819401796816, 31.413997664], [120.52819401796816, 31.4139072], [120.52808872297196, 31.4139072]]], [[[120.52998403290371, 31.415535552], [120.53135286785444, 31.415987872], [120.52819401796816, 31.413997664], [120.52998403290371, 31.415535552]]], [[[120.52998403290371, 31.425757984], [120.528615197953, 31.425938912], [120.52935226292647, 31.426391232], [120.52998403290371, 31.425757984]]], [[[120.51808569833207, 31.427838656], [120.51798040333587, 31.426934016], [120.51766451834723, 31.427114944], [120.51808569833207, 31.427838656]]], [[[120.52335044814254, 31.427567264], [120.52356103813496, 31.427295872000002], [120.52313985815012, 31.427205408], [120.52335044814254, 31.427567264]]], [[[120.51966512327522, 31.431909536], [120.52177102319939, 31.427386336], [120.519559828279, 31.427205408], [120.51966512327522, 31.431909536]]], [[[120.49207783426839, 31.452535328], [120.49081429431388, 31.452535328], [120.49165665428356, 31.453078112], [120.49207783426839, 31.452535328]]], [[[120.51071504859743, 31.45823456], [120.51082034359364, 31.458053632000002], [120.50997798362397, 31.457963168], [120.51071504859743, 31.45823456]]], [[[120.49492079916604, 31.457148992], [120.49818494404853, 31.46004384], [120.50913562365429, 31.46049616], [120.51218917854436, 31.467009568], [120.52082336823351, 31.470356736], [120.53230052282032, 31.46863792], [120.52461398809704, 31.466104928], [120.5207180732373, 31.469723488], [120.50903032865808, 31.459953376], [120.49492079916604, 31.457148992]]], [[[120.52629870803639, 31.464567040000002], [120.52619341304019, 31.464205184], [120.52577223305535, 31.464476576], [120.52629870803639, 31.464567040000002]]], [[[120.53124757285823, 31.467552352000002], [120.53103698286581, 31.466738176], [120.53061580288097, 31.466919104000002], [120.53124757285823, 31.467552352000002]]], [[[120.53051050788477, 31.46728096], [120.53040521288855, 31.467100032], [120.53019462289613, 31.467190496], [120.53051050788477, 31.46728096]]], [[[120.5297734429113, 31.46773328], [120.52935226292647, 31.467009568], [120.52903637793784, 31.467100032], [120.5297734429113, 31.46773328]]], [[[120.53145816285065, 31.4161688], [120.53145816285065, 31.416078336], [120.53135286785444, 31.416078336], [120.53145816285065, 31.4161688]]], [[[120.53145816285065, 31.4161688], [120.53177404783928, 31.41662112], [120.53377465276725, 31.416802048], [120.53145816285065, 31.4161688]]], [[[120.53977646755118, 31.41707344], [120.54167177748295, 31.417887616], [120.54167177748295, 31.417435296], [120.53977646755118, 31.41707344]]], [[[120.53703879764974, 31.42476288], [120.53272170280516, 31.425034272], [120.53103698286581, 31.425757984], [120.53703879764974, 31.42476288]]], [[[120.54104000750569, 31.432361856], [120.54040823752844, 31.431638144], [120.5399870575436, 31.432000000000002], [120.54104000750569, 31.432361856]]], [[[120.53977646755118, 31.43561856], [120.53967117255497, 31.435437632], [120.53946058256255, 31.435528096], [120.53977646755118, 31.43561856]]], [[[120.5388288125853, 31.440684544], [120.53872351758909, 31.440232224], [120.53851292759667, 31.440322688000002], [120.5388288125853, 31.440684544]]], [[[120.53840763260045, 31.442765216], [120.53830233760425, 31.442493824], [120.53809174761183, 31.442584288], [120.53840763260045, 31.442765216]]], [[[120.53830233760425, 31.443217536], [120.53819704260805, 31.443036608], [120.53798645261563, 31.443127072], [120.53830233760425, 31.443217536]]], [[[120.5377758626232, 31.444122176], [120.53809174761183, 31.444303104], [120.53798645261563, 31.444031712], [120.5377758626232, 31.444122176]]], [[[120.53788115761941, 31.445479136], [120.5377758626232, 31.44511728], [120.53756527263079, 31.445207744], [120.53788115761941, 31.445479136]]], [[[120.53924999257013, 31.445750528], [120.53893410758151, 31.445298208], [120.53872351758909, 31.445388672], [120.53924999257013, 31.445750528]]], [[[120.5377758626232, 31.44602192], [120.53767056762699, 31.445750528], [120.53745997763457, 31.445840992], [120.5377758626232, 31.44602192]]], [[[120.54030294253222, 31.446293312], [120.54019764753602, 31.446112384], [120.5399870575436, 31.446202848000002], [120.54030294253222, 31.446293312]]], [[[120.5377758626232, 31.447469344], [120.53756527263079, 31.446293312], [120.53724938764216, 31.446745632], [120.5377758626232, 31.447469344]]], [[[120.53556466770281, 31.456153888], [120.53556466770281, 31.455882496], [120.5354593727066, 31.455882496], [120.53556466770281, 31.456153888]]], [[[120.5354593727066, 31.456244352000002], [120.53556466770281, 31.456334816000002], [120.53556466770281, 31.456244352000002], [120.5354593727066, 31.456244352000002]]], [[[120.5354593727066, 31.456606208], [120.5354593727066, 31.456334816000002], [120.5353540777104, 31.456334816000002], [120.5354593727066, 31.456606208]]], [[[120.53293229279758, 31.466919104000002], [120.53345876777863, 31.465833536], [120.53303758779379, 31.466104928], [120.53293229279758, 31.466919104000002]]], [[[120.55462306201669, 31.416078336], [120.55472835701289, 31.415535552], [120.55388599704322, 31.41571648], [120.55462306201669, 31.416078336]]], [[[120.54999008218347, 31.425305664], [120.5513589171342, 31.416349728], [120.54272472744503, 31.422772672], [120.54999008218347, 31.425305664]]], [[[120.54219825246399, 31.423496384], [120.54167177748295, 31.418339936], [120.54030294253222, 31.419425504], [120.54219825246399, 31.423496384]]], [[[120.5934769156179, 31.42250128], [120.59337162062168, 31.422139424], [120.59305573563306, 31.422320352], [120.5934769156179, 31.42250128]]], [[[120.57789325617892, 31.428019584], [120.57910548486625, 31.426875237360406], [120.58010445109932, 31.428019584], [120.57924473710922, 31.42674378292613], [120.58642215087188, 31.419968288], [120.57947268112207, 31.424491488], [120.57494499628507, 31.426210304], [120.56999613146323, 31.428924224], [120.57789325617892, 31.428019584]]], [[[120.54104000750569, 31.427205408], [120.54093471250948, 31.426662624], [120.54072412251706, 31.426753088], [120.54104000750569, 31.427205408]]], [[[120.54104000750569, 31.42838144], [120.54072412251706, 31.427567264], [120.54040823752844, 31.428110048], [120.54104000750569, 31.42838144]]], [[[120.57810384617135, 31.428290976], [120.57799855117514, 31.428019584], [120.57778796118272, 31.428110048], [120.57810384617135, 31.428290976]]], [[[120.54851595223654, 31.42928608], [120.54841065724034, 31.428924224], [120.54809477225172, 31.429105152], [120.54851595223654, 31.42928608]]], [[[120.57915679613343, 31.429828864], [120.57841973115997, 31.428924224], [120.57820914116755, 31.429467008], [120.57915679613343, 31.429828864]]], [[[120.59832048544352, 31.43109536], [120.59958402539803, 31.431366752], [120.59937343540561, 31.430823968000002], [120.59832048544352, 31.43109536]]], [[[120.56704787156937, 31.431276288], [120.56715316656559, 31.43109536], [120.56673198658075, 31.43109536], [120.56704787156937, 31.431276288]]], [[[120.58947570576194, 31.43245232], [120.58873864078848, 31.432000000000002], [120.58852805079606, 31.432633248000002], [120.58947570576194, 31.43245232]]], [[[120.60284817028052, 31.43290464], [120.60295346527673, 31.432633248000002], [120.60221640030326, 31.432542784], [120.60284817028052, 31.43290464]]], [[[120.58515861091736, 31.434442528], [120.58610626588325, 31.433718816], [120.58505331592116, 31.433809280000002], [120.58515861091736, 31.434442528]]], [[[120.58347389097801, 31.437246912], [120.58231564601972, 31.436613664], [120.5821050560273, 31.437518304], [120.58347389097801, 31.437246912]]], [[[120.57947268112207, 31.439056192], [120.5798938611069, 31.438422944], [120.57905150113723, 31.438513408000002], [120.57947268112207, 31.439056192]]]]}}]}