{"type": "FeatureCollection", "features": [{"type": "Feature", "properties": {"area_ha": 0.0, "mean": null}, "geometry": {"type": "Polygon", "coordinates": [[[120.52019159825626, 31.470175808], [120.52008630326004, 31.470085344], [120.52019159825626, 31.470085344], [120.52019159825626, 31.470175808]]]}}, {"type": "Feature", "properties": {"area_ha": 0.0, "mean": null}, "geometry": {"type": "Polygon", "coordinates": [[[120.52092866322972, 31.470175808], [120.52082336823351, 31.470085344], [120.52092866322972, 31.470085344], [120.52092866322972, 31.470175808]]]}}, {"type": "Feature", "properties": {"area_ha": 0.02, "mean": 0.1305}, "geometry": {"type": "Polygon", "coordinates": [[[120.52050748324488, 31.470175808], [120.52029689325246, 31.470085344], [120.52050748324488, 31.46999488], [120.52050748324488, 31.470175808]]]}}, {"type": "Feature", "properties": {"area_ha": 0.0, "mean": null}, "geometry": {"type": "Polygon", "coordinates": [[[120.52082336823351, 31.470085344], [120.5207180732373, 31.46999488], [120.52082336823351, 31.46999488], [120.52082336823351, 31.470085344]]]}}, {"type": "Feature", "properties": {"area_ha": 0.0, "mean": null}, "geometry": {"type": "Polygon", "coordinates": [[[120.5228239731615, 31.469723488], [120.52271867816528, 31.469633024], [120.5228239731615, 31.469633024], [120.5228239731615, 31.469723488]]]}}, {"type": "Feature", "properties": {"area_ha": 0.04, "mean": 0.1282}, "geometry": {"type": "Polygon", "coordinates": [[[120.52261338316907, 31.469723488], [120.52219220318423, 31.469633024], [120.52261338316907, 31.46954256], [120.52261338316907, 31.469723488]]]}}, {"type": "Feature", "properties": {"area_ha": 0.0, "mean": null}, "geometry": {"type": "Polygon", "coordinates": [[[120.51787510833965, 31.469452096], [120.51776981334345, 31.469361632000002], [120.51787510833965, 31.469361632000002], [120.51787510833965, 31.469452096]]]}}, {"type": "Feature", "properties": {"area_ha": 0.0, "mean": null}, "geometry": {"type": "Polygon", "coordinates": [[[120.51776981334345, 31.469361632000002], [120.51766451834723, 31.469271168000002], [120.51776981334345, 31.469271168000002], [120.51776981334345, 31.469361632000002]]]}}, {"type": "Feature", "properties": {"area_ha": 0.0, "mean": null}, "geometry": {"type": "Polygon", "coordinates": [[[120.52324515314633, 31.469180704], [120.52313985815012, 31.46909024], [120.52324515314633, 31.46909024], [120.52324515314633, 31.469180704]]]}}, {"type": "Feature", "properties": {"area_ha": 0.0, "mean": null}, "geometry": {"type": "Polygon", "coordinates": [[[120.52303456315391, 31.468818848], [120.5229292681577, 31.468728384000002], [120.52303456315391, 31.468728384000002], [120.52303456315391, 31.468818848]]]}}, {"type": "Feature", "properties": {"area_ha": 0.01, "mean": 0.1317}, "geometry": {"type": "Polygon", "coordinates": [[[120.59905755041699, 31.432723712], [120.59895225542078, 31.432814176], [120.59884696042457, 31.432723712], [120.59905755041699, 31.432723712]]]}}, {"type": "Feature", "properties": {"area_ha": 0.0, "mean": null}, "geometry": {"type": "Polygon", "coordinates": [[[120.59916284541319, 31.432361856], [120.59905755041699, 31.432271392], [120.59916284541319, 31.432271392], [120.59916284541319, 31.432361856]]]}}, {"type": "Feature", "properties": {"area_ha": 0.0, "mean": null}, "geometry": {"type": "Polygon", "coordinates": [[[120.59905755041699, 31.432180928], [120.59895225542078, 31.432090464], [120.59905755041699, 31.432090464], [120.59905755041699, 31.432180928]]]}}, {"type": "Feature", "properties": {"area_ha": 0.01, "mean": 0.1199}, "geometry": {"type": "Polygon", "coordinates": [[[120.59895225542078, 31.432000000000002], [120.59884696042457, 31.431728608], [120.59895225542078, 31.431728608], [120.59895225542078, 31.432000000000002]]]}}, {"type": "Feature", "properties": {"area_ha": 0.0, "mean": null}, "geometry": {"type": "Polygon", "coordinates": [[[120.59853107543594, 31.431366752], [120.59842578043973, 31.431276288], [120.59853107543594, 31.431276288], [120.59853107543594, 31.431366752]]]}}, {"type": "Feature", "properties": {"area_ha": 0.0, "mean": null}, "geometry": {"type": "Polygon", "coordinates": [[[120.59874166542836, 31.431366752], [120.59863637043215, 31.431276288], [120.59874166542836, 31.431276288], [120.59874166542836, 31.431366752]]]}}, {"type": "Feature", "properties": {"area_ha": 0.01, "mean": 0.2407}, "geometry": {"type": "Polygon", "coordinates": [[[120.59863637043215, 31.430914432], [120.59832048544352, 31.431004896], [120.59884696042457, 31.430823968000002], [120.59863637043215, 31.430914432]]]}}, {"type": "Feature", "properties": {"area_ha": 0.0, "mean": null}, "geometry": {"type": "Polygon", "coordinates": [[[120.51808569833207, 31.430552576], [120.51798040333587, 31.430462112], [120.51808569833207, 31.430462112], [120.51808569833207, 31.430552576]]]}}, {"type": "Feature", "properties": {"area_ha": 0.01, "mean": 0.1656}, "geometry": {"type": "Polygon", "coordinates": [[[120.51819099332829, 31.430371648], [120.51808569833207, 31.43019072], [120.51819099332829, 31.43019072], [120.51819099332829, 31.430371648]]]}}, {"type": "Feature", "properties": {"area_ha": 0.0, "mean": null}, "geometry": {"type": "Polygon", "coordinates": [[[120.51850687831691, 31.429647936000002], [120.5184015833207, 31.429557472], [120.51850687831691, 31.429557472], [120.51850687831691, 31.429647936000002]]]}}, {"type": "Feature", "properties": {"area_ha": 0.0, "mean": null}, "geometry": {"type": "Polygon", "coordinates": [[[120.52029689325246, 31.429376544], [120.52019159825626, 31.42928608], [120.52029689325246, 31.42928608], [120.52029689325246, 31.429376544]]]}}, {"type": "Feature", "properties": {"area_ha": 0.0, "mean": null}, "geometry": {"type": "Polygon", "coordinates": [[[120.51892805830175, 31.429195616], [120.51882276330554, 31.429105152], [120.51892805830175, 31.429105152], [120.51892805830175, 31.429195616]]]}}, {"type": "Feature", "properties": {"area_ha": 0.0, "mean": null}, "geometry": {"type": "Polygon", "coordinates": [[[120.57905150113723, 31.426029376], [120.57894620614103, 31.425938912], [120.57905150113723, 31.425938912], [120.57905150113723, 31.426029376]]]}}, {"type": "Feature", "properties": {"area_ha": 0.02, "mean": 0.1065}, "geometry": {"type": "Polygon", "coordinates": [[[120.54082941751327, 31.426029376], [120.54072412251706, 31.425577056], [120.54082941751327, 31.425577056], [120.54082941751327, 31.426029376]]]}}, {"type": "Feature", "properties": {"area_ha": 0.01, "mean": 0.125}, "geometry": {"type": "Polygon", "coordinates": [[[120.5479894772555, 31.424401024], [120.5478841822593, 31.424220096], [120.5479894772555, 31.424220096], [120.5479894772555, 31.424401024]]]}}, {"type": "Feature", "properties": {"area_ha": 0.01, "mean": 0.1178}, "geometry": {"type": "Polygon", "coordinates": [[[120.5478841822593, 31.424220096], [120.54767359226688, 31.424129632], [120.5478841822593, 31.424129632], [120.5478841822593, 31.424220096]]]}}, {"type": "Feature", "properties": {"area_ha": 0.01, "mean": 0.2212}, "geometry": {"type": "Polygon", "coordinates": [[[120.54820006724792, 31.424039168], [120.54809477225172, 31.42385824], [120.54820006724792, 31.42385824], [120.54820006724792, 31.424039168]]]}}, {"type": "Feature", "properties": {"area_ha": 0.02, "mean": 0.1581}, "geometry": {"type": "Polygon", "coordinates": [[[120.54883183722518, 31.423496384], [120.54872654222896, 31.423315456], [120.54893713222138, 31.423315456], [120.54883183722518, 31.423496384]]]}}, {"type": "Feature", "properties": {"area_ha": 0.02, "mean": 0.1159}, "geometry": {"type": "Polygon", "coordinates": [[[120.54556769234269, 31.4229536], [120.54525180735406, 31.422772672], [120.54556769234269, 31.422863136], [120.54556769234269, 31.4229536]]]}}, {"type": "Feature", "properties": {"area_ha": 0.0, "mean": null}, "geometry": {"type": "Polygon", "coordinates": [[[120.54556769234269, 31.422772672], [120.54546239734648, 31.422682208], [120.54556769234269, 31.422682208], [120.54556769234269, 31.422772672]]]}}, {"type": "Feature", "properties": {"area_ha": 0.0, "mean": null}, "geometry": {"type": "Polygon", "coordinates": [[[120.5457782823351, 31.422772672], [120.5456729873389, 31.422682208], [120.5457782823351, 31.422682208], [120.5457782823351, 31.422772672]]]}}, {"type": "Feature", "properties": {"area_ha": 0.01, "mean": 0.1693}, "geometry": {"type": "Polygon", "coordinates": [[[120.5490424272176, 31.422682208], [120.54883183722518, 31.422591744], [120.5490424272176, 31.422591744], [120.5490424272176, 31.422682208]]]}}, {"type": "Feature", "properties": {"area_ha": 0.01, "mean": 0.1042}, "geometry": {"type": "Polygon", "coordinates": [[[120.5491477222138, 31.422591744], [120.5490424272176, 31.422410816], [120.5491477222138, 31.422410816], [120.5491477222138, 31.422591744]]]}}, {"type": "Feature", "properties": {"area_ha": 0.0, "mean": null}, "geometry": {"type": "Polygon", "coordinates": [[[120.54672593730099, 31.421958496000002], [120.54651534730857, 31.421777568], [120.54662064230477, 31.421777568], [120.54672593730099, 31.421958496000002]]]}}, {"type": "Feature", "properties": {"area_ha": 0.01, "mean": 0.1165}, "geometry": {"type": "Polygon", "coordinates": [[[120.54956890219864, 31.421958496000002], [120.54946360720243, 31.421777568], [120.54956890219864, 31.421777568], [120.54956890219864, 31.421958496000002]]]}}, {"type": "Feature", "properties": {"area_ha": 0.01, "mean": 0.1262}, "geometry": {"type": "Polygon", "coordinates": [[[120.54956890219864, 31.42159664], [120.54946360720243, 31.421415712], [120.54956890219864, 31.421415712], [120.54956890219864, 31.42159664]]]}}, {"type": "Feature", "properties": {"area_ha": 0.01, "mean": 0.1891}, "geometry": {"type": "Polygon", "coordinates": [[[120.54093471250948, 31.418068544], [120.54061882752086, 31.41797808], [120.54093471250948, 31.41797808], [120.54093471250948, 31.418068544]]]}}, {"type": "Feature", "properties": {"area_ha": 0.02, "mean": 0.1614}, "geometry": {"type": "Polygon", "coordinates": [[[120.5412505974981, 31.41797808], [120.54093471250948, 31.417887616], [120.5412505974981, 31.417797152], [120.5412505974981, 31.41797808]]]}}, {"type": "Feature", "properties": {"area_ha": 0.0, "mean": null}, "geometry": {"type": "Polygon", "coordinates": [[[120.54156648248674, 31.417887616], [120.54146118749053, 31.417797152], [120.54156648248674, 31.417797152], [120.54156648248674, 31.417887616]]]}}, {"type": "Feature", "properties": {"area_ha": 0.01, "mean": 0.1157}, "geometry": {"type": "Polygon", "coordinates": [[[120.54167177748295, 31.417706688], [120.54156648248674, 31.41752576], [120.54167177748295, 31.41752576], [120.54167177748295, 31.417706688]]]}}, {"type": "Feature", "properties": {"area_ha": 0.0, "mean": null}, "geometry": {"type": "Polygon", "coordinates": [[[120.54146118749053, 31.417616224], [120.54135589249432, 31.41752576], [120.54146118749053, 31.41752576], [120.54146118749053, 31.417616224]]]}}, {"type": "Feature", "properties": {"area_ha": 0.04, "mean": 0.1125}, "geometry": {"type": "Polygon", "coordinates": [[[120.55009537717969, 31.417435296], [120.54967419719485, 31.417344832], [120.55009537717969, 31.417254368000002], [120.55009537717969, 31.417435296]]]}}, {"type": "Feature", "properties": {"area_ha": 0.0, "mean": null}, "geometry": {"type": "Polygon", "coordinates": [[[120.55030596717211, 31.417254368000002], [120.55020067217589, 31.417163904], [120.55030596717211, 31.417163904], [120.55030596717211, 31.417254368000002]]]}}, {"type": "Feature", "properties": {"area_ha": 0.0, "mean": null}, "geometry": {"type": "Polygon", "coordinates": [[[120.55030596717211, 31.41707344], [120.55020067217589, 31.416982976], [120.55030596717211, 31.416982976], [120.55030596717211, 31.41707344]]]}}, {"type": "Feature", "properties": {"area_ha": 0.0, "mean": null}, "geometry": {"type": "Polygon", "coordinates": [[[120.55030596717211, 31.416892512], [120.55020067217589, 31.416802048], [120.55030596717211, 31.416802048], [120.55030596717211, 31.416892512]]]}}, {"type": "Feature", "properties": {"area_ha": 0.0, "mean": null}, "geometry": {"type": "Polygon", "coordinates": [[[120.55093773714935, 31.41662112], [120.55072714715695, 31.416440192], [120.55093773714935, 31.416530656], [120.55093773714935, 31.41662112]]]}}]}