{"type": "FeatureCollection", "features": [{"type": "Feature", "properties": {"area_ha": 0.0, "mean": null}, "geometry": {"type": "Polygon", "coordinates": [[[120.52050748324488, 31.470266272], [120.52040218824868, 31.470175808], [120.52050748324488, 31.470175808], [120.52050748324488, 31.470266272]]]}}, {"type": "Feature", "properties": {"area_ha": 0.0, "mean": null}, "geometry": {"type": "Polygon", "coordinates": [[[120.53788115761941, 31.447559808], [120.53767056762699, 31.447378880000002], [120.5377758626232, 31.447378880000002], [120.53788115761941, 31.447559808]]]}}, {"type": "Feature", "properties": {"area_ha": 0.01, "mean": 0.1317}, "geometry": {"type": "Polygon", "coordinates": [[[120.59905755041699, 31.432723712], [120.59895225542078, 31.432814176], [120.59884696042457, 31.432723712], [120.59905755041699, 31.432723712]]]}}, {"type": "Feature", "properties": {"area_ha": 0.0, "mean": null}, "geometry": {"type": "Polygon", "coordinates": [[[120.59895225542078, 31.432090464], [120.59884696042457, 31.432000000000002], [120.59895225542078, 31.432000000000002], [120.59895225542078, 31.432090464]]]}}, {"type": "Feature", "properties": {"area_ha": 0.0, "mean": null}, "geometry": {"type": "Polygon", "coordinates": [[[120.59874166542836, 31.431909536], [120.59863637043215, 31.431819072], [120.59874166542836, 31.431819072], [120.59874166542836, 31.431909536]]]}}, {"type": "Feature", "properties": {"area_ha": 0.05, "mean": 0.1472}, "geometry": {"type": "Polygon", "coordinates": [[[120.59853107543594, 31.431366752], [120.59832048544352, 31.431004896], [120.59853107543594, 31.430914432], [120.59853107543594, 31.431366752]]]}}, {"type": "Feature", "properties": {"area_ha": 0.0, "mean": null}, "geometry": {"type": "Polygon", "coordinates": [[[120.59863637043215, 31.430914432], [120.59853107543594, 31.430823968000002], [120.59863637043215, 31.430823968000002], [120.59863637043215, 31.430914432]]]}}, {"type": "Feature", "properties": {"area_ha": 0.01, "mean": 0.1406}, "geometry": {"type": "Polygon", "coordinates": [[[120.54662064230477, 31.422139424], [120.54651534730857, 31.421958496000002], [120.54662064230477, 31.421958496000002], [120.54662064230477, 31.422139424]]]}}, {"type": "Feature", "properties": {"area_ha": 0.0, "mean": null}, "geometry": {"type": "Polygon", "coordinates": [[[120.54651534730857, 31.421958496000002], [120.54641005231237, 31.421868032], [120.54651534730857, 31.421868032], [120.54651534730857, 31.421958496000002]]]}}, {"type": "Feature", "properties": {"area_ha": 0.02, "mean": 0.0943}, "geometry": {"type": "Polygon", "coordinates": [[[120.54999008218347, 31.421777568], [120.54977949219106, 31.421687104], [120.54999008218347, 31.42159664], [120.54999008218347, 31.421777568]]]}}, {"type": "Feature", "properties": {"area_ha": 0.0, "mean": null}, "geometry": {"type": "Polygon", "coordinates": [[[120.5411453025019, 31.418068544], [120.54104000750569, 31.41797808], [120.5411453025019, 31.41797808], [120.5411453025019, 31.418068544]]]}}, {"type": "Feature", "properties": {"area_ha": 0.0, "mean": null}, "geometry": {"type": "Polygon", "coordinates": [[[120.5412505974981, 31.41797808], [120.5411453025019, 31.417887616], [120.5412505974981, 31.417887616], [120.5412505974981, 31.41797808]]]}}, {"type": "Feature", "properties": {"area_ha": 0.0, "mean": null}, "geometry": {"type": "Polygon", "coordinates": [[[120.54135589249432, 31.417887616], [120.5412505974981, 31.417797152], [120.54135589249432, 31.417797152], [120.54135589249432, 31.417887616]]]}}, {"type": "Feature", "properties": {"area_ha": 0.01, "mean": 0.0907}, "geometry": {"type": "Polygon", "coordinates": [[[120.54156648248674, 31.417797152], [120.54135589249432, 31.417706688], [120.54156648248674, 31.417706688], [120.54156648248674, 31.417797152]]]}}, {"type": "Feature", "properties": {"area_ha": 0.0, "mean": null}, "geometry": {"type": "Polygon", "coordinates": [[[120.55020067217589, 31.417254368000002], [120.55009537717969, 31.417163904], [120.55020067217589, 31.417163904], [120.55020067217589, 31.417254368000002]]]}}, {"type": "Feature", "properties": {"area_ha": 0.0, "mean": null}, "geometry": {"type": "Polygon", "coordinates": [[[120.55051655716453, 31.416892512], [120.55041126216831, 31.416802048], [120.55051655716453, 31.416802048], [120.55051655716453, 31.416892512]]]}}]}