{"type": "FeatureCollection", "features": [{"type": "Feature", "properties": {"name": "黄埭镇水体边界 (JRC参考+S2 10m细化)"}, "geometry": {"type": "MultiPolygon", "coordinates": [[[[120.52208690818803, 31.410017248], [120.5228239731615, 31.410017248], [120.52219220318423, 31.409655392], [120.52208690818803, 31.410017248]]], [[[120.52303456315391, 31.41028864], [120.52324515314633, 31.410560032], [120.52335044814254, 31.410379104], [120.52303456315391, 31.41028864]]], [[[120.52366633313116, 31.410379104], [120.52387692312358, 31.410740960000002], [120.5239822181198, 31.410560032], [120.52366633313116, 31.410379104]]], [[[120.51461096345717, 31.413635808], [120.5149268484458, 31.413726272], [120.5148215534496, 31.413545344], [120.51461096345717, 31.413635808]]], [[[120.51798040333587, 31.430462112], [120.52008630326004, 31.431819072], [120.52103395822593, 31.42702448], [120.51798040333587, 31.430462112]]], [[[120.53756527263079, 31.447469344], [120.53788115761941, 31.447559808], [120.5377758626232, 31.447378880000002], [120.53756527263079, 31.447469344]]], [[[120.4944996191812, 31.455701568000002], [120.49176194927976, 31.45325904], [120.4944996191812, 31.456696672], [120.49492079916604, 31.456515744], [120.4944996191812, 31.455701568000002]]], [[[120.49671081410159, 31.459410592], [120.49881671402578, 31.459772448], [120.49492079916604, 31.457239456], [120.49671081410159, 31.459410592]]], [[[120.52545634806673, 31.46728096], [120.52619341304019, 31.46909024], [120.52661459302503, 31.468456992], [120.52545634806673, 31.46728096]]], [[[120.51755922335103, 31.469271168000002], [120.51776981334345, 31.469361632000002], [120.51776981334345, 31.469271168000002], [120.51755922335103, 31.469271168000002]]], [[[120.51776981334345, 31.469361632000002], [120.51787510833965, 31.469452096], [120.51787510833965, 31.469361632000002], [120.51776981334345, 31.469361632000002]]], [[[120.51808569833207, 31.469452096], [120.51819099332829, 31.46954256], [120.51819099332829, 31.469452096], [120.51808569833207, 31.469452096]]], [[[120.51861217331312, 31.469361632000002], [120.51819099332829, 31.46954256], [120.51861217331312, 31.469723488], [120.51882276330554, 31.469813952], [120.51861217331312, 31.469361632000002]]], [[[120.51892805830175, 31.469813952], [120.51882276330554, 31.469813952], [120.51892805830175, 31.469904416000002], [120.51892805830175, 31.469813952]]], [[[120.53124757285823, 31.469904416000002], [120.53145816285065, 31.46999488], [120.53145816285065, 31.469904416000002], [120.53124757285823, 31.469904416000002]]], [[[120.5207180732373, 31.469723488], [120.52008630326004, 31.470085344], [120.52008630326004, 31.470266272], [120.5207180732373, 31.469723488]]], [[[120.52219220318423, 31.470266272], [120.52219220318423, 31.470175808], [120.52208690818803, 31.470175808], [120.52219220318423, 31.470266272]]], [[[120.54999008218347, 31.41662112], [120.55009537717969, 31.417435296], [120.55093773714935, 31.416530656], [120.54999008218347, 31.41662112]]], [[[120.54061882752086, 31.417797152], [120.54146118749053, 31.41797808], [120.54167177748295, 31.417435296], [120.54061882752086, 31.417797152]]], [[[120.5411453025019, 31.420692], [120.54146118749053, 31.42114432], [120.54135589249432, 31.420601536], [120.5411453025019, 31.420692]]], [[[120.58252623601213, 31.42204896], [120.58484272592874, 31.421506176], [120.58494802092494, 31.420963392], [120.58252623601213, 31.42204896]]], [[[120.54619946231995, 31.421868032], [120.54672593730099, 31.42204896], [120.54651534730857, 31.421687104], [120.54619946231995, 31.421868032]]], [[[120.58115740106142, 31.423315456], [120.58252623601213, 31.423134528000002], [120.5821050560273, 31.422591744], [120.58115740106142, 31.423315456]]], [[[120.54493592236544, 31.422863136], [120.54841065724034, 31.426391232], [120.54967419719485, 31.421325248], [120.54493592236544, 31.422863136]]], [[[120.54072412251706, 31.4252152], [120.5411453025019, 31.426300768], [120.54104000750569, 31.425034272], [120.54072412251706, 31.4252152]]], [[[120.57810384617135, 31.426029376], [120.57905150113723, 31.42566752], [120.57799855117514, 31.425577056], [120.57810384617135, 31.426029376]]], [[[120.54767359226688, 31.427114944], [120.5479894772555, 31.427205408], [120.5478841822593, 31.42702448], [120.54767359226688, 31.427114944]]], [[[120.54809477225172, 31.427114944], [120.54830536224412, 31.427386336], [120.54841065724034, 31.427205408], [120.54809477225172, 31.427114944]]], [[[120.56873259150872, 31.4297384], [120.57010142645944, 31.429557472], [120.57052260644429, 31.42883376], [120.56873259150872, 31.4297384]]], [[[120.56715316656559, 31.430823968000002], [120.56725846156179, 31.431185824], [120.56746905155421, 31.430914432], [120.56715316656559, 31.430823968000002]]], [[[120.59832048544352, 31.431276288], [120.59958402539803, 31.431185824], [120.59853107543594, 31.430823968000002], [120.59832048544352, 31.431276288]]], [[[120.56588962661107, 31.43154768], [120.5662055115997, 31.431638144], [120.56610021660349, 31.431457216000002], [120.56588962661107, 31.43154768]]], [[[120.56262548172859, 31.439598976], [120.56252018673237, 31.439418048], [120.56230959673996, 31.439508512], [120.56262548172859, 31.439598976]]], [[[120.56409961167552, 31.440775008], [120.56399431667931, 31.44059408], [120.56378372668689, 31.440684544], [120.56409961167552, 31.440775008]]]]}}]}