{"type": "FeatureCollection", "features": [{"type": "Feature", "properties": {"area_ha": 0.01, "mean": 0.1028}, "geometry": {"type": "Polygon", "coordinates": [[[120.52313985815012, 31.469813952], [120.52303456315391, 31.469633024], [120.52313985815012, 31.469633024], [120.52313985815012, 31.469813952]]]}}, {"type": "Feature", "properties": {"area_ha": 0.0, "mean": null}, "geometry": {"type": "Polygon", "coordinates": [[[120.53145816285065, 31.468909312], [120.53135286785444, 31.468818848], [120.53145816285065, 31.468818848], [120.53145816285065, 31.468909312]]]}}, {"type": "Feature", "properties": {"area_ha": 0.0, "mean": null}, "geometry": {"type": "Polygon", "coordinates": [[[120.52261338316907, 31.468818848], [120.52250808817286, 31.468728384000002], [120.52261338316907, 31.468728384000002], [120.52261338316907, 31.468818848]]]}}, {"type": "Feature", "properties": {"area_ha": 0.0, "mean": null}, "geometry": {"type": "Polygon", "coordinates": [[[120.52271867816528, 31.468456992], [120.52261338316907, 31.468366528], [120.52271867816528, 31.468366528], [120.52271867816528, 31.468456992]]]}}, {"type": "Feature", "properties": {"area_ha": 0.0, "mean": null}, "geometry": {"type": "Polygon", "coordinates": [[[120.52850990295678, 31.468366528], [120.52840460796058, 31.468276064], [120.52850990295678, 31.468276064], [120.52850990295678, 31.468366528]]]}}, {"type": "Feature", "properties": {"area_ha": 0.0, "mean": null}, "geometry": {"type": "Polygon", "coordinates": [[[120.52924696793025, 31.4681856], [120.52914167293405, 31.468095136000002], [120.52924696793025, 31.468095136000002], [120.52924696793025, 31.4681856]]]}}, {"type": "Feature", "properties": {"area_ha": 0.0, "mean": null}, "geometry": {"type": "Polygon", "coordinates": [[[120.5228239731615, 31.468095136000002], [120.52271867816528, 31.468004672], [120.5228239731615, 31.468004672], [120.5228239731615, 31.468095136000002]]]}}, {"type": "Feature", "properties": {"area_ha": 0.0, "mean": null}, "geometry": {"type": "Polygon", "coordinates": [[[120.52914167293405, 31.468095136000002], [120.52903637793784, 31.468004672], [120.52914167293405, 31.468004672], [120.52914167293405, 31.468095136000002]]]}}, {"type": "Feature", "properties": {"area_ha": 0.0, "mean": null}, "geometry": {"type": "Polygon", "coordinates": [[[120.52966814791509, 31.468095136000002], [120.52956285291889, 31.468004672], [120.52966814791509, 31.468004672], [120.52966814791509, 31.468095136000002]]]}}, {"type": "Feature", "properties": {"area_ha": 0.0, "mean": null}, "geometry": {"type": "Polygon", "coordinates": [[[120.52987873790751, 31.468004672], [120.5297734429113, 31.467914208], [120.52987873790751, 31.467914208], [120.52987873790751, 31.468004672]]]}}, {"type": "Feature", "properties": {"area_ha": 0.0, "mean": null}, "geometry": {"type": "Polygon", "coordinates": [[[120.52998403290371, 31.467914208], [120.52987873790751, 31.467823744], [120.52998403290371, 31.467823744], [120.52998403290371, 31.467914208]]]}}, {"type": "Feature", "properties": {"area_ha": 0.01, "mean": 0.1108}, "geometry": {"type": "Polygon", "coordinates": [[[120.5309316878696, 31.467914208], [120.53072109787719, 31.467823744], [120.5309316878696, 31.467823744], [120.5309316878696, 31.467914208]]]}}, {"type": "Feature", "properties": {"area_ha": 0.01, "mean": 0.128}, "geometry": {"type": "Polygon", "coordinates": [[[120.5229292681577, 31.467914208], [120.5228239731615, 31.46773328], [120.5229292681577, 31.46773328], [120.5229292681577, 31.467914208]]]}}, {"type": "Feature", "properties": {"area_ha": 0.0, "mean": null}, "geometry": {"type": "Polygon", "coordinates": [[[120.52777283798332, 31.46773328], [120.52766754298712, 31.467642816], [120.52777283798332, 31.467642816], [120.52777283798332, 31.46773328]]]}}, {"type": "Feature", "properties": {"area_ha": 0.0, "mean": null}, "geometry": {"type": "Polygon", "coordinates": [[[120.52903637793784, 31.467642816], [120.52893108294163, 31.467552352000002], [120.52903637793784, 31.467552352000002], [120.52903637793784, 31.467642816]]]}}, {"type": "Feature", "properties": {"area_ha": 0.0, "mean": null}, "geometry": {"type": "Polygon", "coordinates": [[[120.53145816285065, 31.467552352000002], [120.53135286785444, 31.467461888], [120.53145816285065, 31.467461888], [120.53145816285065, 31.467552352000002]]]}}, {"type": "Feature", "properties": {"area_ha": 0.0, "mean": null}, "geometry": {"type": "Polygon", "coordinates": [[[120.53019462289613, 31.467461888], [120.53008932789993, 31.467371424], [120.53019462289613, 31.467371424], [120.53019462289613, 31.467461888]]]}}, {"type": "Feature", "properties": {"area_ha": 0.0, "mean": null}, "geometry": {"type": "Polygon", "coordinates": [[[120.53251111281274, 31.467461888], [120.53240581781654, 31.467371424], [120.53251111281274, 31.467371424], [120.53251111281274, 31.467461888]]]}}, {"type": "Feature", "properties": {"area_ha": 0.01, "mean": 0.1394}, "geometry": {"type": "Polygon", "coordinates": [[[120.52303456315391, 31.467552352000002], [120.5229292681577, 31.46728096], [120.52303456315391, 31.46728096], [120.52303456315391, 31.467552352000002]]]}}, {"type": "Feature", "properties": {"area_ha": 0.0, "mean": null}, "geometry": {"type": "Polygon", "coordinates": [[[120.52893108294163, 31.467371424], [120.52882578794542, 31.46728096], [120.52893108294163, 31.46728096], [120.52893108294163, 31.467371424]]]}}, {"type": "Feature", "properties": {"area_ha": 0.01, "mean": 0.1314}, "geometry": {"type": "Polygon", "coordinates": [[[120.52313985815012, 31.46728096], [120.52303456315391, 31.467100032], [120.52313985815012, 31.467100032], [120.52313985815012, 31.46728096]]]}}, {"type": "Feature", "properties": {"area_ha": 0.0, "mean": null}, "geometry": {"type": "Polygon", "coordinates": [[[120.52324515314633, 31.467100032], [120.52313985815012, 31.467009568], [120.52324515314633, 31.467009568], [120.52324515314633, 31.467100032]]]}}, {"type": "Feature", "properties": {"area_ha": 0.0, "mean": null}, "geometry": {"type": "Polygon", "coordinates": [[[120.52987873790751, 31.467100032], [120.5297734429113, 31.467009568], [120.52987873790751, 31.467009568], [120.52987873790751, 31.467100032]]]}}, {"type": "Feature", "properties": {"area_ha": 0.0, "mean": null}, "geometry": {"type": "Polygon", "coordinates": [[[120.53008932789993, 31.467100032], [120.52998403290371, 31.467009568], [120.53008932789993, 31.467009568], [120.53008932789993, 31.467100032]]]}}, {"type": "Feature", "properties": {"area_ha": 0.0, "mean": null}, "geometry": {"type": "Polygon", "coordinates": [[[120.524087513116, 31.466738176], [120.5239822181198, 31.466647712], [120.524087513116, 31.466647712], [120.524087513116, 31.466738176]]]}}, {"type": "Feature", "properties": {"area_ha": 0.01, "mean": 0.1203}, "geometry": {"type": "Polygon", "coordinates": [[[120.51587450341168, 31.466557248], [120.51566391341926, 31.466466784], [120.51587450341168, 31.466466784], [120.51587450341168, 31.466557248]]]}}, {"type": "Feature", "properties": {"area_ha": 0.0, "mean": null}, "geometry": {"type": "Polygon", "coordinates": [[[120.51597979840788, 31.466466784], [120.51587450341168, 31.466376320000002], [120.51597979840788, 31.466376320000002], [120.51597979840788, 31.466466784]]]}}, {"type": "Feature", "properties": {"area_ha": 0.0, "mean": null}, "geometry": {"type": "Polygon", "coordinates": [[[120.515032143442, 31.466195392], [120.5149268484458, 31.466104928], [120.515032143442, 31.466104928], [120.515032143442, 31.466195392]]]}}, {"type": "Feature", "properties": {"area_ha": 0.0, "mean": null}, "geometry": {"type": "Polygon", "coordinates": [[[120.53335347278241, 31.465652608], [120.5332481777862, 31.465562144], [120.53335347278241, 31.465562144], [120.53335347278241, 31.465652608]]]}}, {"type": "Feature", "properties": {"area_ha": 0.0, "mean": null}, "geometry": {"type": "Polygon", "coordinates": [[[120.53356406277483, 31.465290752], [120.53345876777863, 31.465200288000002], [120.53356406277483, 31.465200288000002], [120.53356406277483, 31.465290752]]]}}, {"type": "Feature", "properties": {"area_ha": 0.0, "mean": null}, "geometry": {"type": "Polygon", "coordinates": [[[120.52608811804397, 31.464205184], [120.52598282304777, 31.46411472], [120.52608811804397, 31.46411472], [120.52608811804397, 31.464205184]]]}}, {"type": "Feature", "properties": {"area_ha": 0.0, "mean": null}, "geometry": {"type": "Polygon", "coordinates": [[[120.52619341304019, 31.46411472], [120.52608811804397, 31.464024256000002], [120.52619341304019, 31.464024256000002], [120.52619341304019, 31.46411472]]]}}, {"type": "Feature", "properties": {"area_ha": 0.01, "mean": 0.1035}, "geometry": {"type": "Polygon", "coordinates": [[[120.51197858855194, 31.464024256000002], [120.51176799855952, 31.463933792000002], [120.51197858855194, 31.463933792000002], [120.51197858855194, 31.464024256000002]]]}}, {"type": "Feature", "properties": {"area_ha": 0.0, "mean": null}, "geometry": {"type": "Polygon", "coordinates": [[[120.53461701273693, 31.460315232], [120.53451171774071, 31.460224768], [120.53461701273693, 31.460224768], [120.53461701273693, 31.460315232]]]}}, {"type": "Feature", "properties": {"area_ha": 0.01, "mean": 0.1505}, "geometry": {"type": "Polygon", "coordinates": [[[120.53472230773313, 31.459862912000002], [120.53461701273693, 31.459681984], [120.53472230773313, 31.459681984], [120.53472230773313, 31.459862912000002]]]}}, {"type": "Feature", "properties": {"area_ha": 0.01, "mean": 0.1011}, "geometry": {"type": "Polygon", "coordinates": [[[120.50734560871874, 31.459681984], [120.50713501872632, 31.45959152], [120.50734560871874, 31.45959152], [120.50734560871874, 31.459681984]]]}}, {"type": "Feature", "properties": {"area_ha": 0.06, "mean": 0.1132}, "geometry": {"type": "Polygon", "coordinates": [[[120.50745090371494, 31.45959152], [120.5069244287339, 31.459410592], [120.50755619871114, 31.459410592], [120.50745090371494, 31.45959152]]]}}, {"type": "Feature", "properties": {"area_ha": 0.01, "mean": 0.1251}, "geometry": {"type": "Polygon", "coordinates": [[[120.53482760272935, 31.459410592], [120.53472230773313, 31.459229664000002], [120.53482760272935, 31.459229664000002], [120.53482760272935, 31.459410592]]]}}, {"type": "Feature", "properties": {"area_ha": 0.01, "mean": 0.1272}, "geometry": {"type": "Polygon", "coordinates": [[[120.53503819272176, 31.45823456], [120.53493289772555, 31.458053632000002], [120.53503819272176, 31.458053632000002], [120.53503819272176, 31.45823456]]]}}, {"type": "Feature", "properties": {"area_ha": 0.0, "mean": null}, "geometry": {"type": "Polygon", "coordinates": [[[120.53514348771797, 31.457872704], [120.53503819272176, 31.45778224], [120.53514348771797, 31.45778224], [120.53514348771797, 31.457872704]]]}}, {"type": "Feature", "properties": {"area_ha": 0.01, "mean": 0.1205}, "geometry": {"type": "Polygon", "coordinates": [[[120.5353540777104, 31.456696672], [120.53524878271418, 31.456515744], [120.5353540777104, 31.456515744], [120.5353540777104, 31.456696672]]]}}, {"type": "Feature", "properties": {"area_ha": 0.0, "mean": null}, "geometry": {"type": "Polygon", "coordinates": [[[120.49502609416226, 31.456334816000002], [120.49492079916604, 31.456244352000002], [120.49502609416226, 31.456244352000002], [120.49502609416226, 31.456334816000002]]]}}, {"type": "Feature", "properties": {"area_ha": 0.01, "mean": 0.1141}, "geometry": {"type": "Polygon", "coordinates": [[[120.5354593727066, 31.456244352000002], [120.5353540777104, 31.45597296], [120.5354593727066, 31.45597296], [120.5354593727066, 31.456244352000002]]]}}, {"type": "Feature", "properties": {"area_ha": 0.0, "mean": null}, "geometry": {"type": "Polygon", "coordinates": [[[120.49460491417742, 31.455792032], [120.4944996191812, 31.455701568000002], [120.49460491417742, 31.455701568000002], [120.49460491417742, 31.455792032]]]}}, {"type": "Feature", "properties": {"area_ha": 0.0, "mean": null}, "geometry": {"type": "Polygon", "coordinates": [[[120.49597374912813, 31.455611104], [120.49586845413192, 31.45552064], [120.49597374912813, 31.45552064], [120.49597374912813, 31.455611104]]]}}, {"type": "Feature", "properties": {"area_ha": 0.01, "mean": 0.1098}, "geometry": {"type": "Polygon", "coordinates": [[[120.53556466770281, 31.455701568000002], [120.5354593727066, 31.455430176], [120.53556466770281, 31.455430176], [120.53556466770281, 31.455701568000002]]]}}, {"type": "Feature", "properties": {"area_ha": 0.01, "mean": 0.1283}, "geometry": {"type": "Polygon", "coordinates": [[[120.53598584768764, 31.453530432], [120.53588055269144, 31.45325904], [120.53598584768764, 31.45325904], [120.53598584768764, 31.453530432]]]}}, {"type": "Feature", "properties": {"area_ha": 0.02, "mean": 0.1181}, "geometry": {"type": "Polygon", "coordinates": [[[120.53609114268386, 31.453168576], [120.53598584768764, 31.45280672], [120.53609114268386, 31.45280672], [120.53609114268386, 31.453168576]]]}}, {"type": "Feature", "properties": {"area_ha": 0.0, "mean": null}, "geometry": {"type": "Polygon", "coordinates": [[[120.53619643768006, 31.4523544], [120.53609114268386, 31.452263936], [120.53619643768006, 31.452263936], [120.53619643768006, 31.4523544]]]}}, {"type": "Feature", "properties": {"area_ha": 0.02, "mean": 0.1357}, "geometry": {"type": "Polygon", "coordinates": [[[120.53630173267628, 31.452083008], [120.53619643768006, 31.451721152], [120.53630173267628, 31.451721152], [120.53630173267628, 31.452083008]]]}}, {"type": "Feature", "properties": {"area_ha": 0.01, "mean": 0.1091}, "geometry": {"type": "Polygon", "coordinates": [[[120.5366176176649, 31.450364192000002], [120.5365123226687, 31.450183264], [120.5366176176649, 31.450183264], [120.5366176176649, 31.450364192000002]]]}}, {"type": "Feature", "properties": {"area_ha": 0.0, "mean": null}, "geometry": {"type": "Polygon", "coordinates": [[[120.53714409264595, 31.448102592], [120.53703879764974, 31.448012128000002], [120.53714409264595, 31.448012128000002], [120.53714409264595, 31.448102592]]]}}, {"type": "Feature", "properties": {"area_ha": 0.0, "mean": null}, "geometry": {"type": "Polygon", "coordinates": [[[120.53714409264595, 31.447378880000002], [120.53703879764974, 31.447288416], [120.53714409264595, 31.447288416], [120.53714409264595, 31.447378880000002]]]}}, {"type": "Feature", "properties": {"area_ha": 0.0, "mean": null}, "geometry": {"type": "Polygon", "coordinates": [[[120.5377758626232, 31.447107488], [120.53767056762699, 31.447017024], [120.5377758626232, 31.447017024], [120.5377758626232, 31.447107488]]]}}, {"type": "Feature", "properties": {"area_ha": 0.01, "mean": 0.1128}, "geometry": {"type": "Polygon", "coordinates": [[[120.53724938764216, 31.447107488], [120.53714409264595, 31.446836096000002], [120.53724938764216, 31.446836096000002], [120.53724938764216, 31.447107488]]]}}, {"type": "Feature", "properties": {"area_ha": 0.0, "mean": null}, "geometry": {"type": "Polygon", "coordinates": [[[120.5377758626232, 31.446655168], [120.53767056762699, 31.446564704], [120.5377758626232, 31.446564704], [120.5377758626232, 31.446655168]]]}}, {"type": "Feature", "properties": {"area_ha": 0.02, "mean": 0.1129}, "geometry": {"type": "Polygon", "coordinates": [[[120.5377758626232, 31.444393568], [120.53767056762699, 31.443941248], [120.5377758626232, 31.443941248], [120.5377758626232, 31.444393568]]]}}, {"type": "Feature", "properties": {"area_ha": 0.01, "mean": 0.1191}, "geometry": {"type": "Polygon", "coordinates": [[[120.53788115761941, 31.443669856], [120.5377758626232, 31.443488928], [120.53788115761941, 31.443488928], [120.53788115761941, 31.443669856]]]}}, {"type": "Feature", "properties": {"area_ha": 0.02, "mean": 0.1189}, "geometry": {"type": "Polygon", "coordinates": [[[120.53798645261563, 31.443308000000002], [120.53788115761941, 31.442946144], [120.53798645261563, 31.442946144], [120.53798645261563, 31.443308000000002]]]}}, {"type": "Feature", "properties": {"area_ha": 0.0, "mean": null}, "geometry": {"type": "Polygon", "coordinates": [[[120.56473138165278, 31.442041504], [120.56462608665656, 31.44195104], [120.56473138165278, 31.44195104], [120.56473138165278, 31.442041504]]]}}, {"type": "Feature", "properties": {"area_ha": 0.02, "mean": 0.1117}, "geometry": {"type": "Polygon", "coordinates": [[[120.56420490667172, 31.441317792], [120.56399431667931, 31.441408256], [120.56399431667931, 31.441227328], [120.56420490667172, 31.441317792]]]}}, {"type": "Feature", "properties": {"area_ha": 0.01, "mean": 0.1513}, "geometry": {"type": "Polygon", "coordinates": [[[120.54956890219864, 31.440684544], [120.54935831220622, 31.44059408], [120.54956890219864, 31.44059408], [120.54956890219864, 31.440684544]]]}}, {"type": "Feature", "properties": {"area_ha": 0.0, "mean": null}, "geometry": {"type": "Polygon", "coordinates": [[[120.56346784169826, 31.440684544], [120.56336254670205, 31.44059408], [120.56346784169826, 31.44059408], [120.56346784169826, 31.440684544]]]}}, {"type": "Feature", "properties": {"area_ha": 0.01, "mean": 0.1129}, "geometry": {"type": "Polygon", "coordinates": [[[120.54988478718727, 31.44059408], [120.54977949219106, 31.440413152], [120.54988478718727, 31.440413152], [120.54988478718727, 31.44059408]]]}}, {"type": "Feature", "properties": {"area_ha": 0.01, "mean": 0.1181}, "geometry": {"type": "Polygon", "coordinates": [[[120.53851292759667, 31.440232224], [120.53840763260045, 31.440051296], [120.53851292759667, 31.440051296], [120.53851292759667, 31.440232224]]]}}, {"type": "Feature", "properties": {"area_ha": 0.0, "mean": null}, "geometry": {"type": "Polygon", "coordinates": [[[120.50492382380592, 31.439870368], [120.50481852880971, 31.439779904], [120.50492382380592, 31.439779904], [120.50492382380592, 31.439870368]]]}}, {"type": "Feature", "properties": {"area_ha": 0.0, "mean": null}, "geometry": {"type": "Polygon", "coordinates": [[[120.50534500379075, 31.439508512], [120.50523970879455, 31.439418048], [120.50534500379075, 31.439418048], [120.50534500379075, 31.439508512]]]}}, {"type": "Feature", "properties": {"area_ha": 0.0, "mean": null}, "geometry": {"type": "Polygon", "coordinates": [[[120.60326935026535, 31.437608768], [120.60316405526915, 31.437518304], [120.60326935026535, 31.437518304], [120.60326935026535, 31.437608768]]]}}, {"type": "Feature", "properties": {"area_ha": 0.0, "mean": null}, "geometry": {"type": "Polygon", "coordinates": [[[120.51661156838514, 31.435980416], [120.51650627338894, 31.435889952], [120.51661156838514, 31.435889952], [120.51661156838514, 31.435980416]]]}}, {"type": "Feature", "properties": {"area_ha": 0.0, "mean": null}, "geometry": {"type": "Polygon", "coordinates": [[[120.51597979840788, 31.43561856], [120.51587450341168, 31.435528096], [120.51597979840788, 31.435528096], [120.51597979840788, 31.43561856]]]}}, {"type": "Feature", "properties": {"area_ha": 0.01, "mean": 0.1007}, "geometry": {"type": "Polygon", "coordinates": [[[120.51713804336619, 31.43561856], [120.51703274836999, 31.435437632], [120.51713804336619, 31.435437632], [120.51713804336619, 31.43561856]]]}}, {"type": "Feature", "properties": {"area_ha": 0.02, "mean": 0.1103}, "geometry": {"type": "Polygon", "coordinates": [[[120.59505634056103, 31.435347168], [120.59484575056861, 31.435256704], [120.59505634056103, 31.43516624], [120.59505634056103, 31.435347168]]]}}, {"type": "Feature", "properties": {"area_ha": 0.0, "mean": null}, "geometry": {"type": "Polygon", "coordinates": [[[120.51629568339652, 31.435256704], [120.5161903884003, 31.43516624], [120.51629568339652, 31.43516624], [120.51629568339652, 31.435256704]]]}}, {"type": "Feature", "properties": {"area_ha": 0.01, "mean": 0.1068}, "geometry": {"type": "Polygon", "coordinates": [[[120.53956587755876, 31.434804384], [120.53946058256255, 31.434623456], [120.53956587755876, 31.434623456], [120.53956587755876, 31.434804384]]]}}, {"type": "Feature", "properties": {"area_ha": 0.0, "mean": null}, "geometry": {"type": "Polygon", "coordinates": [[[120.51682215837756, 31.434442528], [120.51671686338135, 31.434352064], [120.51682215837756, 31.434352064], [120.51682215837756, 31.434442528]]]}}, {"type": "Feature", "properties": {"area_ha": 0.02, "mean": 0.115}, "geometry": {"type": "Polygon", "coordinates": [[[120.51713804336619, 31.434352064], [120.51682215837756, 31.4342616], [120.51703274836999, 31.434171136], [120.51713804336619, 31.434352064]]]}}, {"type": "Feature", "properties": {"area_ha": 0.0, "mean": null}, "geometry": {"type": "Polygon", "coordinates": [[[120.51755922335103, 31.43290464], [120.51745392835483, 31.432814176], [120.51755922335103, 31.432814176], [120.51755922335103, 31.43290464]]]}}, {"type": "Feature", "properties": {"area_ha": 0.0, "mean": null}, "geometry": {"type": "Polygon", "coordinates": [[[120.5398817625474, 31.432633248000002], [120.53977646755118, 31.432542784], [120.5398817625474, 31.432542784], [120.5398817625474, 31.432633248000002]]]}}, {"type": "Feature", "properties": {"area_ha": 0.0, "mean": null}, "geometry": {"type": "Polygon", "coordinates": [[[120.51871746830933, 31.432542784], [120.51861217331312, 31.43245232], [120.51871746830933, 31.43245232], [120.51871746830933, 31.432542784]]]}}, {"type": "Feature", "properties": {"area_ha": 0.0, "mean": null}, "geometry": {"type": "Polygon", "coordinates": [[[120.51882276330554, 31.43245232], [120.51871746830933, 31.432361856], [120.51882276330554, 31.432361856], [120.51882276330554, 31.43245232]]]}}, {"type": "Feature", "properties": {"area_ha": 0.0, "mean": null}, "geometry": {"type": "Polygon", "coordinates": [[[120.5194545332828, 31.432271392], [120.51934923828658, 31.432180928], [120.5194545332828, 31.432180928], [120.5194545332828, 31.432271392]]]}}, {"type": "Feature", "properties": {"area_ha": 0.0, "mean": null}, "geometry": {"type": "Polygon", "coordinates": [[[120.52019159825626, 31.430733504], [120.52008630326004, 31.43064304], [120.52019159825626, 31.43064304], [120.52019159825626, 31.430733504]]]}}, {"type": "Feature", "properties": {"area_ha": 0.0, "mean": null}, "geometry": {"type": "Polygon", "coordinates": [[[120.54862124723276, 31.430281184000002], [120.54851595223654, 31.43019072], [120.54862124723276, 31.43019072], [120.54862124723276, 31.430281184000002]]]}}, {"type": "Feature", "properties": {"area_ha": 0.0, "mean": null}, "geometry": {"type": "Polygon", "coordinates": [[[120.51819099332829, 31.430100256], [120.51808569833207, 31.430009792], [120.51819099332829, 31.430009792], [120.51819099332829, 31.430100256]]]}}, {"type": "Feature", "properties": {"area_ha": 0.01, "mean": 0.1017}, "geometry": {"type": "Polygon", "coordinates": [[[120.52029689325246, 31.429647936000002], [120.52019159825626, 31.429467008], [120.52029689325246, 31.429467008], [120.52029689325246, 31.429647936000002]]]}}, {"type": "Feature", "properties": {"area_ha": 0.0, "mean": null}, "geometry": {"type": "Polygon", "coordinates": [[[120.52040218824868, 31.429376544], [120.52029689325246, 31.42928608], [120.52040218824868, 31.42928608], [120.52040218824868, 31.429376544]]]}}, {"type": "Feature", "properties": {"area_ha": 0.0, "mean": null}, "geometry": {"type": "Polygon", "coordinates": [[[120.52050748324488, 31.42928608], [120.52040218824868, 31.429195616], [120.52050748324488, 31.429195616], [120.52050748324488, 31.42928608]]]}}, {"type": "Feature", "properties": {"area_ha": 0.0, "mean": null}, "geometry": {"type": "Polygon", "coordinates": [[[120.5207180732373, 31.429014688], [120.5206127782411, 31.428924224], [120.5207180732373, 31.428924224], [120.5207180732373, 31.429014688]]]}}, {"type": "Feature", "properties": {"area_ha": 0.01, "mean": 0.1106}, "geometry": {"type": "Polygon", "coordinates": [[[120.52082336823351, 31.428924224], [120.5207180732373, 31.428743296], [120.52082336823351, 31.428743296], [120.52082336823351, 31.428924224]]]}}, {"type": "Feature", "properties": {"area_ha": 0.02, "mean": 0.1088}, "geometry": {"type": "Polygon", "coordinates": [[[120.59495104556483, 31.428743296], [120.5947404555724, 31.428471904000002], [120.59484575056861, 31.428471904000002], [120.59495104556483, 31.428743296]]]}}, {"type": "Feature", "properties": {"area_ha": 0.0, "mean": null}, "geometry": {"type": "Polygon", "coordinates": [[[120.54051353252464, 31.428562368], [120.54040823752844, 31.428471904000002], [120.54051353252464, 31.428471904000002], [120.54051353252464, 31.428562368]]]}}, {"type": "Feature", "properties": {"area_ha": 0.24, "mean": 0.1072}, "geometry": {"type": "Polygon", "coordinates": [[[120.51903335329796, 31.42928608], [120.51861217331312, 31.428652832], [120.51903335329796, 31.428200512], [120.51903335329796, 31.42928608]]]}}, {"type": "Feature", "properties": {"area_ha": 0.0, "mean": null}, "geometry": {"type": "Polygon", "coordinates": [[[120.59484575056861, 31.428290976], [120.5947404555724, 31.428200512], [120.59484575056861, 31.428200512], [120.59484575056861, 31.428290976]]]}}, {"type": "Feature", "properties": {"area_ha": 0.01, "mean": 0.1489}, "geometry": {"type": "Polygon", "coordinates": [[[120.51913864829417, 31.428200512], [120.51903335329796, 31.428019584], [120.51913864829417, 31.428019584], [120.51913864829417, 31.428200512]]]}}, {"type": "Feature", "properties": {"area_ha": 0.0, "mean": null}, "geometry": {"type": "Polygon", "coordinates": [[[120.5947404555724, 31.428110048], [120.5946351605762, 31.428019584], [120.5947404555724, 31.428019584], [120.5947404555724, 31.428110048]]]}}, {"type": "Feature", "properties": {"area_ha": 0.01, "mean": 0.1475}, "geometry": {"type": "Polygon", "coordinates": [[[120.51924394329038, 31.428019584], [120.51913864829417, 31.427838656], [120.51924394329038, 31.427838656], [120.51924394329038, 31.428019584]]]}}, {"type": "Feature", "properties": {"area_ha": 0.0, "mean": null}, "geometry": {"type": "Polygon", "coordinates": [[[120.51829628832449, 31.427838656], [120.51819099332829, 31.427748192], [120.51829628832449, 31.427748192], [120.51829628832449, 31.427838656]]]}}, {"type": "Feature", "properties": {"area_ha": 0.06, "mean": 0.1323}, "geometry": {"type": "Polygon", "coordinates": [[[120.5207180732373, 31.42792912], [120.5207180732373, 31.427657728], [120.52113925322215, 31.427657728], [120.5207180732373, 31.42792912]]]}}, {"type": "Feature", "properties": {"area_ha": 0.0, "mean": null}, "geometry": {"type": "Polygon", "coordinates": [[[120.51934923828658, 31.427748192], [120.51924394329038, 31.427657728], [120.51934923828658, 31.427657728], [120.51934923828658, 31.427748192]]]}}, {"type": "Feature", "properties": {"area_ha": 0.0, "mean": null}, "geometry": {"type": "Polygon", "coordinates": [[[120.59442457058378, 31.427748192], [120.59431927558757, 31.427657728], [120.59442457058378, 31.427657728], [120.59442457058378, 31.427748192]]]}}, {"type": "Feature", "properties": {"area_ha": 0.0, "mean": null}, "geometry": {"type": "Polygon", "coordinates": [[[120.5194545332828, 31.427657728], [120.51934923828658, 31.427567264], [120.5194545332828, 31.427567264], [120.5194545332828, 31.427657728]]]}}, {"type": "Feature", "properties": {"area_ha": 0.0, "mean": null}, "geometry": {"type": "Polygon", "coordinates": [[[120.52345574313874, 31.427657728], [120.52335044814254, 31.427567264], [120.52345574313874, 31.427567264], [120.52345574313874, 31.427657728]]]}}, {"type": "Feature", "properties": {"area_ha": 0.08, "mean": 0.096}, "geometry": {"type": "Polygon", "coordinates": [[[120.52208690818803, 31.427657728], [120.52134984321457, 31.427657728], [120.52187631819561, 31.4274768], [120.52208690818803, 31.427657728]]]}}, {"type": "Feature", "properties": {"area_ha": 0.0, "mean": null}, "geometry": {"type": "Polygon", "coordinates": [[[120.59431927558757, 31.427567264], [120.59421398059136, 31.4274768], [120.59431927558757, 31.4274768], [120.59431927558757, 31.427567264]]]}}, {"type": "Feature", "properties": {"area_ha": 0.02, "mean": 0.1483}, "geometry": {"type": "Polygon", "coordinates": [[[120.54051353252464, 31.427838656], [120.54040823752844, 31.427386336], [120.54051353252464, 31.427386336], [120.54051353252464, 31.427838656]]]}}, {"type": "Feature", "properties": {"area_ha": 0.01, "mean": 0.1278}, "geometry": {"type": "Polygon", "coordinates": [[[120.52187631819561, 31.4274768], [120.52166572820319, 31.427386336], [120.52187631819561, 31.427386336], [120.52187631819561, 31.4274768]]]}}, {"type": "Feature", "properties": {"area_ha": 0.02, "mean": 0.1683}, "geometry": {"type": "Polygon", "coordinates": [[[120.51966512327522, 31.4274768], [120.519559828279, 31.427295872000002], [120.51977041827142, 31.427295872000002], [120.51966512327522, 31.4274768]]]}}, {"type": "Feature", "properties": {"area_ha": 0.0, "mean": null}, "geometry": {"type": "Polygon", "coordinates": [[[120.52313985815012, 31.427386336], [120.52303456315391, 31.427295872000002], [120.52313985815012, 31.427295872000002], [120.52313985815012, 31.427386336]]]}}, {"type": "Feature", "properties": {"area_ha": 0.0, "mean": null}, "geometry": {"type": "Polygon", "coordinates": [[[120.52377162812738, 31.427386336], [120.52366633313116, 31.427295872000002], [120.52377162812738, 31.427295872000002], [120.52377162812738, 31.427386336]]]}}, {"type": "Feature", "properties": {"area_ha": 0.0, "mean": null}, "geometry": {"type": "Polygon", "coordinates": [[[120.51987571326764, 31.427295872000002], [120.51977041827142, 31.427205408], [120.51987571326764, 31.427205408], [120.51987571326764, 31.427295872000002]]]}}, {"type": "Feature", "properties": {"area_ha": 0.0, "mean": null}, "geometry": {"type": "Polygon", "coordinates": [[[120.52324515314633, 31.427295872000002], [120.52313985815012, 31.427205408], [120.52324515314633, 31.427205408], [120.52324515314633, 31.427295872000002]]]}}, {"type": "Feature", "properties": {"area_ha": 0.01, "mean": 0.1079}, "geometry": {"type": "Polygon", "coordinates": [[[120.52029689325246, 31.427205408], [120.51998100826384, 31.427114944], [120.52029689325246, 31.427114944], [120.52029689325246, 31.427205408]]]}}, {"type": "Feature", "properties": {"area_ha": 0.0, "mean": null}, "geometry": {"type": "Polygon", "coordinates": [[[120.52124454821835, 31.427205408], [120.52113925322215, 31.427114944], [120.52124454821835, 31.427114944], [120.52124454821835, 31.427205408]]]}}, {"type": "Feature", "properties": {"area_ha": 0.0, "mean": null}, "geometry": {"type": "Polygon", "coordinates": [[[120.54061882752086, 31.427205408], [120.54051353252464, 31.427114944], [120.54061882752086, 31.427114944], [120.54061882752086, 31.427205408]]]}}, {"type": "Feature", "properties": {"area_ha": 0.01, "mean": 0.1033}, "geometry": {"type": "Polygon", "coordinates": [[[120.5206127782411, 31.427114944], [120.52029689325246, 31.42702448], [120.5206127782411, 31.42702448], [120.5206127782411, 31.427114944]]]}}, {"type": "Feature", "properties": {"area_ha": 0.0, "mean": null}, "geometry": {"type": "Polygon", "coordinates": [[[120.52092866322972, 31.427114944], [120.52082336823351, 31.42702448], [120.52092866322972, 31.42702448], [120.52092866322972, 31.427114944]]]}}, {"type": "Feature", "properties": {"area_ha": 0.0, "mean": null}, "geometry": {"type": "Polygon", "coordinates": [[[120.59389809560274, 31.42702448], [120.59379280060652, 31.426934016], [120.59389809560274, 31.426934016], [120.59389809560274, 31.42702448]]]}}, {"type": "Feature", "properties": {"area_ha": 0.01, "mean": 0.1071}, "geometry": {"type": "Polygon", "coordinates": [[[120.5184015833207, 31.42702448], [120.51829628832449, 31.426843552], [120.5184015833207, 31.426843552], [120.5184015833207, 31.42702448]]]}}, {"type": "Feature", "properties": {"area_ha": 0.0, "mean": null}, "geometry": {"type": "Polygon", "coordinates": [[[120.5297734429113, 31.426934016], [120.52966814791509, 31.426843552], [120.5297734429113, 31.426843552], [120.5297734429113, 31.426934016]]]}}, {"type": "Feature", "properties": {"area_ha": 0.0, "mean": null}, "geometry": {"type": "Polygon", "coordinates": [[[120.59379280060652, 31.426934016], [120.59368750561032, 31.426843552], [120.59379280060652, 31.426843552], [120.59379280060652, 31.426934016]]]}}, {"type": "Feature", "properties": {"area_ha": 0.0, "mean": null}, "geometry": {"type": "Polygon", "coordinates": [[[120.52966814791509, 31.426843552], [120.52956285291889, 31.426753088], [120.52966814791509, 31.426753088], [120.52966814791509, 31.426843552]]]}}, {"type": "Feature", "properties": {"area_ha": 0.01, "mean": 0.1243}, "geometry": {"type": "Polygon", "coordinates": [[[120.58947570576194, 31.426843552], [120.58937041076574, 31.426662624], [120.58947570576194, 31.426662624], [120.58947570576194, 31.426843552]]]}}, {"type": "Feature", "properties": {"area_ha": 0.0, "mean": null}, "geometry": {"type": "Polygon", "coordinates": [[[120.52956285291889, 31.426753088], [120.52945755792267, 31.426662624], [120.52956285291889, 31.426662624], [120.52956285291889, 31.426753088]]]}}, {"type": "Feature", "properties": {"area_ha": 0.01, "mean": 0.1242}, "geometry": {"type": "Polygon", "coordinates": [[[120.51850687831691, 31.426753088], [120.5184015833207, 31.42657216], [120.51850687831691, 31.42657216], [120.51850687831691, 31.426753088]]]}}, {"type": "Feature", "properties": {"area_ha": 0.0, "mean": null}, "geometry": {"type": "Polygon", "coordinates": [[[120.52945755792267, 31.426662624], [120.52935226292647, 31.42657216], [120.52945755792267, 31.42657216], [120.52945755792267, 31.426662624]]]}}, {"type": "Feature", "properties": {"area_ha": 0.0, "mean": null}, "geometry": {"type": "Polygon", "coordinates": [[[120.53008932789993, 31.426662624], [120.52998403290371, 31.42657216], [120.53008932789993, 31.42657216], [120.53008932789993, 31.426662624]]]}}, {"type": "Feature", "properties": {"area_ha": 0.0, "mean": null}, "geometry": {"type": "Polygon", "coordinates": [[[120.5935822106141, 31.426662624], [120.5934769156179, 31.42657216], [120.5935822106141, 31.42657216], [120.5935822106141, 31.426662624]]]}}, {"type": "Feature", "properties": {"area_ha": 0.01, "mean": 0.1009}, "geometry": {"type": "Polygon", "coordinates": [[[120.5934769156179, 31.42657216], [120.59326632562548, 31.426481696], [120.5934769156179, 31.426481696], [120.5934769156179, 31.42657216]]]}}, {"type": "Feature", "properties": {"area_ha": 0.0, "mean": null}, "geometry": {"type": "Polygon", "coordinates": [[[120.51861217331312, 31.426391232], [120.51850687831691, 31.426300768], [120.51861217331312, 31.426300768], [120.51861217331312, 31.426391232]]]}}, {"type": "Feature", "properties": {"area_ha": 0.0, "mean": null}, "geometry": {"type": "Polygon", "coordinates": [[[120.51850687831691, 31.426300768], [120.5184015833207, 31.426210304], [120.51850687831691, 31.426210304], [120.51850687831691, 31.426300768]]]}}, {"type": "Feature", "properties": {"area_ha": 0.0, "mean": null}, "geometry": {"type": "Polygon", "coordinates": [[[120.52893108294163, 31.426300768], [120.52882578794542, 31.426210304], [120.52893108294163, 31.426210304], [120.52893108294163, 31.426300768]]]}}, {"type": "Feature", "properties": {"area_ha": 0.0, "mean": null}, "geometry": {"type": "Polygon", "coordinates": [[[120.53135286785444, 31.426119840000002], [120.53124757285823, 31.426029376], [120.53135286785444, 31.426029376], [120.53135286785444, 31.426119840000002]]]}}, {"type": "Feature", "properties": {"area_ha": 0.01, "mean": 0.1387}, "geometry": {"type": "Polygon", "coordinates": [[[120.5309316878696, 31.426119840000002], [120.5308263928734, 31.425938912], [120.5309316878696, 31.425938912], [120.5309316878696, 31.426119840000002]]]}}, {"type": "Feature", "properties": {"area_ha": 0.01, "mean": 0.1027}, "geometry": {"type": "Polygon", "coordinates": [[[120.52903637793784, 31.425848448], [120.52882578794542, 31.425757984], [120.52903637793784, 31.425757984], [120.52903637793784, 31.425848448]]]}}, {"type": "Feature", "properties": {"area_ha": 0.04, "mean": 0.1502}, "geometry": {"type": "Polygon", "coordinates": [[[120.52998403290371, 31.425757984], [120.5297734429113, 31.425848448], [120.52914167293405, 31.425757984], [120.52998403290371, 31.425757984]]]}}, {"type": "Feature", "properties": {"area_ha": 0.0, "mean": null}, "geometry": {"type": "Polygon", "coordinates": [[[120.53103698286581, 31.425848448], [120.5309316878696, 31.425757984], [120.53103698286581, 31.425757984], [120.53103698286581, 31.425848448]]]}}, {"type": "Feature", "properties": {"area_ha": 0.0, "mean": null}, "geometry": {"type": "Polygon", "coordinates": [[[120.5320899328279, 31.425848448], [120.5319846378317, 31.425757984], [120.5320899328279, 31.425757984], [120.5320899328279, 31.425848448]]]}}, {"type": "Feature", "properties": {"area_ha": 0.0, "mean": null}, "geometry": {"type": "Polygon", "coordinates": [[[120.53114227786202, 31.425757984], [120.53103698286581, 31.42566752], [120.53114227786202, 31.42566752], [120.53114227786202, 31.425757984]]]}}, {"type": "Feature", "properties": {"area_ha": 0.0, "mean": null}, "geometry": {"type": "Polygon", "coordinates": [[[120.53187934283548, 31.425396128], [120.53177404783928, 31.425305664], [120.53187934283548, 31.425305664], [120.53187934283548, 31.425396128]]]}}, {"type": "Feature", "properties": {"area_ha": 0.02, "mean": 0.1074}, "geometry": {"type": "Polygon", "coordinates": [[[120.59495104556483, 31.42566752], [120.59484575056861, 31.4252152], [120.59495104556483, 31.4252152], [120.59495104556483, 31.42566752]]]}}, {"type": "Feature", "properties": {"area_ha": 0.01, "mean": 0.1009}, "geometry": {"type": "Polygon", "coordinates": [[[120.53230052282032, 31.425305664], [120.5319846378317, 31.4252152], [120.53230052282032, 31.4252152], [120.53230052282032, 31.425305664]]]}}, {"type": "Feature", "properties": {"area_ha": 0.0, "mean": null}, "geometry": {"type": "Polygon", "coordinates": [[[120.53251111281274, 31.4252152], [120.53240581781654, 31.425124736], [120.53251111281274, 31.425124736], [120.53251111281274, 31.4252152]]]}}, {"type": "Feature", "properties": {"area_ha": 0.03, "mean": 0.136}, "geometry": {"type": "Polygon", "coordinates": [[[120.53493289772555, 31.4252152], [120.53419583275209, 31.425124736], [120.53493289772555, 31.425124736], [120.53493289772555, 31.4252152]]]}}, {"type": "Feature", "properties": {"area_ha": 0.0, "mean": null}, "geometry": {"type": "Polygon", "coordinates": [[[120.59452986557999, 31.425124736], [120.59442457058378, 31.425034272], [120.59452986557999, 31.425034272], [120.59452986557999, 31.425124736]]]}}, {"type": "Feature", "properties": {"area_ha": 0.0, "mean": null}, "geometry": {"type": "Polygon", "coordinates": [[[120.59495104556483, 31.425124736], [120.59484575056861, 31.425034272], [120.59495104556483, 31.425034272], [120.59495104556483, 31.425124736]]]}}, {"type": "Feature", "properties": {"area_ha": 0.01, "mean": 0.1101}, "geometry": {"type": "Polygon", "coordinates": [[[120.54440944738438, 31.425124736], [120.54430415238818, 31.424943808000002], [120.54440944738438, 31.424943808000002], [120.54440944738438, 31.425124736]]]}}, {"type": "Feature", "properties": {"area_ha": 0.01, "mean": 0.1003}, "geometry": {"type": "Polygon", "coordinates": [[[120.59505634056103, 31.425034272], [120.59495104556483, 31.424853344], [120.59505634056103, 31.424853344], [120.59505634056103, 31.425034272]]]}}, {"type": "Feature", "properties": {"area_ha": 0.01, "mean": 0.1035}, "geometry": {"type": "Polygon", "coordinates": [[[120.59516163555725, 31.424853344], [120.59505634056103, 31.424672416], [120.59516163555725, 31.424672416], [120.59516163555725, 31.424853344]]]}}, {"type": "Feature", "properties": {"area_ha": 0.01, "mean": 0.1222}, "geometry": {"type": "Polygon", "coordinates": [[[120.53577525769524, 31.424581952], [120.53556466770281, 31.424491488], [120.53577525769524, 31.424491488], [120.53577525769524, 31.424581952]]]}}, {"type": "Feature", "properties": {"area_ha": 0.34, "mean": 0.118}, "geometry": {"type": "Polygon", "coordinates": [[[120.53640702767248, 31.425124736], [120.53588055269144, 31.424491488], [120.53714409264595, 31.42476288], [120.53640702767248, 31.425124736]]]}}, {"type": "Feature", "properties": {"area_ha": 0.0, "mean": null}, "geometry": {"type": "Polygon", "coordinates": [[[120.59516163555725, 31.424581952], [120.59505634056103, 31.424491488], [120.59516163555725, 31.424491488], [120.59516163555725, 31.424581952]]]}}, {"type": "Feature", "properties": {"area_ha": 0.01, "mean": 0.1163}, "geometry": {"type": "Polygon", "coordinates": [[[120.5947404555724, 31.424491488], [120.5946351605762, 31.42431056], [120.5947404555724, 31.42431056], [120.5947404555724, 31.424491488]]]}}, {"type": "Feature", "properties": {"area_ha": 0.0, "mean": null}, "geometry": {"type": "Polygon", "coordinates": [[[120.54167177748295, 31.423948704], [120.54156648248674, 31.42385824], [120.54167177748295, 31.42385824], [120.54167177748295, 31.423948704]]]}}, {"type": "Feature", "properties": {"area_ha": 0.02, "mean": 0.1108}, "geometry": {"type": "Polygon", "coordinates": [[[120.54040823752844, 31.423586848], [120.54030294253222, 31.423134528000002], [120.54040823752844, 31.423134528000002], [120.54040823752844, 31.423586848]]]}}, {"type": "Feature", "properties": {"area_ha": 0.01, "mean": 0.1007}, "geometry": {"type": "Polygon", "coordinates": [[[120.54040823752844, 31.423044064], [120.54030294253222, 31.422863136], [120.54040823752844, 31.422863136], [120.54040823752844, 31.423044064]]]}}, {"type": "Feature", "properties": {"area_ha": 0.0, "mean": null}, "geometry": {"type": "Polygon", "coordinates": [[[120.54051353252464, 31.422772672], [120.54040823752844, 31.422682208], [120.54051353252464, 31.422682208], [120.54051353252464, 31.422772672]]]}}, {"type": "Feature", "properties": {"area_ha": 0.09, "mean": 0.1182}, "geometry": {"type": "Polygon", "coordinates": [[[120.54283002244125, 31.423496384], [120.54261943244883, 31.422772672], [120.54283002244125, 31.422591744], [120.54283002244125, 31.423496384]]]}}, {"type": "Feature", "properties": {"area_ha": 0.01, "mean": 0.1905}, "geometry": {"type": "Polygon", "coordinates": [[[120.54061882752086, 31.422682208], [120.54051353252464, 31.42250128], [120.54061882752086, 31.42250128], [120.54061882752086, 31.422682208]]]}}, {"type": "Feature", "properties": {"area_ha": 0.02, "mean": 0.1173}, "geometry": {"type": "Polygon", "coordinates": [[[120.54304061243367, 31.42250128], [120.54283002244125, 31.422410816], [120.54304061243367, 31.422320352], [120.54304061243367, 31.42250128]]]}}, {"type": "Feature", "properties": {"area_ha": 0.01, "mean": 0.1314}, "geometry": {"type": "Polygon", "coordinates": [[[120.54072412251706, 31.42250128], [120.54061882752086, 31.422320352], [120.54072412251706, 31.422320352], [120.54072412251706, 31.42250128]]]}}, {"type": "Feature", "properties": {"area_ha": 0.01, "mean": 0.1494}, "geometry": {"type": "Polygon", "coordinates": [[[120.54082941751327, 31.422320352], [120.54072412251706, 31.422139424], [120.54082941751327, 31.422139424], [120.54082941751327, 31.422320352]]]}}, {"type": "Feature", "properties": {"area_ha": 0.0, "mean": null}, "geometry": {"type": "Polygon", "coordinates": [[[120.54314590742987, 31.422229888], [120.54304061243367, 31.422139424], [120.54314590742987, 31.422139424], [120.54314590742987, 31.422229888]]]}}, {"type": "Feature", "properties": {"area_ha": 0.01, "mean": 0.1316}, "geometry": {"type": "Polygon", "coordinates": [[[120.54093471250948, 31.42204896], [120.54082941751327, 31.421868032], [120.54093471250948, 31.421868032], [120.54093471250948, 31.42204896]]]}}, {"type": "Feature", "properties": {"area_ha": 0.92, "mean": 0.1256}, "geometry": {"type": "Polygon", "coordinates": [[[120.58610626588325, 31.422139424], [120.58421095595148, 31.422591744], [120.58600097088704, 31.421234784], [120.58610626588325, 31.422139424]]]}}, {"type": "Feature", "properties": {"area_ha": 0.09, "mean": 0.1357}, "geometry": {"type": "Polygon", "coordinates": [[[120.58694862585293, 31.421234784], [120.58610626588325, 31.421053856], [120.58621156087946, 31.420872928], [120.58694862585293, 31.421234784]]]}}, {"type": "Feature", "properties": {"area_ha": 0.01, "mean": 0.1057}, "geometry": {"type": "Polygon", "coordinates": [[[120.5412505974981, 31.420782464000002], [120.5411453025019, 31.420601536], [120.5412505974981, 31.420601536], [120.5412505974981, 31.420782464000002]]]}}, {"type": "Feature", "properties": {"area_ha": 0.01, "mean": 0.102}, "geometry": {"type": "Polygon", "coordinates": [[[120.5411453025019, 31.42023968], [120.54104000750569, 31.419968288], [120.5411453025019, 31.419968288], [120.5411453025019, 31.42023968]]]}}, {"type": "Feature", "properties": {"area_ha": 0.0, "mean": null}, "geometry": {"type": "Polygon", "coordinates": [[[120.54104000750569, 31.419968288], [120.54093471250948, 31.419877824], [120.54104000750569, 31.419877824], [120.54104000750569, 31.419968288]]]}}, {"type": "Feature", "properties": {"area_ha": 0.0, "mean": null}, "geometry": {"type": "Polygon", "coordinates": [[[120.54093471250948, 31.419877824], [120.54082941751327, 31.41978736], [120.54093471250948, 31.41978736], [120.54093471250948, 31.419877824]]]}}, {"type": "Feature", "properties": {"area_ha": 0.0, "mean": null}, "geometry": {"type": "Polygon", "coordinates": [[[120.54051353252464, 31.41978736], [120.54040823752844, 31.419696896], [120.54051353252464, 31.419696896], [120.54051353252464, 31.41978736]]]}}, {"type": "Feature", "properties": {"area_ha": 0.01, "mean": 0.1245}, "geometry": {"type": "Polygon", "coordinates": [[[120.54082941751327, 31.41978736], [120.54061882752086, 31.419696896], [120.54082941751327, 31.419696896], [120.54082941751327, 31.41978736]]]}}, {"type": "Feature", "properties": {"area_ha": 0.0, "mean": null}, "geometry": {"type": "Polygon", "coordinates": [[[120.54030294253222, 31.417887616], [120.54019764753602, 31.417797152], [120.54030294253222, 31.417797152], [120.54030294253222, 31.417887616]]]}}, {"type": "Feature", "properties": {"area_ha": 0.01, "mean": 0.1104}, "geometry": {"type": "Polygon", "coordinates": [[[120.56083546679302, 31.417887616], [120.5605195818044, 31.417797152], [120.56083546679302, 31.417797152], [120.56083546679302, 31.417887616]]]}}, {"type": "Feature", "properties": {"area_ha": 0.01, "mean": 0.1185}, "geometry": {"type": "Polygon", "coordinates": [[[120.5399870575436, 31.417616224], [120.5398817625474, 31.417435296], [120.5399870575436, 31.417435296], [120.5399870575436, 31.417616224]]]}}, {"type": "Feature", "properties": {"area_ha": 0.04, "mean": 0.1116}, "geometry": {"type": "Polygon", "coordinates": [[[120.5398817625474, 31.417254368000002], [120.53967117255497, 31.417344832], [120.53967117255497, 31.41707344], [120.5398817625474, 31.417254368000002]]]}}, {"type": "Feature", "properties": {"area_ha": 0.0, "mean": null}, "geometry": {"type": "Polygon", "coordinates": [[[120.53314288279, 31.417163904], [120.53303758779379, 31.41707344], [120.53314288279, 31.41707344], [120.53314288279, 31.417163904]]]}}, {"type": "Feature", "properties": {"area_ha": 0.02, "mean": 0.1017}, "geometry": {"type": "Polygon", "coordinates": [[[120.56073017179682, 31.41707344], [120.5605195818044, 31.416982976], [120.56073017179682, 31.416892512], [120.56073017179682, 31.41707344]]]}}, {"type": "Feature", "properties": {"area_ha": 0.0, "mean": null}, "geometry": {"type": "Polygon", "coordinates": [[[120.53703879764974, 31.416711584], [120.53693350265353, 31.41662112], [120.53703879764974, 31.41662112], [120.53703879764974, 31.416711584]]]}}, {"type": "Feature", "properties": {"area_ha": 0.0, "mean": null}, "geometry": {"type": "Polygon", "coordinates": [[[120.55451776702047, 31.4161688], [120.55441247202427, 31.416078336], [120.55451776702047, 31.416078336], [120.55451776702047, 31.4161688]]]}}, {"type": "Feature", "properties": {"area_ha": 0.0, "mean": null}, "geometry": {"type": "Polygon", "coordinates": [[[120.52619341304019, 31.416078336], [120.52608811804397, 31.415987872], [120.52619341304019, 31.415987872], [120.52619341304019, 31.416078336]]]}}, {"type": "Feature", "properties": {"area_ha": 0.0, "mean": null}, "geometry": {"type": "Polygon", "coordinates": [[[120.55504424200151, 31.416078336], [120.55493894700531, 31.415987872], [120.55504424200151, 31.415987872], [120.55504424200151, 31.416078336]]]}}, {"type": "Feature", "properties": {"area_ha": 0.05, "mean": 0.1065}, "geometry": {"type": "Polygon", "coordinates": [[[120.56062487680062, 31.416440192], [120.5604142868082, 31.415987872], [120.56062487680062, 31.415987872], [120.56062487680062, 31.416440192]]]}}, {"type": "Feature", "properties": {"area_ha": 0.0, "mean": null}, "geometry": {"type": "Polygon", "coordinates": [[[120.52598282304777, 31.415987872], [120.52587752805155, 31.415897408], [120.52598282304777, 31.415897408], [120.52598282304777, 31.415987872]]]}}, {"type": "Feature", "properties": {"area_ha": 0.01, "mean": 0.1328}, "geometry": {"type": "Polygon", "coordinates": [[[120.52640400303261, 31.415987872], [120.52619341304019, 31.415897408], [120.52640400303261, 31.415897408], [120.52640400303261, 31.415987872]]]}}, {"type": "Feature", "properties": {"area_ha": 0.0, "mean": null}, "geometry": {"type": "Polygon", "coordinates": [[[120.56073017179682, 31.415987872], [120.56062487680062, 31.415897408], [120.56073017179682, 31.415897408], [120.56073017179682, 31.415987872]]]}}, {"type": "Feature", "properties": {"area_ha": 0.0, "mean": null}, "geometry": {"type": "Polygon", "coordinates": [[[120.52650929802881, 31.415897408], [120.52640400303261, 31.415806944], [120.52650929802881, 31.415806944], [120.52650929802881, 31.415897408]]]}}, {"type": "Feature", "properties": {"area_ha": 0.0, "mean": null}, "geometry": {"type": "Polygon", "coordinates": [[[120.56083546679302, 31.415897408], [120.56073017179682, 31.415806944], [120.56083546679302, 31.415806944], [120.56083546679302, 31.415897408]]]}}, {"type": "Feature", "properties": {"area_ha": 0.0, "mean": null}, "geometry": {"type": "Polygon", "coordinates": [[[120.52577223305535, 31.415806944], [120.52566693805915, 31.41571648], [120.52577223305535, 31.41571648], [120.52577223305535, 31.415806944]]]}}, {"type": "Feature", "properties": {"area_ha": 0.0, "mean": null}, "geometry": {"type": "Polygon", "coordinates": [[[120.52587752805155, 31.41571648], [120.52577223305535, 31.415626016], [120.52587752805155, 31.415626016], [120.52587752805155, 31.41571648]]]}}, {"type": "Feature", "properties": {"area_ha": 0.0, "mean": null}, "geometry": {"type": "Polygon", "coordinates": [[[120.52608811804397, 31.415626016], [120.52598282304777, 31.415535552], [120.52608811804397, 31.415535552], [120.52608811804397, 31.415626016]]]}}, {"type": "Feature", "properties": {"area_ha": 0.0, "mean": null}, "geometry": {"type": "Polygon", "coordinates": [[[120.5605195818044, 31.415354624], [120.5604142868082, 31.41526416], [120.5605195818044, 31.41526416], [120.5605195818044, 31.415354624]]]}}, {"type": "Feature", "properties": {"area_ha": 0.05, "mean": 0.1125}, "geometry": {"type": "Polygon", "coordinates": [[[120.52640400303261, 31.415083232], [120.52608811804397, 31.415535552], [120.52619341304019, 31.415083232], [120.52640400303261, 31.415083232]]]}}, {"type": "Feature", "properties": {"area_ha": 0.01, "mean": 0.1143}, "geometry": {"type": "Polygon", "coordinates": [[[120.52608811804397, 31.415173696], [120.52598282304777, 31.414902304], [120.52608811804397, 31.414902304], [120.52608811804397, 31.415173696]]]}}, {"type": "Feature", "properties": {"area_ha": 0.0, "mean": null}, "geometry": {"type": "Polygon", "coordinates": [[[120.52619341304019, 31.414902304], [120.52608811804397, 31.41481184], [120.52619341304019, 31.41481184], [120.52619341304019, 31.414902304]]]}}, {"type": "Feature", "properties": {"area_ha": 0.0, "mean": null}, "geometry": {"type": "Polygon", "coordinates": [[[120.52819401796816, 31.414178592], [120.52808872297196, 31.414088128], [120.52819401796816, 31.414088128], [120.52819401796816, 31.414178592]]]}}, {"type": "Feature", "properties": {"area_ha": 0.0, "mean": null}, "geometry": {"type": "Polygon", "coordinates": [[[120.5274569529947, 31.413635808], [120.5273516579985, 31.413545344], [120.5274569529947, 31.413545344], [120.5274569529947, 31.413635808]]]}}, {"type": "Feature", "properties": {"area_ha": 0.0, "mean": null}, "geometry": {"type": "Polygon", "coordinates": [[[120.52671988802123, 31.413183488], [120.52661459302503, 31.413093024000002], [120.52671988802123, 31.413093024000002], [120.52671988802123, 31.413183488]]]}}, {"type": "Feature", "properties": {"area_ha": 0.02, "mean": 0.1165}, "geometry": {"type": "Polygon", "coordinates": [[[120.52661459302503, 31.413093024000002], [120.52629870803639, 31.412912096], [120.52661459302503, 31.41300256], [120.52661459302503, 31.413093024000002]]]}}, {"type": "Feature", "properties": {"area_ha": 0.0, "mean": null}, "geometry": {"type": "Polygon", "coordinates": [[[120.52629870803639, 31.412912096], [120.52619341304019, 31.412821632], [120.52629870803639, 31.412821632], [120.52629870803639, 31.412912096]]]}}, {"type": "Feature", "properties": {"area_ha": 0.0, "mean": null}, "geometry": {"type": "Polygon", "coordinates": [[[120.52619341304019, 31.412821632], [120.52608811804397, 31.412731168], [120.52619341304019, 31.412731168], [120.52619341304019, 31.412821632]]]}}, {"type": "Feature", "properties": {"area_ha": 0.0, "mean": null}, "geometry": {"type": "Polygon", "coordinates": [[[120.52492987308568, 31.41255024], [120.52482457808946, 31.412459776], [120.52492987308568, 31.412459776], [120.52492987308568, 31.41255024]]]}}, {"type": "Feature", "properties": {"area_ha": 0.01, "mean": 0.1211}, "geometry": {"type": "Polygon", "coordinates": [[[120.52598282304777, 31.41255024], [120.52577223305535, 31.412369312], [120.52598282304777, 31.412369312], [120.52598282304777, 31.41255024]]]}}, {"type": "Feature", "properties": {"area_ha": 0.01, "mean": 0.1056}, "geometry": {"type": "Polygon", "coordinates": [[[120.52471928309326, 31.411374208], [120.52450869310084, 31.411283744], [120.52471928309326, 31.411283744], [120.52471928309326, 31.411374208]]]}}, {"type": "Feature", "properties": {"area_ha": 0.0, "mean": null}, "geometry": {"type": "Polygon", "coordinates": [[[120.51366330849129, 31.41119328], [120.51355801349507, 31.411102816], [120.51366330849129, 31.411102816], [120.51366330849129, 31.41119328]]]}}, {"type": "Feature", "properties": {"area_ha": 0.0, "mean": null}, "geometry": {"type": "Polygon", "coordinates": [[[120.51387389848371, 31.41119328], [120.51376860348749, 31.411102816], [120.51387389848371, 31.411102816], [120.51387389848371, 31.41119328]]]}}, {"type": "Feature", "properties": {"area_ha": 0.0, "mean": null}, "geometry": {"type": "Polygon", "coordinates": [[[120.5241928081122, 31.411102816], [120.524087513116, 31.411012352], [120.5241928081122, 31.411012352], [120.5241928081122, 31.411102816]]]}}, {"type": "Feature", "properties": {"area_ha": 0.0, "mean": null}, "geometry": {"type": "Polygon", "coordinates": [[[120.51387389848371, 31.411012352], [120.51376860348749, 31.410921888], [120.51387389848371, 31.410921888], [120.51387389848371, 31.411012352]]]}}, {"type": "Feature", "properties": {"area_ha": 0.01, "mean": 0.1017}, "geometry": {"type": "Polygon", "coordinates": [[[120.52377162812738, 31.410921888], [120.52356103813496, 31.410831424], [120.52377162812738, 31.410831424], [120.52377162812738, 31.410921888]]]}}, {"type": "Feature", "properties": {"area_ha": 0.0, "mean": null}, "geometry": {"type": "Polygon", "coordinates": [[[120.52345574313874, 31.410831424], [120.52335044814254, 31.410740960000002], [120.52345574313874, 31.410740960000002], [120.52345574313874, 31.410831424]]]}}, {"type": "Feature", "properties": {"area_ha": 0.0, "mean": null}, "geometry": {"type": "Polygon", "coordinates": [[[120.52303456315391, 31.410740960000002], [120.5229292681577, 31.410650496], [120.52303456315391, 31.410650496], [120.52303456315391, 31.410740960000002]]]}}, {"type": "Feature", "properties": {"area_ha": 0.0, "mean": null}, "geometry": {"type": "Polygon", "coordinates": [[[120.5228239731615, 31.410650496], [120.52271867816528, 31.410560032], [120.5228239731615, 31.410560032], [120.5228239731615, 31.410650496]]]}}, {"type": "Feature", "properties": {"area_ha": 0.0, "mean": null}, "geometry": {"type": "Polygon", "coordinates": [[[120.52250808817286, 31.410469568], [120.52240279317665, 31.410379104], [120.52250808817286, 31.410379104], [120.52250808817286, 31.410469568]]]}}, {"type": "Feature", "properties": {"area_ha": 0.0, "mean": null}, "geometry": {"type": "Polygon", "coordinates": [[[120.52229749818045, 31.410379104], [120.52219220318423, 31.41028864], [120.52229749818045, 31.41028864], [120.52229749818045, 31.410379104]]]}}, {"type": "Feature", "properties": {"area_ha": 0.01, "mean": 0.11}, "geometry": {"type": "Polygon", "coordinates": [[[120.52208690818803, 31.41028864], [120.52187631819561, 31.410107712], [120.52208690818803, 31.410107712], [120.52208690818803, 31.41028864]]]}}, {"type": "Feature", "properties": {"area_ha": 0.0, "mean": null}, "geometry": {"type": "Polygon", "coordinates": [[[120.52187631819561, 31.410017248], [120.52177102319939, 31.409926784], [120.52187631819561, 31.409926784], [120.52187631819561, 31.410017248]]]}}, {"type": "Feature", "properties": {"area_ha": 0.0, "mean": null}, "geometry": {"type": "Polygon", "coordinates": [[[120.51366330849129, 31.40621776], [120.51355801349507, 31.406127296], [120.51366330849129, 31.406127296], [120.51366330849129, 31.40621776]]]}}, {"type": "Feature", "properties": {"area_ha": 0.0, "mean": null}, "geometry": {"type": "Polygon", "coordinates": [[[120.51355801349507, 31.406127296], [120.51345271849887, 31.406036832], [120.51355801349507, 31.406036832], [120.51355801349507, 31.406127296]]]}}, {"type": "Feature", "properties": {"area_ha": 0.0, "mean": null}, "geometry": {"type": "Polygon", "coordinates": [[[120.51334742350265, 31.405946368], [120.51324212850645, 31.405855904], [120.51334742350265, 31.405855904], [120.51334742350265, 31.405946368]]]}}, {"type": "Feature", "properties": {"area_ha": 0.0, "mean": null}, "geometry": {"type": "Polygon", "coordinates": [[[120.51197858855194, 31.405222656], [120.51187329355572, 31.405132192], [120.51197858855194, 31.405132192], [120.51197858855194, 31.405222656]]]}}]}