{"type": "FeatureCollection", "features": [{"type": "Feature", "properties": {"name": "黄埭镇水体边界 (JRC参考+S2 10m细化)"}, "geometry": {"type": "MultiPolygon", "coordinates": [[[[120.51229447354056, 31.405222656], [120.51187329355572, 31.404951264], [120.51187329355572, 31.405222656], [120.51229447354056, 31.405222656]]], [[[120.51334742350265, 31.405855904], [120.51324212850645, 31.405855904], [120.51334742350265, 31.405946368], [120.51334742350265, 31.405855904]]], [[[120.51345271849887, 31.406036832], [120.51345271849887, 31.405946368], [120.51334742350265, 31.405946368], [120.51345271849887, 31.406036832]]], [[[120.51355801349507, 31.406127296], [120.51355801349507, 31.406036832], [120.51345271849887, 31.406036832], [120.51355801349507, 31.406127296]]], [[[120.51366330849129, 31.406127296], [120.51355801349507, 31.406127296], [120.51366330849129, 31.40621776], [120.51366330849129, 31.406127296]]], [[[120.5172433383624, 31.407212864], [120.51629568339652, 31.4071224], [120.51713804336619, 31.407484256], [120.5172433383624, 31.407212864]]], [[[120.51387389848371, 31.410921888], [120.51355801349507, 31.410740960000002], [120.51345271849887, 31.411102816], [120.51387389848371, 31.410921888]]], [[[120.51513743843822, 31.413364416], [120.51461096345717, 31.413635808], [120.51524273343442, 31.413635808], [120.51513743843822, 31.413364416]]], [[[120.51671686338135, 31.41888272], [120.51650627338894, 31.418973184], [120.51692745337377, 31.41933504], [120.51671686338135, 31.41888272]]], [[[120.51713804336619, 31.434352064], [120.51755922335103, 31.432814176], [120.51692745337377, 31.432814176], [120.51713804336619, 31.434352064]]], [[[120.51713804336619, 31.434804384], [120.51587450341168, 31.435528096], [120.51713804336619, 31.43561856], [120.51713804336619, 31.434804384]]], [[[120.50555559378317, 31.439508512], [120.50523970879455, 31.439418048], [120.50523970879455, 31.439960832], [120.50555559378317, 31.439508512]]], [[[120.49734258407885, 31.445660064000002], [120.49723728908265, 31.445479136], [120.49702669909023, 31.4455696], [120.49734258407885, 31.445660064000002]]], [[[120.49597374912813, 31.45552064], [120.4955525691433, 31.455430176], [120.49586845413192, 31.455701568000002], [120.49597374912813, 31.45552064]]], [[[120.49186724427597, 31.452625792], [120.4955525691433, 31.45823456], [120.49765846906747, 31.459229664000002], [120.49186724427597, 31.452625792]]], [[[120.51060975360122, 31.458325024], [120.51082034359364, 31.458053632000002], [120.50997798362397, 31.457963168], [120.51060975360122, 31.458325024]]], [[[120.5047132338135, 31.458505952], [120.50439734882487, 31.458958272], [120.50534500379075, 31.458958272], [120.5047132338135, 31.458505952]]], [[[120.5069244287339, 31.459410592], [120.51018857361638, 31.461491264], [120.51060975360122, 31.46094848], [120.5069244287339, 31.459410592]]], [[[120.51334742350265, 31.46321008], [120.51324212850645, 31.462938688], [120.51292624351782, 31.463119616], [120.51334742350265, 31.46321008]]], [[[120.51366330849129, 31.46501936], [120.51334742350265, 31.465109824], [120.51376860348749, 31.465290752], [120.51366330849129, 31.46501936]]], [[[120.51597979840788, 31.466376320000002], [120.5148215534496, 31.466195392], [120.51587450341168, 31.466557248], [120.51597979840788, 31.466376320000002]]], [[[120.51176799855952, 31.466557248], [120.51176799855952, 31.466466784], [120.51166270356332, 31.466466784], [120.51176799855952, 31.466557248]]], [[[120.51187329355572, 31.466557248], [120.51176799855952, 31.466557248], [120.51187329355572, 31.466647712], [120.51187329355572, 31.466557248]]], [[[120.5149268484458, 31.46682864], [120.51429507846854, 31.466647712], [120.5148215534496, 31.467009568], [120.5149268484458, 31.46682864]]], [[[120.51892805830175, 31.407755648], [120.51892805830175, 31.40757472], [120.51776981334345, 31.407393792], [120.51892805830175, 31.407755648]]], [[[120.52113925322215, 31.408388896], [120.52082336823351, 31.408298432], [120.52113925322215, 31.40847936], [120.52113925322215, 31.408388896]]], [[[120.52124454821835, 31.408569824], [120.52124454821835, 31.40847936], [120.52113925322215, 31.40847936], [120.52124454821835, 31.408569824]]], [[[120.52156043320699, 31.408750752], [120.52156043320699, 31.408660288], [120.52124454821835, 31.408569824], [120.52156043320699, 31.408750752]]], [[[120.52166572820319, 31.408750752], [120.52156043320699, 31.408750752], [120.52166572820319, 31.408841216], [120.52166572820319, 31.408750752]]], [[[120.52166572820319, 31.410198176], [120.52482457808946, 31.411283744], [120.52166572820319, 31.408841216], [120.52166572820319, 31.410198176]]], [[[120.52492987308568, 31.41255024], [120.52482457808946, 31.412369312], [120.52429810310842, 31.412731168], [120.52492987308568, 31.41255024]]], [[[120.52545634806673, 31.41209792], [120.53166875284306, 31.416892512], [120.53440642274451, 31.416802048], [120.52545634806673, 31.41209792]]], [[[120.52619341304019, 31.41481184], [120.52566693805915, 31.41571648], [120.52650929802881, 31.415897408], [120.52619341304019, 31.41481184]]], [[[120.51766451834723, 31.422591744], [120.51755922335103, 31.422410816], [120.51734863335861, 31.42250128], [120.51766451834723, 31.422591744]]], [[[120.53714409264595, 31.42476288], [120.53409053775589, 31.424672416], [120.53345876777863, 31.4252152], [120.53714409264595, 31.42476288]]], [[[120.52850990295678, 31.425938912], [120.52903637793784, 31.426300768], [120.53029991789235, 31.425938912], [120.52850990295678, 31.425938912]]], [[[120.51829628832449, 31.42792912], [120.51850687831691, 31.426210304], [120.51766451834723, 31.426843552], [120.51829628832449, 31.42792912]]], [[[120.52377162812738, 31.427295872000002], [120.52313985815012, 31.427205408], [120.52345574313874, 31.427657728], [120.52377162812738, 31.427295872000002]]], [[[120.52187631819561, 31.427386336], [120.51924394329038, 31.427657728], [120.52019159825626, 31.431819072], [120.52187631819561, 31.427386336]]], [[[120.5365123226687, 31.452444864], [120.5365123226687, 31.451178368], [120.53619643768006, 31.451721152], [120.5365123226687, 31.452444864]]], [[[120.53619643768006, 31.452716256000002], [120.53598584768764, 31.45280672], [120.53630173267628, 31.453439968], [120.53619643768006, 31.452716256000002]]], [[[120.53566996269902, 31.455339712], [120.53524878271418, 31.456515744], [120.5353540777104, 31.457510848000002], [120.53566996269902, 31.455339712]]], [[[120.53524878271418, 31.458053632000002], [120.53524878271418, 31.457510848000002], [120.53493289772555, 31.458053632000002], [120.53524878271418, 31.458053632000002]]], [[[120.53493289772555, 31.4591392], [120.53472230773313, 31.459229664000002], [120.53482760272935, 31.460315232], [120.53493289772555, 31.4591392]]], [[[120.52619341304019, 31.464024256000002], [120.52556164306293, 31.464476576], [120.52629870803639, 31.464567040000002], [120.52619341304019, 31.464024256000002]]], [[[120.53377465276725, 31.46547168], [120.53398524275967, 31.46411472], [120.53272170280516, 31.466285856], [120.53377465276725, 31.46547168]]], [[[120.53156345784686, 31.466557248], [120.52893108294163, 31.466919104000002], [120.53135286785444, 31.467914208], [120.53156345784686, 31.466557248]]], [[[120.52250808817286, 31.468728384000002], [120.5229292681577, 31.46999488], [120.52471928309326, 31.466104928], [120.52250808817286, 31.468728384000002]]], [[[120.56115135178166, 31.41481184], [120.56115135178166, 31.414721376], [120.56104605678544, 31.414721376], [120.56115135178166, 31.41481184]]], [[[120.53461701273693, 31.416802048], [120.5354593727066, 31.416982976], [120.53693350265353, 31.41662112], [120.53893410758151, 31.416892512], [120.53714409264595, 31.416440192], [120.53461701273693, 31.416802048]]], [[[120.54977949219106, 31.41662112], [120.54304061243367, 31.422139424], [120.56104605678544, 31.41481184], [120.54977949219106, 31.41662112]]], [[[120.54230354746021, 31.422410816], [120.53967117255497, 31.41707344], [120.5411453025019, 31.42023968], [120.54230354746021, 31.422410816]]], [[[120.5617831217589, 31.42204896], [120.56136194177408, 31.421958496000002], [120.5616778267627, 31.422229888], [120.5617831217589, 31.42204896]]], [[[120.5377758626232, 31.424581952], [120.53756527263079, 31.424672416], [120.53788115761941, 31.42476288], [120.5377758626232, 31.424581952]]], [[[120.54862124723276, 31.428924224], [120.54767359226688, 31.428924224], [120.54756829727066, 31.429195616], [120.54862124723276, 31.428924224]]], [[[120.54051353252464, 31.429919328], [120.54030294253222, 31.430009792], [120.54061882752086, 31.430281184000002], [120.54051353252464, 31.429919328]]], [[[120.54630475731615, 31.430100256], [120.54514651235785, 31.430552576], [120.54598887232753, 31.430733504], [120.54630475731615, 31.430100256]]], [[[120.54051353252464, 31.430733504], [120.54040823752844, 31.430371648], [120.54019764753602, 31.430462112], [120.54051353252464, 31.430733504]]], [[[120.54504121736164, 31.431004896], [120.54472533237302, 31.430914432], [120.54472533237302, 31.431366752], [120.54504121736164, 31.431004896]]], [[[120.54419885739196, 31.431457216000002], [120.54377767740714, 31.431457216000002], [120.54409356239576, 31.431638144], [120.54419885739196, 31.431457216000002]]], [[[120.54367238241092, 31.431728608], [120.54356708741471, 31.43154768], [120.5433564974223, 31.431638144], [120.54367238241092, 31.431728608]]], [[[120.54030294253222, 31.431366752], [120.53977646755118, 31.432542784], [120.54135589249432, 31.432361856], [120.54030294253222, 31.431366752]]], [[[120.53967117255497, 31.434532992], [120.53946058256255, 31.434623456], [120.53977646755118, 31.435709024], [120.53967117255497, 31.434532992]]], [[[120.53956587755876, 31.436885056], [120.53946058256255, 31.436704128], [120.53924999257013, 31.436794592000002], [120.53956587755876, 31.436885056]]], [[[120.56009840181956, 31.437246912], [120.55988781182715, 31.437337376000002], [120.56030899181198, 31.437518304], [120.56009840181956, 31.437246912]]], [[[120.56230959673996, 31.43923712], [120.56220430174375, 31.439689440000002], [120.56304666171343, 31.439779904], [120.56230959673996, 31.43923712]]], [[[120.5388288125853, 31.441408256], [120.53893410758151, 31.439418048], [120.53840763260045, 31.440051296], [120.5388288125853, 31.441408256]]], [[[120.55020067217589, 31.440232224], [120.54872654222896, 31.440775008], [120.55030596717211, 31.440413152], [120.55020067217589, 31.440232224]]], [[[120.53840763260045, 31.441860576], [120.53767056762699, 31.443941248], [120.53788115761941, 31.447469344], [120.53840763260045, 31.441860576]]], [[[120.53946058256255, 31.445931456], [120.53893410758151, 31.445207744], [120.53861822259287, 31.445298208], [120.53946058256255, 31.445931456]]], [[[120.54156648248674, 31.445750528], [120.5399870575436, 31.445931456], [120.54146118749053, 31.446112384], [120.54156648248674, 31.445750528]]], [[[120.5367229126611, 31.4500928], [120.5365123226687, 31.450183264], [120.53682820765732, 31.450454656], [120.5367229126611, 31.4500928]]], [[[120.58705392084913, 31.42159664], [120.58621156087946, 31.419696896], [120.58389507096285, 31.42114432], [120.58705392084913, 31.42159664]]], [[[120.58473743093253, 31.423496384], [120.58400036595907, 31.42431056], [120.58494802092494, 31.424401024], [120.58473743093253, 31.423496384]]], [[[120.58642215087188, 31.42431056], [120.58694862585293, 31.424943808000002], [120.58758039583017, 31.423677312], [120.58642215087188, 31.42431056]]], [[[120.59495104556483, 31.42566752], [120.59495104556483, 31.424129632], [120.59442457058378, 31.424853344], [120.59495104556483, 31.42566752]]], [[[120.585474495906, 31.424853344], [120.58484272592874, 31.42476288], [120.58505331592116, 31.4252152], [120.585474495906, 31.424853344]]], [[[120.58663274086429, 31.42566752], [120.58600097088704, 31.426210304], [120.5867380358605, 31.426119840000002], [120.58663274086429, 31.42566752]]], [[[120.59400339059894, 31.426119840000002], [120.59326632562548, 31.426210304], [120.59316103062928, 31.426481696], [120.59400339059894, 31.426119840000002]]], [[[120.58842275579985, 31.426119840000002], [120.58736980583775, 31.425938912], [120.58768569082639, 31.426753088], [120.58842275579985, 31.426119840000002]]], [[[120.59221337566339, 31.426481696], [120.59179219567855, 31.426210304], [120.59200278567097, 31.426843552], [120.59221337566339, 31.426481696]]], [[[120.58947570576194, 31.426662624], [120.5889492307809, 31.426481696], [120.5888439357847, 31.426753088], [120.58947570576194, 31.426662624]]], [[[120.59031806573162, 31.42702448], [120.58979159075058, 31.427295872000002], [120.59052865572404, 31.427657728], [120.59031806573162, 31.42702448]]], [[[120.57999915610311, 31.42792912], [120.57957797611827, 31.428200512], [120.58042033608795, 31.428471904000002], [120.57999915610311, 31.42792912]]], [[[120.58852805079606, 31.428562368], [120.58842275579985, 31.428200512], [120.58789628081881, 31.42838144], [120.58852805079606, 31.428562368]]], [[[120.57799855117514, 31.428562368], [120.57810384617135, 31.429557472], [120.57905150113723, 31.429376544], [120.57799855117514, 31.428562368]]], [[[120.5867380358605, 31.429195616], [120.58652744586809, 31.42928608], [120.58684333085671, 31.429376544], [120.5867380358605, 31.429195616]]], [[[120.58758039583017, 31.429919328], [120.58747510083397, 31.429647936000002], [120.58726451084155, 31.4297384], [120.58758039583017, 31.429919328]]], [[[120.57947268112207, 31.431185824], [120.57915679613343, 31.431366752], [120.57968327111449, 31.43154768], [120.57947268112207, 31.431185824]]], [[[120.5946351605762, 31.431276288], [120.59337162062168, 31.431457216000002], [120.59442457058378, 31.431819072], [120.5946351605762, 31.431276288]]], [[[120.56473138165278, 31.432361856], [120.56473138165278, 31.432271392], [120.56420490667172, 31.432271392], [120.56473138165278, 31.432361856]]], [[[120.59631988051555, 31.434985312000002], [120.59452986557999, 31.434894848], [120.59621458551933, 31.435347168], [120.59631988051555, 31.434985312000002]]], [[[120.59926814040941, 31.436432736], [120.59916284541319, 31.436885056], [120.59979461539045, 31.4365232], [120.59926814040941, 31.436432736]]], [[[120.60337464526157, 31.437608768], [120.60316405526915, 31.437518304], [120.60305876027294, 31.437789696], [120.60337464526157, 31.437608768]]], [[[120.56336254670205, 31.440232224], [120.56346784169826, 31.440955936], [120.56409961167552, 31.440503616], [120.56336254670205, 31.440232224]]], [[[120.5662055115997, 31.443669856], [120.56610021660349, 31.443850784000002], [120.56683728157695, 31.444031712], [120.5662055115997, 31.443669856]]]]}}]}