{"type": "FeatureCollection", "features": [{"type": "Feature", "properties": {"area_ha": 0.0, "mean": null}, "geometry": {"type": "Polygon", "coordinates": [[[120.52250808817286, 31.46909024], [120.52240279317665, 31.468999776], [120.52250808817286, 31.468999776], [120.52250808817286, 31.46909024]]]}}, {"type": "Feature", "properties": {"area_ha": 0.02, "mean": 0.119}, "geometry": {"type": "Polygon", "coordinates": [[[120.51861217331312, 31.46909024], [120.51829628832449, 31.468999776], [120.51850687831691, 31.468909312], [120.51861217331312, 31.46909024]]]}}, {"type": "Feature", "properties": {"area_ha": 0.0, "mean": null}, "geometry": {"type": "Polygon", "coordinates": [[[120.52840460796058, 31.468276064], [120.52829931296438, 31.4681856], [120.52840460796058, 31.4681856], [120.52840460796058, 31.468276064]]]}}, {"type": "Feature", "properties": {"area_ha": 0.0, "mean": null}, "geometry": {"type": "Polygon", "coordinates": [[[120.52819401796816, 31.468004672], [120.52808872297196, 31.467914208], [120.52819401796816, 31.467914208], [120.52819401796816, 31.468004672]]]}}, {"type": "Feature", "properties": {"area_ha": 0.0, "mean": null}, "geometry": {"type": "Polygon", "coordinates": [[[120.52808872297196, 31.467914208], [120.52798342797574, 31.467823744], [120.52808872297196, 31.467823744], [120.52808872297196, 31.467914208]]]}}, {"type": "Feature", "properties": {"area_ha": 0.0, "mean": null}, "geometry": {"type": "Polygon", "coordinates": [[[120.52777283798332, 31.46773328], [120.52766754298712, 31.467642816], [120.52777283798332, 31.467642816], [120.52777283798332, 31.46773328]]]}}, {"type": "Feature", "properties": {"area_ha": 0.0, "mean": null}, "geometry": {"type": "Polygon", "coordinates": [[[120.52703577300986, 31.467552352000002], [120.52693047801365, 31.467461888], [120.52703577300986, 31.467461888], [120.52703577300986, 31.467552352000002]]]}}, {"type": "Feature", "properties": {"area_ha": 0.0, "mean": null}, "geometry": {"type": "Polygon", "coordinates": [[[120.5398817625474, 31.446202848000002], [120.53977646755118, 31.446112384], [120.5398817625474, 31.446112384], [120.5398817625474, 31.446202848000002]]]}}, {"type": "Feature", "properties": {"area_ha": 0.0, "mean": null}, "geometry": {"type": "Polygon", "coordinates": [[[120.53861822259287, 31.440322688000002], [120.53851292759667, 31.440232224], [120.53861822259287, 31.440232224], [120.53861822259287, 31.440322688000002]]]}}, {"type": "Feature", "properties": {"area_ha": 0.04, "mean": 0.3323}, "geometry": {"type": "Polygon", "coordinates": [[[120.58515861091736, 31.434171136], [120.58473743093253, 31.434171136], [120.58505331592116, 31.433990208], [120.58515861091736, 31.434171136]]]}}, {"type": "Feature", "properties": {"area_ha": 0.04, "mean": 0.3419}, "geometry": {"type": "Polygon", "coordinates": [[[120.58494802092494, 31.43335696], [120.58452684094011, 31.432995104], [120.58505331592116, 31.433176032], [120.58494802092494, 31.43335696]]]}}, {"type": "Feature", "properties": {"area_ha": 0.02, "mean": 0.3607}, "geometry": {"type": "Polygon", "coordinates": [[[120.58915982077332, 31.432633248000002], [120.5888439357847, 31.432542784], [120.5890545257771, 31.43245232], [120.58915982077332, 31.432633248000002]]]}}, {"type": "Feature", "properties": {"area_ha": 0.0, "mean": null}, "geometry": {"type": "Polygon", "coordinates": [[[120.51924394329038, 31.432000000000002], [120.51913864829417, 31.431909536], [120.51924394329038, 31.431909536], [120.51924394329038, 31.432000000000002]]]}}, {"type": "Feature", "properties": {"area_ha": 0.0, "mean": null}, "geometry": {"type": "Polygon", "coordinates": [[[120.51787510833965, 31.43154768], [120.51776981334345, 31.431457216000002], [120.51787510833965, 31.431457216000002], [120.51787510833965, 31.43154768]]]}}, {"type": "Feature", "properties": {"area_ha": 0.01, "mean": 0.312}, "geometry": {"type": "Polygon", "coordinates": [[[120.51924394329038, 31.431457216000002], [120.51903335329796, 31.431276288], [120.51924394329038, 31.431276288], [120.51924394329038, 31.431457216000002]]]}}, {"type": "Feature", "properties": {"area_ha": 0.0, "mean": null}, "geometry": {"type": "Polygon", "coordinates": [[[120.59863637043215, 31.431004896], [120.59853107543594, 31.430914432], [120.59863637043215, 31.430914432], [120.59863637043215, 31.431004896]]]}}, {"type": "Feature", "properties": {"area_ha": 0.0, "mean": null}, "geometry": {"type": "Polygon", "coordinates": [[[120.51892805830175, 31.429195616], [120.51882276330554, 31.429105152], [120.51892805830175, 31.429105152], [120.51892805830175, 31.429195616]]]}}, {"type": "Feature", "properties": {"area_ha": 0.01, "mean": 0.2166}, "geometry": {"type": "Polygon", "coordinates": [[[120.57199673639121, 31.429014688], [120.571891441395, 31.42883376], [120.57199673639121, 31.42883376], [120.57199673639121, 31.429014688]]]}}, {"type": "Feature", "properties": {"area_ha": 0.0, "mean": null}, "geometry": {"type": "Polygon", "coordinates": [[[120.5206127782411, 31.428562368], [120.52050748324488, 31.428471904000002], [120.5206127782411, 31.428471904000002], [120.5206127782411, 31.428562368]]]}}, {"type": "Feature", "properties": {"area_ha": 0.0, "mean": null}, "geometry": {"type": "Polygon", "coordinates": [[[120.57262850636846, 31.428200512], [120.57252321137226, 31.428110048], [120.57262850636846, 31.428110048], [120.57262850636846, 31.428200512]]]}}, {"type": "Feature", "properties": {"area_ha": 0.0, "mean": null}, "geometry": {"type": "Polygon", "coordinates": [[[120.52187631819561, 31.427657728], [120.52177102319939, 31.427567264], [120.52187631819561, 31.427567264], [120.52187631819561, 31.427657728]]]}}, {"type": "Feature", "properties": {"area_ha": 0.0, "mean": null}, "geometry": {"type": "Polygon", "coordinates": [[[120.57378675132676, 31.427657728], [120.57368145633056, 31.427567264], [120.57378675132676, 31.427567264], [120.57378675132676, 31.427657728]]]}}, {"type": "Feature", "properties": {"area_ha": 0.03, "mean": 0.1843}, "geometry": {"type": "Polygon", "coordinates": [[[120.57705089620926, 31.427386336], [120.576419126232, 31.427295872000002], [120.57705089620926, 31.427295872000002], [120.57705089620926, 31.427386336]]]}}, {"type": "Feature", "properties": {"area_ha": 0.01, "mean": 0.1738}, "geometry": {"type": "Polygon", "coordinates": [[[120.57620853623958, 31.427295872000002], [120.57589265125095, 31.427205408], [120.57620853623958, 31.427205408], [120.57620853623958, 31.427295872000002]]]}}, {"type": "Feature", "properties": {"area_ha": 0.01, "mean": 0.2417}, "geometry": {"type": "Polygon", "coordinates": [[[120.57568206125853, 31.427205408], [120.57547147126611, 31.427114944], [120.57568206125853, 31.427114944], [120.57568206125853, 31.427205408]]]}}, {"type": "Feature", "properties": {"area_ha": 0.01, "mean": 0.2021}, "geometry": {"type": "Polygon", "coordinates": [[[120.57536617626991, 31.427114944], [120.57515558627749, 31.42702448], [120.57536617626991, 31.42702448], [120.57536617626991, 31.427114944]]]}}, {"type": "Feature", "properties": {"area_ha": 0.0, "mean": null}, "geometry": {"type": "Polygon", "coordinates": [[[120.57494499628507, 31.42702448], [120.57483970128887, 31.426934016], [120.57494499628507, 31.426934016], [120.57494499628507, 31.42702448]]]}}, {"type": "Feature", "properties": {"area_ha": 0.0, "mean": null}, "geometry": {"type": "Polygon", "coordinates": [[[120.54072412251706, 31.425124736], [120.54061882752086, 31.425034272], [120.54072412251706, 31.425034272], [120.54072412251706, 31.425124736]]]}}, {"type": "Feature", "properties": {"area_ha": 0.01, "mean": 0.3382}, "geometry": {"type": "Polygon", "coordinates": [[[120.5935822106141, 31.422410816], [120.5934769156179, 31.422229888], [120.5935822106141, 31.422229888], [120.5935822106141, 31.422410816]]]}}, {"type": "Feature", "properties": {"area_ha": 0.0, "mean": null}, "geometry": {"type": "Polygon", "coordinates": [[[120.5934769156179, 31.422229888], [120.59337162062168, 31.422139424], [120.5934769156179, 31.422139424], [120.5934769156179, 31.422229888]]]}}]}