{"type": "FeatureCollection", "features": [{"type": "Feature", "properties": {"area_ha": 0.0, "mean": null}, "geometry": {"type": "Polygon", "coordinates": [[[120.52134984321457, 31.469723488], [120.52124454821835, 31.469633024], [120.52134984321457, 31.469633024], [120.52134984321457, 31.469723488]]]}}, {"type": "Feature", "properties": {"area_ha": 0.0, "mean": null}, "geometry": {"type": "Polygon", "coordinates": [[[120.5206127782411, 31.469633024], [120.52050748324488, 31.46954256], [120.5206127782411, 31.46954256], [120.5206127782411, 31.469633024]]]}}, {"type": "Feature", "properties": {"area_ha": 0.0, "mean": null}, "geometry": {"type": "Polygon", "coordinates": [[[120.52177102319939, 31.469633024], [120.52166572820319, 31.46954256], [120.52177102319939, 31.46954256], [120.52177102319939, 31.469633024]]]}}, {"type": "Feature", "properties": {"area_ha": 0.0, "mean": null}, "geometry": {"type": "Polygon", "coordinates": [[[120.52040218824868, 31.46954256], [120.52029689325246, 31.469452096], [120.52040218824868, 31.469452096], [120.52040218824868, 31.46954256]]]}}, {"type": "Feature", "properties": {"area_ha": 0.0, "mean": null}, "geometry": {"type": "Polygon", "coordinates": [[[120.52219220318423, 31.469452096], [120.52208690818803, 31.469361632000002], [120.52219220318423, 31.469361632000002], [120.52219220318423, 31.469452096]]]}}, {"type": "Feature", "properties": {"area_ha": 0.0, "mean": null}, "geometry": {"type": "Polygon", "coordinates": [[[120.52229749818045, 31.469361632000002], [120.52219220318423, 31.469271168000002], [120.52229749818045, 31.469271168000002], [120.52229749818045, 31.469361632000002]]]}}, {"type": "Feature", "properties": {"area_ha": 0.0, "mean": null}, "geometry": {"type": "Polygon", "coordinates": [[[120.52240279317665, 31.469271168000002], [120.52229749818045, 31.469180704], [120.52240279317665, 31.469180704], [120.52240279317665, 31.469271168000002]]]}}, {"type": "Feature", "properties": {"area_ha": 0.01, "mean": 0.1732}, "geometry": {"type": "Polygon", "coordinates": [[[120.52250808817286, 31.469180704], [120.52240279317665, 31.468999776], [120.52250808817286, 31.468999776], [120.52250808817286, 31.469180704]]]}}, {"type": "Feature", "properties": {"area_ha": 0.02, "mean": 0.119}, "geometry": {"type": "Polygon", "coordinates": [[[120.51861217331312, 31.46909024], [120.51829628832449, 31.468999776], [120.51850687831691, 31.468909312], [120.51861217331312, 31.46909024]]]}}, {"type": "Feature", "properties": {"area_ha": 0.0, "mean": null}, "geometry": {"type": "Polygon", "coordinates": [[[120.52261338316907, 31.468999776], [120.52250808817286, 31.468909312], [120.52261338316907, 31.468909312], [120.52261338316907, 31.468999776]]]}}, {"type": "Feature", "properties": {"area_ha": 0.01, "mean": 0.2412}, "geometry": {"type": "Polygon", "coordinates": [[[120.52956285291889, 31.468999776], [120.52924696793025, 31.468909312], [120.52956285291889, 31.468909312], [120.52956285291889, 31.468999776]]]}}, {"type": "Feature", "properties": {"area_ha": 0.0, "mean": null}, "geometry": {"type": "Polygon", "coordinates": [[[120.52840460796058, 31.468276064], [120.52829931296438, 31.4681856], [120.52840460796058, 31.4681856], [120.52840460796058, 31.468276064]]]}}, {"type": "Feature", "properties": {"area_ha": 0.0, "mean": null}, "geometry": {"type": "Polygon", "coordinates": [[[120.52819401796816, 31.468004672], [120.52808872297196, 31.467914208], [120.52819401796816, 31.467914208], [120.52819401796816, 31.468004672]]]}}, {"type": "Feature", "properties": {"area_ha": 0.0, "mean": null}, "geometry": {"type": "Polygon", "coordinates": [[[120.52808872297196, 31.467914208], [120.52798342797574, 31.467823744], [120.52808872297196, 31.467823744], [120.52808872297196, 31.467914208]]]}}, {"type": "Feature", "properties": {"area_ha": 0.0, "mean": null}, "geometry": {"type": "Polygon", "coordinates": [[[120.52798342797574, 31.467823744], [120.52787813297954, 31.46773328], [120.52798342797574, 31.46773328], [120.52798342797574, 31.467823744]]]}}, {"type": "Feature", "properties": {"area_ha": 0.01, "mean": 0.3418}, "geometry": {"type": "Polygon", "coordinates": [[[120.52777283798332, 31.46773328], [120.5274569529947, 31.467642816], [120.52777283798332, 31.467642816], [120.52777283798332, 31.46773328]]]}}, {"type": "Feature", "properties": {"area_ha": 0.0, "mean": null}, "geometry": {"type": "Polygon", "coordinates": [[[120.5273516579985, 31.467642816], [120.52724636300228, 31.467552352000002], [120.5273516579985, 31.467552352000002], [120.5273516579985, 31.467642816]]]}}, {"type": "Feature", "properties": {"area_ha": 0.0, "mean": null}, "geometry": {"type": "Polygon", "coordinates": [[[120.53008932789993, 31.467642816], [120.52998403290371, 31.467552352000002], [120.53008932789993, 31.467552352000002], [120.53008932789993, 31.467642816]]]}}, {"type": "Feature", "properties": {"area_ha": 0.0, "mean": null}, "geometry": {"type": "Polygon", "coordinates": [[[120.52703577300986, 31.467552352000002], [120.52693047801365, 31.467461888], [120.52703577300986, 31.467461888], [120.52703577300986, 31.467552352000002]]]}}, {"type": "Feature", "properties": {"area_ha": 0.01, "mean": 0.1798}, "geometry": {"type": "Polygon", "coordinates": [[[120.5035549888552, 31.45959152], [120.50334439886278, 31.459501056], [120.5035549888552, 31.459501056], [120.5035549888552, 31.45959152]]]}}, {"type": "Feature", "properties": {"area_ha": 0.0, "mean": null}, "geometry": {"type": "Polygon", "coordinates": [[[120.53724938764216, 31.447288416], [120.53714409264595, 31.447197952], [120.53724938764216, 31.447197952], [120.53724938764216, 31.447288416]]]}}, {"type": "Feature", "properties": {"area_ha": 0.0, "mean": null}, "geometry": {"type": "Polygon", "coordinates": [[[120.5398817625474, 31.446202848000002], [120.53977646755118, 31.446112384], [120.5398817625474, 31.446112384], [120.5398817625474, 31.446202848000002]]]}}, {"type": "Feature", "properties": {"area_ha": 0.01, "mean": 0.1379}, "geometry": {"type": "Polygon", "coordinates": [[[120.53788115761941, 31.444122176], [120.5377758626232, 31.443941248], [120.53788115761941, 31.443941248], [120.53788115761941, 31.444122176]]]}}, {"type": "Feature", "properties": {"area_ha": 0.0, "mean": null}, "geometry": {"type": "Polygon", "coordinates": [[[120.53809174761183, 31.442946144], [120.53798645261563, 31.44285568], [120.53809174761183, 31.44285568], [120.53809174761183, 31.442946144]]]}}, {"type": "Feature", "properties": {"area_ha": 0.01, "mean": 0.1179}, "geometry": {"type": "Polygon", "coordinates": [[[120.53840763260045, 31.441408256], [120.53830233760425, 31.441227328], [120.53840763260045, 31.441227328], [120.53840763260045, 31.441408256]]]}}, {"type": "Feature", "properties": {"area_ha": 0.01, "mean": 0.1724}, "geometry": {"type": "Polygon", "coordinates": [[[120.53851292759667, 31.440955936], [120.53840763260045, 31.440775008], [120.53851292759667, 31.440775008], [120.53851292759667, 31.440955936]]]}}, {"type": "Feature", "properties": {"area_ha": 0.0, "mean": null}, "geometry": {"type": "Polygon", "coordinates": [[[120.53861822259287, 31.440322688000002], [120.53851292759667, 31.440232224], [120.53861822259287, 31.440232224], [120.53861822259287, 31.440322688000002]]]}}, {"type": "Feature", "properties": {"area_ha": 0.0, "mean": null}, "geometry": {"type": "Polygon", "coordinates": [[[120.5388288125853, 31.43923712], [120.53872351758909, 31.439146656000002], [120.5388288125853, 31.439146656000002], [120.5388288125853, 31.43923712]]]}}, {"type": "Feature", "properties": {"area_ha": 0.04, "mean": 0.3323}, "geometry": {"type": "Polygon", "coordinates": [[[120.58515861091736, 31.434171136], [120.58473743093253, 31.434171136], [120.58505331592116, 31.433990208], [120.58515861091736, 31.434171136]]]}}, {"type": "Feature", "properties": {"area_ha": 0.01, "mean": 0.1754}, "geometry": {"type": "Polygon", "coordinates": [[[120.51682215837756, 31.433809280000002], [120.51671686338135, 31.433628352], [120.51682215837756, 31.433628352], [120.51682215837756, 31.433809280000002]]]}}, {"type": "Feature", "properties": {"area_ha": 0.04, "mean": 0.3419}, "geometry": {"type": "Polygon", "coordinates": [[[120.58494802092494, 31.43335696], [120.58452684094011, 31.432995104], [120.58505331592116, 31.433176032], [120.58494802092494, 31.43335696]]]}}, {"type": "Feature", "properties": {"area_ha": 0.0, "mean": null}, "geometry": {"type": "Polygon", "coordinates": [[[120.5398817625474, 31.433085568], [120.53977646755118, 31.432995104], [120.5398817625474, 31.432995104], [120.5398817625474, 31.433085568]]]}}, {"type": "Feature", "properties": {"area_ha": 0.02, "mean": 0.3607}, "geometry": {"type": "Polygon", "coordinates": [[[120.58915982077332, 31.432633248000002], [120.5888439357847, 31.432542784], [120.5890545257771, 31.43245232], [120.58915982077332, 31.432633248000002]]]}}, {"type": "Feature", "properties": {"area_ha": 0.0, "mean": null}, "geometry": {"type": "Polygon", "coordinates": [[[120.51934923828658, 31.432090464], [120.51924394329038, 31.432000000000002], [120.51934923828658, 31.432000000000002], [120.51934923828658, 31.432090464]]]}}, {"type": "Feature", "properties": {"area_ha": 0.0, "mean": null}, "geometry": {"type": "Polygon", "coordinates": [[[120.51924394329038, 31.432000000000002], [120.51913864829417, 31.431909536], [120.51924394329038, 31.431909536], [120.51924394329038, 31.432000000000002]]]}}, {"type": "Feature", "properties": {"area_ha": 0.0, "mean": null}, "geometry": {"type": "Polygon", "coordinates": [[[120.51787510833965, 31.43154768], [120.51776981334345, 31.431457216000002], [120.51787510833965, 31.431457216000002], [120.51787510833965, 31.43154768]]]}}, {"type": "Feature", "properties": {"area_ha": 0.0, "mean": null}, "geometry": {"type": "Polygon", "coordinates": [[[120.51776981334345, 31.431457216000002], [120.51766451834723, 31.431366752], [120.51776981334345, 31.431366752], [120.51776981334345, 31.431457216000002]]]}}, {"type": "Feature", "properties": {"area_ha": 0.04, "mean": 0.2229}, "geometry": {"type": "Polygon", "coordinates": [[[120.51934923828658, 31.431457216000002], [120.51903335329796, 31.431276288], [120.51924394329038, 31.431185824], [120.51934923828658, 31.431457216000002]]]}}, {"type": "Feature", "properties": {"area_ha": 0.0, "mean": null}, "geometry": {"type": "Polygon", "coordinates": [[[120.59863637043215, 31.431004896], [120.59853107543594, 31.430914432], [120.59863637043215, 31.430914432], [120.59863637043215, 31.431004896]]]}}, {"type": "Feature", "properties": {"area_ha": 0.0, "mean": null}, "geometry": {"type": "Polygon", "coordinates": [[[120.5457782823351, 31.430281184000002], [120.5456729873389, 31.43019072], [120.5457782823351, 31.43019072], [120.5457782823351, 31.430281184000002]]]}}, {"type": "Feature", "properties": {"area_ha": 0.0, "mean": null}, "geometry": {"type": "Polygon", "coordinates": [[[120.51829628832449, 31.430100256], [120.51819099332829, 31.430009792], [120.51829628832449, 31.430009792], [120.51829628832449, 31.430100256]]]}}, {"type": "Feature", "properties": {"area_ha": 0.0, "mean": null}, "geometry": {"type": "Polygon", "coordinates": [[[120.52019159825626, 31.430100256], [120.52008630326004, 31.430009792], [120.52019159825626, 31.430009792], [120.52019159825626, 31.430100256]]]}}, {"type": "Feature", "properties": {"area_ha": 0.0, "mean": null}, "geometry": {"type": "Polygon", "coordinates": [[[120.56925906648976, 31.429647936000002], [120.56915377149356, 31.429557472], [120.56925906648976, 31.429557472], [120.56925906648976, 31.429647936000002]]]}}, {"type": "Feature", "properties": {"area_ha": 0.0, "mean": null}, "geometry": {"type": "Polygon", "coordinates": [[[120.51892805830175, 31.429195616], [120.51882276330554, 31.429105152], [120.51892805830175, 31.429105152], [120.51892805830175, 31.429195616]]]}}, {"type": "Feature", "properties": {"area_ha": 0.01, "mean": 0.3047}, "geometry": {"type": "Polygon", "coordinates": [[[120.54862124723276, 31.42928608], [120.54851595223654, 31.429014688], [120.54862124723276, 31.429014688], [120.54862124723276, 31.42928608]]]}}, {"type": "Feature", "properties": {"area_ha": 0.01, "mean": 0.2166}, "geometry": {"type": "Polygon", "coordinates": [[[120.57199673639121, 31.429105152], [120.571891441395, 31.42883376], [120.57199673639121, 31.42883376], [120.57199673639121, 31.429105152]]]}}, {"type": "Feature", "properties": {"area_ha": 0.01, "mean": 0.2273}, "geometry": {"type": "Polygon", "coordinates": [[[120.52029689325246, 31.428924224], [120.52019159825626, 31.428652832], [120.52029689325246, 31.428652832], [120.52029689325246, 31.428924224]]]}}, {"type": "Feature", "properties": {"area_ha": 0.0, "mean": null}, "geometry": {"type": "Polygon", "coordinates": [[[120.52040218824868, 31.428652832], [120.52029689325246, 31.428562368], [120.52040218824868, 31.428562368], [120.52040218824868, 31.428652832]]]}}, {"type": "Feature", "properties": {"area_ha": 0.01, "mean": 0.2607}, "geometry": {"type": "Polygon", "coordinates": [[[120.5206127782411, 31.428562368], [120.52040218824868, 31.428471904000002], [120.5206127782411, 31.428471904000002], [120.5206127782411, 31.428562368]]]}}, {"type": "Feature", "properties": {"area_ha": 0.0, "mean": null}, "geometry": {"type": "Polygon", "coordinates": [[[120.57231262137984, 31.428471904000002], [120.57220732638363, 31.42838144], [120.57231262137984, 31.42838144], [120.57231262137984, 31.428471904000002]]]}}, {"type": "Feature", "properties": {"area_ha": 0.0, "mean": null}, "geometry": {"type": "Polygon", "coordinates": [[[120.57241791637604, 31.42838144], [120.57231262137984, 31.428290976], [120.57241791637604, 31.428290976], [120.57241791637604, 31.42838144]]]}}, {"type": "Feature", "properties": {"area_ha": 0.0, "mean": null}, "geometry": {"type": "Polygon", "coordinates": [[[120.54767359226688, 31.428290976], [120.54756829727066, 31.428200512], [120.54767359226688, 31.428200512], [120.54767359226688, 31.428290976]]]}}, {"type": "Feature", "properties": {"area_ha": 0.0, "mean": null}, "geometry": {"type": "Polygon", "coordinates": [[[120.57252321137226, 31.428290976], [120.57241791637604, 31.428200512], [120.57252321137226, 31.428200512], [120.57252321137226, 31.428290976]]]}}, {"type": "Feature", "properties": {"area_ha": 0.0, "mean": null}, "geometry": {"type": "Polygon", "coordinates": [[[120.57262850636846, 31.428200512], [120.57252321137226, 31.428110048], [120.57262850636846, 31.428110048], [120.57262850636846, 31.428200512]]]}}, {"type": "Feature", "properties": {"area_ha": 0.0, "mean": null}, "geometry": {"type": "Polygon", "coordinates": [[[120.5206127782411, 31.428110048], [120.52050748324488, 31.428019584], [120.5206127782411, 31.428019584], [120.5206127782411, 31.428110048]]]}}, {"type": "Feature", "properties": {"area_ha": 0.0, "mean": null}, "geometry": {"type": "Polygon", "coordinates": [[[120.54756829727066, 31.428110048], [120.54746300227445, 31.428019584], [120.54756829727066, 31.428019584], [120.54756829727066, 31.428110048]]]}}, {"type": "Feature", "properties": {"area_ha": 0.0, "mean": null}, "geometry": {"type": "Polygon", "coordinates": [[[120.5730496863533, 31.42792912], [120.5729443913571, 31.427838656], [120.5730496863533, 31.427838656], [120.5730496863533, 31.42792912]]]}}, {"type": "Feature", "properties": {"area_ha": 0.01, "mean": 0.2585}, "geometry": {"type": "Polygon", "coordinates": [[[120.54051353252464, 31.42792912], [120.54040823752844, 31.427748192], [120.54051353252464, 31.427748192], [120.54051353252464, 31.42792912]]]}}, {"type": "Feature", "properties": {"area_ha": 0.0, "mean": null}, "geometry": {"type": "Polygon", "coordinates": [[[120.54872654222896, 31.427748192], [120.54862124723276, 31.427657728], [120.54872654222896, 31.427657728], [120.54872654222896, 31.427748192]]]}}, {"type": "Feature", "properties": {"area_ha": 0.0, "mean": null}, "geometry": {"type": "Polygon", "coordinates": [[[120.57357616133434, 31.427748192], [120.57347086633814, 31.427657728], [120.57357616133434, 31.427657728], [120.57357616133434, 31.427748192]]]}}, {"type": "Feature", "properties": {"area_ha": 0.0, "mean": null}, "geometry": {"type": "Polygon", "coordinates": [[[120.52187631819561, 31.427657728], [120.52177102319939, 31.427567264], [120.52187631819561, 31.427567264], [120.52187631819561, 31.427657728]]]}}, {"type": "Feature", "properties": {"area_ha": 0.01, "mean": 0.1732}, "geometry": {"type": "Polygon", "coordinates": [[[120.57378675132676, 31.427657728], [120.57357616133434, 31.427567264], [120.57378675132676, 31.427567264], [120.57378675132676, 31.427657728]]]}}, {"type": "Feature", "properties": {"area_ha": 0.0, "mean": null}, "geometry": {"type": "Polygon", "coordinates": [[[120.57389204632298, 31.427567264], [120.57378675132676, 31.4274768], [120.57389204632298, 31.4274768], [120.57389204632298, 31.427567264]]]}}, {"type": "Feature", "properties": {"area_ha": 0.0, "mean": null}, "geometry": {"type": "Polygon", "coordinates": [[[120.52303456315391, 31.4274768], [120.5229292681577, 31.427386336], [120.52303456315391, 31.427386336], [120.52303456315391, 31.4274768]]]}}, {"type": "Feature", "properties": {"area_ha": 0.0, "mean": null}, "geometry": {"type": "Polygon", "coordinates": [[[120.54714711728583, 31.4274768], [120.54704182228961, 31.427386336], [120.54714711728583, 31.427386336], [120.54714711728583, 31.4274768]]]}}, {"type": "Feature", "properties": {"area_ha": 0.03, "mean": 0.2082}, "geometry": {"type": "Polygon", "coordinates": [[[120.57705089620926, 31.427386336], [120.57652442122821, 31.427205408], [120.57705089620926, 31.427295872000002], [120.57705089620926, 31.427386336]]]}}, {"type": "Feature", "properties": {"area_ha": 0.02, "mean": 0.1614}, "geometry": {"type": "Polygon", "coordinates": [[[120.576419126232, 31.427295872000002], [120.57589265125095, 31.427205408], [120.576419126232, 31.427205408], [120.576419126232, 31.427295872000002]]]}}, {"type": "Feature", "properties": {"area_ha": 0.0, "mean": null}, "geometry": {"type": "Polygon", "coordinates": [[[120.54072412251706, 31.427205408], [120.54061882752086, 31.427114944], [120.54072412251706, 31.427114944], [120.54072412251706, 31.427205408]]]}}, {"type": "Feature", "properties": {"area_ha": 0.01, "mean": 0.2417}, "geometry": {"type": "Polygon", "coordinates": [[[120.57568206125853, 31.427205408], [120.57547147126611, 31.427114944], [120.57568206125853, 31.427114944], [120.57568206125853, 31.427205408]]]}}, {"type": "Feature", "properties": {"area_ha": 0.01, "mean": 0.2161}, "geometry": {"type": "Polygon", "coordinates": [[[120.57547147126611, 31.427114944], [120.57515558627749, 31.42702448], [120.57547147126611, 31.42702448], [120.57547147126611, 31.427114944]]]}}, {"type": "Feature", "properties": {"area_ha": 0.03, "mean": 0.209}, "geometry": {"type": "Polygon", "coordinates": [[[120.57515558627749, 31.42702448], [120.57452381630023, 31.426934016], [120.57515558627749, 31.426934016], [120.57515558627749, 31.42702448]]]}}, {"type": "Feature", "properties": {"area_ha": 0.0, "mean": null}, "geometry": {"type": "Polygon", "coordinates": [[[120.54082941751327, 31.425486592], [120.54072412251706, 31.425396128], [120.54082941751327, 31.425396128], [120.54082941751327, 31.425486592]]]}}, {"type": "Feature", "properties": {"area_ha": 0.0, "mean": null}, "geometry": {"type": "Polygon", "coordinates": [[[120.54072412251706, 31.425124736], [120.54061882752086, 31.425034272], [120.54072412251706, 31.425034272], [120.54072412251706, 31.425124736]]]}}, {"type": "Feature", "properties": {"area_ha": 0.0, "mean": null}, "geometry": {"type": "Polygon", "coordinates": [[[120.54061882752086, 31.424853344], [120.54051353252464, 31.42476288], [120.54061882752086, 31.42476288], [120.54061882752086, 31.424853344]]]}}, {"type": "Feature", "properties": {"area_ha": 0.0, "mean": null}, "geometry": {"type": "Polygon", "coordinates": [[[120.54040823752844, 31.424220096], [120.54030294253222, 31.424129632], [120.54040823752844, 31.424129632], [120.54040823752844, 31.424220096]]]}}, {"type": "Feature", "properties": {"area_ha": 0.0, "mean": null}, "geometry": {"type": "Polygon", "coordinates": [[[120.55020067217589, 31.424220096], [120.55009537717969, 31.424129632], [120.55020067217589, 31.424129632], [120.55020067217589, 31.424220096]]]}}, {"type": "Feature", "properties": {"area_ha": 0.0, "mean": null}, "geometry": {"type": "Polygon", "coordinates": [[[120.5935822106141, 31.42340592], [120.5934769156179, 31.423315456], [120.5935822106141, 31.423315456], [120.5935822106141, 31.42340592]]]}}, {"type": "Feature", "properties": {"area_ha": 0.0, "mean": null}, "geometry": {"type": "Polygon", "coordinates": [[[120.59337162062168, 31.422682208], [120.59326632562548, 31.422591744], [120.59337162062168, 31.422591744], [120.59337162062168, 31.422682208]]]}}, {"type": "Feature", "properties": {"area_ha": 0.02, "mean": 0.3255}, "geometry": {"type": "Polygon", "coordinates": [[[120.5935822106141, 31.422229888], [120.5934769156179, 31.422320352], [120.59326632562548, 31.422139424], [120.5935822106141, 31.422229888]]]}}, {"type": "Feature", "properties": {"area_ha": 0.0, "mean": null}, "geometry": {"type": "Polygon", "coordinates": [[[120.55051655716453, 31.420963392], [120.55041126216831, 31.420872928], [120.55051655716453, 31.420872928], [120.55051655716453, 31.420963392]]]}}, {"type": "Feature", "properties": {"area_ha": 0.0, "mean": null}, "geometry": {"type": "Polygon", "coordinates": [[[120.58621156087946, 31.420601536], [120.58610626588325, 31.420511072], [120.58621156087946, 31.420511072], [120.58621156087946, 31.420601536]]]}}, {"type": "Feature", "properties": {"area_ha": 0.0, "mean": null}, "geometry": {"type": "Polygon", "coordinates": [[[120.54104000750569, 31.420058752], [120.54093471250948, 31.419968288], [120.54104000750569, 31.419968288], [120.54104000750569, 31.420058752]]]}}, {"type": "Feature", "properties": {"area_ha": 0.01, "mean": 0.1762}, "geometry": {"type": "Polygon", "coordinates": [[[120.55072714715695, 31.419606432000002], [120.55062185216073, 31.41933504], [120.55072714715695, 31.41933504], [120.55072714715695, 31.419606432000002]]]}}, {"type": "Feature", "properties": {"area_ha": 0.0, "mean": null}, "geometry": {"type": "Polygon", "coordinates": [[[120.5513589171342, 31.418520864], [120.55125362213799, 31.418430400000002], [120.5513589171342, 31.418430400000002], [120.5513589171342, 31.418520864]]]}}, {"type": "Feature", "properties": {"area_ha": 0.0, "mean": null}, "geometry": {"type": "Polygon", "coordinates": [[[120.55146421213041, 31.418339936], [120.5513589171342, 31.418249472], [120.55146421213041, 31.418249472], [120.55146421213041, 31.418339936]]]}}, {"type": "Feature", "properties": {"area_ha": 0.01, "mean": 0.1431}, "geometry": {"type": "Polygon", "coordinates": [[[120.55156950712662, 31.418068544], [120.55146421213041, 31.417797152], [120.55156950712662, 31.417797152], [120.55156950712662, 31.418068544]]]}}, {"type": "Feature", "properties": {"area_ha": 0.01, "mean": 0.126}, "geometry": {"type": "Polygon", "coordinates": [[[120.55209598210766, 31.416802048], [120.55199068711146, 31.416530656], [120.55209598210766, 31.416530656], [120.55209598210766, 31.416802048]]]}}, {"type": "Feature", "properties": {"area_ha": 0.0, "mean": null}, "geometry": {"type": "Polygon", "coordinates": [[[120.55272775208492, 31.41662112], [120.5526224570887, 31.416530656], [120.55272775208492, 31.416530656], [120.55272775208492, 31.41662112]]]}}, {"type": "Feature", "properties": {"area_ha": 0.0, "mean": null}, "geometry": {"type": "Polygon", "coordinates": [[[120.55314893206976, 31.416530656], [120.55304363707354, 31.416440192], [120.55314893206976, 31.416440192], [120.55314893206976, 31.416530656]]]}}, {"type": "Feature", "properties": {"area_ha": 0.0, "mean": null}, "geometry": {"type": "Polygon", "coordinates": [[[120.55757132191054, 31.41571648], [120.55746602691433, 31.415626016], [120.55757132191054, 31.415626016], [120.55757132191054, 31.41571648]]]}}, {"type": "Feature", "properties": {"area_ha": 0.0, "mean": null}, "geometry": {"type": "Polygon", "coordinates": [[[120.56094076178924, 31.415354624], [120.56083546679302, 31.41526416], [120.56094076178924, 31.41526416], [120.56094076178924, 31.415354624]]]}}]}