{"type": "FeatureCollection", "features": [{"type": "Feature", "properties": {"name": "黄埭镇水体边界 (JRC参考+S2 10m细化)"}, "geometry": {"type": "MultiPolygon", "coordinates": [[[[120.52387692312358, 31.410469568], [120.52345574313874, 31.410650496], [120.52356103813496, 31.410831424], [120.52387692312358, 31.410469568]]], [[[120.52461398809704, 31.41119328], [120.52461398809704, 31.411102816], [120.52450869310084, 31.411102816], [120.52461398809704, 31.41119328]]], [[[120.52935226292647, 31.414721376], [120.52598282304777, 31.412188384], [120.52619341304019, 31.412731168], [120.52935226292647, 31.414721376]]], [[[120.53703879764974, 31.42476288], [120.53272170280516, 31.425034272], [120.53114227786202, 31.42566752], [120.53703879764974, 31.42476288]]], [[[120.52998403290371, 31.425757984], [120.528615197953, 31.425938912], [120.52956285291889, 31.42657216], [120.52998403290371, 31.425757984]]], [[[120.51819099332829, 31.427838656], [120.51829628832449, 31.42657216], [120.51755922335103, 31.427114944], [120.51819099332829, 31.427838656]]], [[[120.52335044814254, 31.427567264], [120.52356103813496, 31.427295872000002], [120.52313985815012, 31.427205408], [120.52335044814254, 31.427567264]]], [[[120.52156043320699, 31.427295872000002], [120.519559828279, 31.427205408], [120.51755922335103, 31.431276288], [120.52156043320699, 31.427295872000002]]], [[[120.51755922335103, 31.433266496], [120.51745392835483, 31.432995104], [120.51692745337377, 31.433176032], [120.51755922335103, 31.433266496]]], [[[120.51692745337377, 31.435528096], [120.51692745337377, 31.434985312000002], [120.51629568339652, 31.435347168], [120.51692745337377, 31.435528096]]], [[[120.53788115761941, 31.445750528], [120.53788115761941, 31.444574496], [120.53756527263079, 31.44511728], [120.53788115761941, 31.445750528]]], [[[120.5377758626232, 31.447469344], [120.53756527263079, 31.446293312], [120.53724938764216, 31.446745632], [120.5377758626232, 31.447469344]]], [[[120.49323607922669, 31.454073216], [120.49176194927976, 31.45325904], [120.49186724427597, 31.453530432], [120.49323607922669, 31.454073216]]], [[[120.51071504859743, 31.45823456], [120.51082034359364, 31.458053632000002], [120.50997798362397, 31.457963168], [120.51071504859743, 31.45823456]]], [[[120.50460793881729, 31.457963168], [120.4956578641395, 31.45823456], [120.49871141902958, 31.460134304], [120.50871444366945, 31.460315232], [120.51050445860501, 31.46094848], [120.50460793881729, 31.457963168]]], [[[120.5127156535254, 31.466647712], [120.51197858855194, 31.466376320000002], [120.51187329355572, 31.466738176], [120.5127156535254, 31.466647712]]], [[[120.53272170280516, 31.46728096], [120.53335347278241, 31.466104928], [120.53282699780137, 31.466195392], [120.53272170280516, 31.46728096]]], [[[120.53135286785444, 31.46773328], [120.53135286785444, 31.466557248], [120.53019462289613, 31.467100032], [120.53135286785444, 31.46773328]]], [[[120.53261640780894, 31.467461888], [120.53261640780894, 31.46728096], [120.53251111281274, 31.46728096], [120.53261640780894, 31.467461888]]], [[[120.52966814791509, 31.468004672], [120.53029991789235, 31.467552352000002], [120.52903637793784, 31.466919104000002], [120.52966814791509, 31.468004672]]], [[[120.5319846378317, 31.470085344], [120.53230052282032, 31.46863792], [120.52693047801365, 31.467461888], [120.5319846378317, 31.470085344]]], [[[120.51861217331312, 31.46909024], [120.51850687831691, 31.468909312], [120.51829628832449, 31.468999776], [120.51861217331312, 31.46909024]]], [[[120.56115135178166, 31.41481184], [120.56115135178166, 31.414721376], [120.56104605678544, 31.414721376], [120.56115135178166, 31.41481184]]], [[[120.56146723677028, 31.417254368000002], [120.56146723677028, 31.417163904], [120.56136194177408, 31.417163904], [120.56146723677028, 31.417254368000002]]], [[[120.5615725317665, 31.417344832], [120.5615725317665, 31.417254368000002], [120.56146723677028, 31.417254368000002], [120.5615725317665, 31.417344832]]], [[[120.56357313669447, 31.418249472], [120.56283607172101, 31.417887616], [120.56273077672479, 31.418068544], [120.56357313669447, 31.418249472]]], [[[120.56104605678544, 31.41481184], [120.54977949219106, 31.41662112], [120.54304061243367, 31.422139424], [120.56104605678544, 31.41481184]]], [[[120.54230354746021, 31.42340592], [120.54135589249432, 31.417344832], [120.54030294253222, 31.419425504], [120.54230354746021, 31.42340592]]], [[[120.5411453025019, 31.426119840000002], [120.54104000750569, 31.425577056], [120.54082941751327, 31.42566752], [120.5411453025019, 31.426119840000002]]], [[[120.54104000750569, 31.42838144], [120.54093471250948, 31.426391232], [120.54040823752844, 31.427748192], [120.54104000750569, 31.42838144]]], [[[120.54862124723276, 31.428924224], [120.54820006724792, 31.428743296], [120.5478841822593, 31.429195616], [120.54862124723276, 31.428924224]]], [[[120.54061882752086, 31.430281184000002], [120.54051353252464, 31.430009792], [120.54030294253222, 31.430100256], [120.54061882752086, 31.430281184000002]]], [[[120.54598887232753, 31.43064304], [120.54619946231995, 31.430100256], [120.54556769234269, 31.430281184000002], [120.54598887232753, 31.43064304]]], [[[120.5411453025019, 31.432361856], [120.54030294253222, 31.43154768], [120.5399870575436, 31.432000000000002], [120.5411453025019, 31.432361856]]], [[[120.5400923525398, 31.433085568], [120.5399870575436, 31.43290464], [120.53977646755118, 31.432995104], [120.5400923525398, 31.433085568]]], [[[120.53977646755118, 31.435709024], [120.53967117255497, 31.43516624], [120.53946058256255, 31.435256704], [120.53977646755118, 31.435709024]]], [[[120.53903940257771, 31.439689440000002], [120.53893410758151, 31.439056192], [120.53872351758909, 31.439146656000002], [120.53903940257771, 31.439689440000002]]], [[[120.5388288125853, 31.440955936], [120.53872351758909, 31.44014176], [120.53851292759667, 31.440232224], [120.5388288125853, 31.440955936]]], [[[120.54977949219106, 31.440865472], [120.54925301721, 31.440775008], [120.5490424272176, 31.441136864], [120.54977949219106, 31.440865472]]], [[[120.53851292759667, 31.442312896], [120.53840763260045, 31.442041504], [120.53819704260805, 31.442131968], [120.53851292759667, 31.442312896]]], [[[120.53840763260045, 31.443036608], [120.53830233760425, 31.44240336], [120.53798645261563, 31.44285568], [120.53840763260045, 31.443036608]]], [[[120.53819704260805, 31.444031712], [120.53809174761183, 31.443398464], [120.5377758626232, 31.443941248], [120.53819704260805, 31.444031712]]], [[[120.53946058256255, 31.445840992], [120.53893410758151, 31.445207744], [120.53861822259287, 31.445388672], [120.53946058256255, 31.445840992]]], [[[120.54135589249432, 31.44602192], [120.54146118749053, 31.445750528], [120.5400923525398, 31.445931456], [120.54135589249432, 31.44602192]]], [[[120.58652744586809, 31.420420608], [120.58631685587567, 31.41978736], [120.5822103510235, 31.422320352], [120.58652744586809, 31.420420608]]], [[[120.5935822106141, 31.42250128], [120.5934769156179, 31.422139424], [120.59305573563306, 31.422229888], [120.5935822106141, 31.42250128]]], [[[120.5935822106141, 31.42340592], [120.5934769156179, 31.423224992], [120.59316103062928, 31.423315456], [120.5935822106141, 31.42340592]]], [[[120.58242094101593, 31.423044064], [120.58189446603488, 31.42250128], [120.57010142645944, 31.42883376], [120.58242094101593, 31.423044064]]], [[[120.57936738612585, 31.426753088], [120.57926209112965, 31.426481696], [120.57905150113723, 31.42657216], [120.57936738612585, 31.426753088]]], [[[120.58010445109932, 31.428110048], [120.57936738612585, 31.426934016], [120.57926209112965, 31.427386336], [120.58010445109932, 31.428110048]]], [[[120.59558281554209, 31.428743296], [120.59547752054587, 31.428562368], [120.59526693055345, 31.428652832], [120.59558281554209, 31.428743296]]], [[[120.5787356161486, 31.429467008], [120.57863032115239, 31.429195616], [120.57841973115997, 31.42928608], [120.5787356161486, 31.429467008]]], [[[120.56799552653526, 31.43064304], [120.56789023153905, 31.430462112], [120.56767964154663, 31.430552576], [120.56799552653526, 31.43064304]]], [[[120.59600399552691, 31.431004896], [120.59589870053071, 31.430823968000002], [120.59568811053829, 31.430914432], [120.59600399552691, 31.431004896]]], [[[120.59958402539803, 31.431185824], [120.59874166542836, 31.430823968000002], [120.59832048544352, 31.431185824], [120.59958402539803, 31.431185824]]], [[[120.56715316656559, 31.431276288], [120.56736375655801, 31.431004896], [120.56662669158453, 31.43109536], [120.56715316656559, 31.431276288]]], [[[120.5662055115997, 31.431728608], [120.56610021660349, 31.43154768], [120.56588962661107, 31.431638144], [120.5662055115997, 31.431728608]]], [[[120.58915982077332, 31.432633248000002], [120.5890545257771, 31.43245232], [120.5888439357847, 31.432542784], [120.58915982077332, 31.432633248000002]]], [[[120.60284817028052, 31.43290464], [120.60295346527673, 31.432633248000002], [120.60221640030326, 31.432542784], [120.60284817028052, 31.43290464]]], [[[120.58494802092494, 31.43335696], [120.58505331592116, 31.433176032], [120.58452684094011, 31.432995104], [120.58494802092494, 31.43335696]]], [[[120.58515861091736, 31.434171136], [120.58505331592116, 31.433990208], [120.58473743093253, 31.434171136], [120.58515861091736, 31.434171136]]], [[[120.60000520538287, 31.43471392], [120.59937343540561, 31.4342616], [120.59916284541319, 31.434623456], [120.60000520538287, 31.43471392]]], [[[120.58294741599697, 31.437699232], [120.58336859598181, 31.437246912], [120.58252623601213, 31.436885056], [120.58294741599697, 31.437699232]]], [[[120.57947268112207, 31.438965728], [120.5798938611069, 31.438513408000002], [120.57905150113723, 31.438513408000002], [120.57947268112207, 31.438965728]]]]}}]}