{"type": "FeatureCollection", "features": [{"type": "Feature", "properties": {"area_ha": 0.0, "mean": null}, "geometry": {"type": "Polygon", "coordinates": [[[120.5400923525398, 31.471985088], [120.5399870575436, 31.471894624], [120.5400923525398, 31.471894624], [120.5400923525398, 31.471985088]]]}}, {"type": "Feature", "properties": {"area_ha": 0.0, "mean": null}, "geometry": {"type": "Polygon", "coordinates": [[[120.5399870575436, 31.471894624], [120.5398817625474, 31.47180416], [120.5399870575436, 31.47180416], [120.5399870575436, 31.471894624]]]}}, {"type": "Feature", "properties": {"area_ha": 0.0, "mean": null}, "geometry": {"type": "Polygon", "coordinates": [[[120.5398817625474, 31.47180416], [120.53977646755118, 31.471713696000002], [120.5398817625474, 31.471713696000002], [120.5398817625474, 31.47180416]]]}}, {"type": "Feature", "properties": {"area_ha": 0.03, "mean": 0.3345}, "geometry": {"type": "Polygon", "coordinates": [[[120.58189446603488, 31.47135184], [120.58168387604246, 31.471442304], [120.58115740106142, 31.47135184], [120.58189446603488, 31.47135184]]]}}, {"type": "Feature", "properties": {"area_ha": 0.01, "mean": 0.3752}, "geometry": {"type": "Polygon", "coordinates": [[[120.5822103510235, 31.47135184], [120.58189446603488, 31.471261376], [120.5822103510235, 31.471261376], [120.5822103510235, 31.47135184]]]}}, {"type": "Feature", "properties": {"area_ha": 0.02, "mean": 0.3664}, "geometry": {"type": "Polygon", "coordinates": [[[120.58305271099319, 31.47135184], [120.58252623601213, 31.471261376], [120.58305271099319, 31.471261376], [120.58305271099319, 31.47135184]]]}}, {"type": "Feature", "properties": {"area_ha": 0.0, "mean": null}, "geometry": {"type": "Polygon", "coordinates": [[[120.53924999257013, 31.471261376], [120.53914469757392, 31.471170912], [120.53924999257013, 31.471170912], [120.53924999257013, 31.471261376]]]}}, {"type": "Feature", "properties": {"area_ha": 0.0, "mean": null}, "geometry": {"type": "Polygon", "coordinates": [[[120.53914469757392, 31.471170912], [120.53903940257771, 31.471080448000002], [120.53914469757392, 31.471080448000002], [120.53914469757392, 31.471170912]]]}}, {"type": "Feature", "properties": {"area_ha": 0.0, "mean": null}, "geometry": {"type": "Polygon", "coordinates": [[[120.5377758626232, 31.47089952], [120.53767056762699, 31.470809056], [120.5377758626232, 31.470809056], [120.5377758626232, 31.47089952]]]}}, {"type": "Feature", "properties": {"area_ha": 0.02, "mean": 0.1389}, "geometry": {"type": "Polygon", "coordinates": [[[120.5343011277483, 31.47089952], [120.53398524275967, 31.470718592], [120.5343011277483, 31.470809056], [120.5343011277483, 31.47089952]]]}}, {"type": "Feature", "properties": {"area_ha": 0.01, "mean": 0.1405}, "geometry": {"type": "Polygon", "coordinates": [[[120.53451171774071, 31.470628128], [120.5343011277483, 31.470537664000002], [120.53451171774071, 31.470537664000002], [120.53451171774071, 31.470628128]]]}}, {"type": "Feature", "properties": {"area_ha": 0.0, "mean": null}, "geometry": {"type": "Polygon", "coordinates": [[[120.53387994776347, 31.470085344], [120.53377465276725, 31.46999488], [120.53387994776347, 31.46999488], [120.53387994776347, 31.470085344]]]}}, {"type": "Feature", "properties": {"area_ha": 0.0, "mean": null}, "geometry": {"type": "Polygon", "coordinates": [[[120.52787813297954, 31.46773328], [120.52777283798332, 31.467642816], [120.52787813297954, 31.467642816], [120.52787813297954, 31.46773328]]]}}, {"type": "Feature", "properties": {"area_ha": 0.0, "mean": null}, "geometry": {"type": "Polygon", "coordinates": [[[120.52714106800607, 31.467552352000002], [120.52703577300986, 31.467461888], [120.52714106800607, 31.467461888], [120.52714106800607, 31.467552352000002]]]}}, {"type": "Feature", "properties": {"area_ha": 0.0, "mean": null}, "geometry": {"type": "Polygon", "coordinates": [[[120.52577223305535, 31.464838432], [120.52566693805915, 31.464747968], [120.52577223305535, 31.464747968], [120.52577223305535, 31.464838432]]]}}, {"type": "Feature", "properties": {"area_ha": 0.0, "mean": null}, "geometry": {"type": "Polygon", "coordinates": [[[120.5343011277483, 31.462124512], [120.53419583275209, 31.462034048], [120.5343011277483, 31.462034048], [120.5343011277483, 31.462124512]]]}}, {"type": "Feature", "properties": {"area_ha": 0.02, "mean": 0.1541}, "geometry": {"type": "Polygon", "coordinates": [[[120.60126874533738, 31.456968064], [120.60116345034118, 31.456606208], [120.60126874533738, 31.456606208], [120.60126874533738, 31.456968064]]]}}, {"type": "Feature", "properties": {"area_ha": 0.0, "mean": null}, "geometry": {"type": "Polygon", "coordinates": [[[120.60116345034118, 31.456606208], [120.60105815534496, 31.456515744], [120.60116345034118, 31.456515744], [120.60116345034118, 31.456606208]]]}}, {"type": "Feature", "properties": {"area_ha": 0.0, "mean": null}, "geometry": {"type": "Polygon", "coordinates": [[[120.59779401046248, 31.45597296], [120.59768871546626, 31.455882496], [120.59779401046248, 31.455882496], [120.59779401046248, 31.45597296]]]}}, {"type": "Feature", "properties": {"area_ha": 0.03, "mean": 0.1433}, "geometry": {"type": "Polygon", "coordinates": [[[120.60084756535254, 31.455611104], [120.60063697536013, 31.455158784], [120.60074227035633, 31.455158784], [120.60084756535254, 31.455611104]]]}}, {"type": "Feature", "properties": {"area_ha": 0.0, "mean": null}, "geometry": {"type": "Polygon", "coordinates": [[[120.60074227035633, 31.454887392], [120.60063697536013, 31.454796928], [120.60074227035633, 31.454796928], [120.60074227035633, 31.454887392]]]}}, {"type": "Feature", "properties": {"area_ha": 0.0, "mean": null}, "geometry": {"type": "Polygon", "coordinates": [[[120.60084756535254, 31.454796928], [120.60074227035633, 31.454706464], [120.60084756535254, 31.454706464], [120.60084756535254, 31.454796928]]]}}, {"type": "Feature", "properties": {"area_ha": 0.0, "mean": null}, "geometry": {"type": "Polygon", "coordinates": [[[120.53788115761941, 31.447378880000002], [120.5377758626232, 31.447288416], [120.53788115761941, 31.447288416], [120.53788115761941, 31.447378880000002]]]}}, {"type": "Feature", "properties": {"area_ha": 0.0, "mean": null}, "geometry": {"type": "Polygon", "coordinates": [[[120.53977646755118, 31.446202848000002], [120.53967117255497, 31.446112384], [120.53977646755118, 31.446112384], [120.53977646755118, 31.446202848000002]]]}}, {"type": "Feature", "properties": {"area_ha": 0.01, "mean": 0.246}, "geometry": {"type": "Polygon", "coordinates": [[[120.53756527263079, 31.4455696], [120.53745997763457, 31.445388672], [120.53756527263079, 31.445388672], [120.53756527263079, 31.4455696]]]}}, {"type": "Feature", "properties": {"area_ha": 0.0, "mean": null}, "geometry": {"type": "Polygon", "coordinates": [[[120.53767056762699, 31.444936352], [120.53756527263079, 31.444845888], [120.53767056762699, 31.444845888], [120.53767056762699, 31.444936352]]]}}, {"type": "Feature", "properties": {"area_ha": 0.0, "mean": null}, "geometry": {"type": "Polygon", "coordinates": [[[120.5377758626232, 31.444484032000002], [120.53767056762699, 31.444393568], [120.5377758626232, 31.444393568], [120.5377758626232, 31.444484032000002]]]}}, {"type": "Feature", "properties": {"area_ha": 0.0, "mean": null}, "geometry": {"type": "Polygon", "coordinates": [[[120.53851292759667, 31.440684544], [120.53840763260045, 31.44059408], [120.53851292759667, 31.44059408], [120.53851292759667, 31.440684544]]]}}, {"type": "Feature", "properties": {"area_ha": 0.01, "mean": 0.2036}, "geometry": {"type": "Polygon", "coordinates": [[[120.53861822259287, 31.440232224], [120.53851292759667, 31.440051296], [120.53861822259287, 31.440051296], [120.53861822259287, 31.440232224]]]}}, {"type": "Feature", "properties": {"area_ha": 0.0, "mean": null}, "geometry": {"type": "Polygon", "coordinates": [[[120.53956587755876, 31.434985312000002], [120.53946058256255, 31.434894848], [120.53956587755876, 31.434894848], [120.53956587755876, 31.434985312000002]]]}}, {"type": "Feature", "properties": {"area_ha": 0.02, "mean": 0.1365}, "geometry": {"type": "Polygon", "coordinates": [[[120.59895225542078, 31.43290464], [120.59884696042457, 31.432723712], [120.59905755041699, 31.432723712], [120.59895225542078, 31.43290464]]]}}, {"type": "Feature", "properties": {"area_ha": 0.0, "mean": null}, "geometry": {"type": "Polygon", "coordinates": [[[120.59853107543594, 31.431185824], [120.59842578043973, 31.43109536], [120.59853107543594, 31.43109536], [120.59853107543594, 31.431185824]]]}}, {"type": "Feature", "properties": {"area_ha": 0.0, "mean": null}, "geometry": {"type": "Polygon", "coordinates": [[[120.59842578043973, 31.43109536], [120.59832048544352, 31.431004896], [120.59842578043973, 31.431004896], [120.59842578043973, 31.43109536]]]}}, {"type": "Feature", "properties": {"area_ha": 0.0, "mean": null}, "geometry": {"type": "Polygon", "coordinates": [[[120.59853107543594, 31.431004896], [120.59842578043973, 31.430914432], [120.59853107543594, 31.430914432], [120.59853107543594, 31.431004896]]]}}, {"type": "Feature", "properties": {"area_ha": 0.0, "mean": null}, "geometry": {"type": "Polygon", "coordinates": [[[120.59863637043215, 31.430914432], [120.59853107543594, 31.430823968000002], [120.59863637043215, 31.430823968000002], [120.59863637043215, 31.430914432]]]}}, {"type": "Feature", "properties": {"area_ha": 0.0, "mean": null}, "geometry": {"type": "Polygon", "coordinates": [[[120.51829628832449, 31.430009792], [120.51819099332829, 31.429919328], [120.51829628832449, 31.429919328], [120.51829628832449, 31.430009792]]]}}, {"type": "Feature", "properties": {"area_ha": 0.0, "mean": null}, "geometry": {"type": "Polygon", "coordinates": [[[120.51850687831691, 31.429557472], [120.5184015833207, 31.429467008], [120.51850687831691, 31.429467008], [120.51850687831691, 31.429557472]]]}}, {"type": "Feature", "properties": {"area_ha": 0.0, "mean": null}, "geometry": {"type": "Polygon", "coordinates": [[[120.51882276330554, 31.42928608], [120.51871746830933, 31.429195616], [120.51882276330554, 31.429195616], [120.51882276330554, 31.42928608]]]}}, {"type": "Feature", "properties": {"area_ha": 0.0, "mean": null}, "geometry": {"type": "Polygon", "coordinates": [[[120.51892805830175, 31.429195616], [120.51882276330554, 31.429105152], [120.51892805830175, 31.429105152], [120.51892805830175, 31.429195616]]]}}, {"type": "Feature", "properties": {"area_ha": 0.0, "mean": null}, "geometry": {"type": "Polygon", "coordinates": [[[120.51892805830175, 31.428924224], [120.51882276330554, 31.42883376], [120.51892805830175, 31.42883376], [120.51892805830175, 31.428924224]]]}}, {"type": "Feature", "properties": {"area_ha": 0.0, "mean": null}, "geometry": {"type": "Polygon", "coordinates": [[[120.57199673639121, 31.428924224], [120.571891441395, 31.42883376], [120.57199673639121, 31.42883376], [120.57199673639121, 31.428924224]]]}}, {"type": "Feature", "properties": {"area_ha": 0.0, "mean": null}, "geometry": {"type": "Polygon", "coordinates": [[[120.51892805830175, 31.428652832], [120.51882276330554, 31.428562368], [120.51892805830175, 31.428562368], [120.51892805830175, 31.428652832]]]}}, {"type": "Feature", "properties": {"area_ha": 0.0, "mean": null}, "geometry": {"type": "Polygon", "coordinates": [[[120.51903335329796, 31.428471904000002], [120.51892805830175, 31.42838144], [120.51903335329796, 31.42838144], [120.51903335329796, 31.428471904000002]]]}}, {"type": "Feature", "properties": {"area_ha": 0.01, "mean": 0.1669}, "geometry": {"type": "Polygon", "coordinates": [[[120.60790233009857, 31.42838144], [120.60769174010615, 31.428290976], [120.60790233009857, 31.428290976], [120.60790233009857, 31.42838144]]]}}, {"type": "Feature", "properties": {"area_ha": 0.01, "mean": 0.1494}, "geometry": {"type": "Polygon", "coordinates": [[[120.60842880507961, 31.42838144], [120.60821821508719, 31.428290976], [120.60842880507961, 31.428290976], [120.60842880507961, 31.42838144]]]}}, {"type": "Feature", "properties": {"area_ha": 0.0, "mean": null}, "geometry": {"type": "Polygon", "coordinates": [[[120.60863939507203, 31.42838144], [120.60853410007581, 31.428290976], [120.60863939507203, 31.428290976], [120.60863939507203, 31.42838144]]]}}, {"type": "Feature", "properties": {"area_ha": 0.01, "mean": 0.1501}, "geometry": {"type": "Polygon", "coordinates": [[[120.60821821508719, 31.428290976], [120.60800762509477, 31.428200512], [120.60821821508719, 31.428200512], [120.60821821508719, 31.428290976]]]}}, {"type": "Feature", "properties": {"area_ha": 0.0, "mean": null}, "geometry": {"type": "Polygon", "coordinates": [[[120.51913864829417, 31.428200512], [120.51903335329796, 31.428110048], [120.51913864829417, 31.428110048], [120.51913864829417, 31.428200512]]]}}, {"type": "Feature", "properties": {"area_ha": 0.0, "mean": null}, "geometry": {"type": "Polygon", "coordinates": [[[120.5207180732373, 31.428019584], [120.5206127782411, 31.42792912], [120.5207180732373, 31.42792912], [120.5207180732373, 31.428019584]]]}}, {"type": "Feature", "properties": {"area_ha": 0.0, "mean": null}, "geometry": {"type": "Polygon", "coordinates": [[[120.60842880507961, 31.427838656], [120.6083235100834, 31.427748192], [120.60842880507961, 31.427748192], [120.60842880507961, 31.427838656]]]}}, {"type": "Feature", "properties": {"area_ha": 0.0, "mean": null}, "geometry": {"type": "Polygon", "coordinates": [[[120.60853410007581, 31.427748192], [120.60842880507961, 31.427657728], [120.60853410007581, 31.427657728], [120.60853410007581, 31.427748192]]]}}, {"type": "Feature", "properties": {"area_ha": 0.0, "mean": null}, "geometry": {"type": "Polygon", "coordinates": [[[120.54051353252464, 31.427657728], [120.54040823752844, 31.427567264], [120.54051353252464, 31.427567264], [120.54051353252464, 31.427657728]]]}}, {"type": "Feature", "properties": {"area_ha": 0.0, "mean": null}, "geometry": {"type": "Polygon", "coordinates": [[[120.5194545332828, 31.427567264], [120.51934923828658, 31.4274768], [120.5194545332828, 31.4274768], [120.5194545332828, 31.427567264]]]}}, {"type": "Feature", "properties": {"area_ha": 0.0, "mean": null}, "geometry": {"type": "Polygon", "coordinates": [[[120.6083235100834, 31.427567264], [120.60821821508719, 31.4274768], [120.6083235100834, 31.4274768], [120.6083235100834, 31.427567264]]]}}, {"type": "Feature", "properties": {"area_ha": 0.02, "mean": 0.1149}, "geometry": {"type": "Polygon", "coordinates": [[[120.60811292009099, 31.427386336], [120.60769174010615, 31.427295872000002], [120.60811292009099, 31.427295872000002], [120.60811292009099, 31.427386336]]]}}, {"type": "Feature", "properties": {"area_ha": 0.0, "mean": null}, "geometry": {"type": "Polygon", "coordinates": [[[120.5763138312358, 31.427295872000002], [120.57620853623958, 31.427205408], [120.5763138312358, 31.427205408], [120.5763138312358, 31.427295872000002]]]}}, {"type": "Feature", "properties": {"area_ha": 0.01, "mean": 0.1281}, "geometry": {"type": "Polygon", "coordinates": [[[120.57673501122062, 31.427295872000002], [120.57652442122821, 31.427205408], [120.57673501122062, 31.427205408], [120.57673501122062, 31.427295872000002]]]}}, {"type": "Feature", "properties": {"area_ha": 0.0, "mean": null}, "geometry": {"type": "Polygon", "coordinates": [[[120.54072412251706, 31.42702448], [120.54061882752086, 31.426934016], [120.54072412251706, 31.426934016], [120.54072412251706, 31.42702448]]]}}, {"type": "Feature", "properties": {"area_ha": 0.0, "mean": null}, "geometry": {"type": "Polygon", "coordinates": [[[120.60800762509477, 31.424943808000002], [120.60790233009857, 31.424853344], [120.60800762509477, 31.424853344], [120.60800762509477, 31.424943808000002]]]}}, {"type": "Feature", "properties": {"area_ha": 0.02, "mean": 0.1717}, "geometry": {"type": "Polygon", "coordinates": [[[120.60790233009857, 31.424672416], [120.60779703510235, 31.42476288], [120.60758644510993, 31.424581952], [120.60790233009857, 31.424672416]]]}}, {"type": "Feature", "properties": {"area_ha": 0.12, "mean": 0.1802}, "geometry": {"type": "Polygon", "coordinates": [[[120.60632290515542, 31.42476288], [120.60548054518576, 31.424581952], [120.60632290515542, 31.424491488], [120.60632290515542, 31.42476288]]]}}, {"type": "Feature", "properties": {"area_ha": 0.0, "mean": null}, "geometry": {"type": "Polygon", "coordinates": [[[120.53566996269902, 31.424581952], [120.53556466770281, 31.424491488], [120.53566996269902, 31.424491488], [120.53566996269902, 31.424581952]]]}}, {"type": "Feature", "properties": {"area_ha": 0.0, "mean": null}, "geometry": {"type": "Polygon", "coordinates": [[[120.5365123226687, 31.424581952], [120.53640702767248, 31.424491488], [120.5365123226687, 31.424491488], [120.5365123226687, 31.424581952]]]}}, {"type": "Feature", "properties": {"area_ha": 0.0, "mean": null}, "geometry": {"type": "Polygon", "coordinates": [[[120.60642820015164, 31.424491488], [120.60632290515542, 31.424401024], [120.60642820015164, 31.424401024], [120.60642820015164, 31.424491488]]]}}, {"type": "Feature", "properties": {"area_ha": 0.0, "mean": null}, "geometry": {"type": "Polygon", "coordinates": [[[120.60884998506445, 31.424491488], [120.60874469006824, 31.424401024], [120.60884998506445, 31.424401024], [120.60884998506445, 31.424491488]]]}}, {"type": "Feature", "properties": {"area_ha": 0.0, "mean": null}, "geometry": {"type": "Polygon", "coordinates": [[[120.54040823752844, 31.424039168], [120.54030294253222, 31.423948704], [120.54040823752844, 31.423948704], [120.54040823752844, 31.424039168]]]}}, {"type": "Feature", "properties": {"area_ha": 0.0, "mean": null}, "geometry": {"type": "Polygon", "coordinates": [[[120.54841065724034, 31.423948704], [120.54830536224412, 31.42385824], [120.54841065724034, 31.42385824], [120.54841065724034, 31.423948704]]]}}, {"type": "Feature", "properties": {"area_ha": 0.0, "mean": null}, "geometry": {"type": "Polygon", "coordinates": [[[120.60727056012131, 31.423767776000002], [120.6071652651251, 31.423677312], [120.60727056012131, 31.423677312], [120.60727056012131, 31.423767776000002]]]}}, {"type": "Feature", "properties": {"area_ha": 0.0, "mean": null}, "geometry": {"type": "Polygon", "coordinates": [[[120.54872654222896, 31.423586848], [120.54862124723276, 31.423496384], [120.54872654222896, 31.423496384], [120.54872654222896, 31.423586848]]]}}, {"type": "Feature", "properties": {"area_ha": 0.11, "mean": 0.2137}, "geometry": {"type": "Polygon", "coordinates": [[[120.6071652651251, 31.423586848], [120.60695467513268, 31.423224992], [120.60727056012131, 31.422772672], [120.6071652651251, 31.423586848]]]}}, {"type": "Feature", "properties": {"area_ha": 0.0, "mean": null}, "geometry": {"type": "Polygon", "coordinates": [[[120.58010445109932, 31.422591744], [120.57999915610311, 31.42250128], [120.58010445109932, 31.42250128], [120.58010445109932, 31.422591744]]]}}, {"type": "Feature", "properties": {"area_ha": 0.02, "mean": 0.1616}, "geometry": {"type": "Polygon", "coordinates": [[[120.60748115011373, 31.422591744], [120.60737585511751, 31.422229888], [120.60748115011373, 31.422229888], [120.60748115011373, 31.422591744]]]}}, {"type": "Feature", "properties": {"area_ha": 0.0, "mean": null}, "geometry": {"type": "Polygon", "coordinates": [[[120.60758644510993, 31.422229888], [120.60748115011373, 31.422139424], [120.60758644510993, 31.422139424], [120.60758644510993, 31.422229888]]]}}, {"type": "Feature", "properties": {"area_ha": 0.0, "mean": null}, "geometry": {"type": "Polygon", "coordinates": [[[120.60779703510235, 31.422139424], [120.60769174010615, 31.42204896], [120.60779703510235, 31.42204896], [120.60779703510235, 31.422139424]]]}}, {"type": "Feature", "properties": {"area_ha": 0.01, "mean": 0.1346}, "geometry": {"type": "Polygon", "coordinates": [[[120.54756829727066, 31.421958496000002], [120.54735770727825, 31.421868032], [120.54756829727066, 31.421868032], [120.54756829727066, 31.421958496000002]]]}}, {"type": "Feature", "properties": {"area_ha": 0.0, "mean": null}, "geometry": {"type": "Polygon", "coordinates": [[[120.58273682600455, 31.421053856], [120.58263153100835, 31.420963392], [120.58273682600455, 31.420963392], [120.58273682600455, 31.421053856]]]}}, {"type": "Feature", "properties": {"area_ha": 0.01, "mean": 0.2203}, "geometry": {"type": "Polygon", "coordinates": [[[120.58736980583775, 31.42023968], [120.58715921584535, 31.420149216], [120.58736980583775, 31.420149216], [120.58736980583775, 31.42023968]]]}}, {"type": "Feature", "properties": {"area_ha": 0.0, "mean": null}, "geometry": {"type": "Polygon", "coordinates": [[[120.5434617924185, 31.420149216], [120.5433564974223, 31.420058752], [120.5434617924185, 31.420058752], [120.5434617924185, 31.420149216]]]}}, {"type": "Feature", "properties": {"area_ha": 0.0, "mean": null}, "geometry": {"type": "Polygon", "coordinates": [[[120.58663274086429, 31.418430400000002], [120.58652744586809, 31.418339936], [120.58663274086429, 31.418339936], [120.58663274086429, 31.418430400000002]]]}}, {"type": "Feature", "properties": {"area_ha": 0.0, "mean": null}, "geometry": {"type": "Polygon", "coordinates": [[[120.58705392084913, 31.418249472], [120.58694862585293, 31.418159008], [120.58705392084913, 31.418159008], [120.58705392084913, 31.418249472]]]}}, {"type": "Feature", "properties": {"area_ha": 0.01, "mean": 0.2383}, "geometry": {"type": "Polygon", "coordinates": [[[120.59147631068993, 31.417616224], [120.5912657206975, 31.41752576], [120.59147631068993, 31.41752576], [120.59147631068993, 31.417616224]]]}}, {"type": "Feature", "properties": {"area_ha": 0.0, "mean": null}, "geometry": {"type": "Polygon", "coordinates": [[[120.54177707247915, 31.4161688], [120.54167177748295, 31.416078336], [120.54177707247915, 31.416078336], [120.54177707247915, 31.4161688]]]}}, {"type": "Feature", "properties": {"area_ha": 0.0, "mean": null}, "geometry": {"type": "Polygon", "coordinates": [[[120.54240884245641, 31.413093024000002], [120.54230354746021, 31.41300256], [120.54240884245641, 31.41300256], [120.54240884245641, 31.413093024000002]]]}}, {"type": "Feature", "properties": {"area_ha": 0.0, "mean": null}, "geometry": {"type": "Polygon", "coordinates": [[[120.54251413745261, 31.412821632], [120.54240884245641, 31.412731168], [120.54251413745261, 31.412731168], [120.54251413745261, 31.412821632]]]}}, {"type": "Feature", "properties": {"area_ha": 0.01, "mean": 0.1688}, "geometry": {"type": "Polygon", "coordinates": [[[120.59884696042457, 31.412731168], [120.59853107543594, 31.412640704], [120.59884696042457, 31.412640704], [120.59884696042457, 31.412731168]]]}}, {"type": "Feature", "properties": {"area_ha": 0.0, "mean": null}, "geometry": {"type": "Polygon", "coordinates": [[[120.54261943244883, 31.412640704], [120.54251413745261, 31.41255024], [120.54261943244883, 31.41255024], [120.54261943244883, 31.412640704]]]}}, {"type": "Feature", "properties": {"area_ha": 0.0, "mean": null}, "geometry": {"type": "Polygon", "coordinates": [[[120.59747812547384, 31.412640704], [120.59737283047764, 31.41255024], [120.59747812547384, 31.41255024], [120.59747812547384, 31.412640704]]]}}, {"type": "Feature", "properties": {"area_ha": 0.0, "mean": null}, "geometry": {"type": "Polygon", "coordinates": [[[120.54272472744503, 31.412459776], [120.54261943244883, 31.412369312], [120.54272472744503, 31.412369312], [120.54272472744503, 31.412459776]]]}}, {"type": "Feature", "properties": {"area_ha": 0.0, "mean": null}, "geometry": {"type": "Polygon", "coordinates": [[[120.5982151904473, 31.412369312], [120.5981098954511, 31.412278848], [120.5982151904473, 31.412278848], [120.5982151904473, 31.412369312]]]}}, {"type": "Feature", "properties": {"area_ha": 0.01, "mean": 0.118}, "geometry": {"type": "Polygon", "coordinates": [[[120.59874166542836, 31.41209792], [120.59853107543594, 31.412007456], [120.59874166542836, 31.412007456], [120.59874166542836, 31.41209792]]]}}, {"type": "Feature", "properties": {"area_ha": 0.0, "mean": null}, "geometry": {"type": "Polygon", "coordinates": [[[120.54293531743745, 31.411826528], [120.54283002244125, 31.411736064], [120.54293531743745, 31.411736064], [120.54293531743745, 31.411826528]]]}}, {"type": "Feature", "properties": {"area_ha": 0.01, "mean": 0.1498}, "geometry": {"type": "Polygon", "coordinates": [[[120.59905755041699, 31.411826528], [120.59884696042457, 31.411736064], [120.59905755041699, 31.411736064], [120.59905755041699, 31.411826528]]]}}, {"type": "Feature", "properties": {"area_ha": 0.0, "mean": null}, "geometry": {"type": "Polygon", "coordinates": [[[120.55978251683094, 31.411736064], [120.55967722183473, 31.4116456], [120.55978251683094, 31.4116456], [120.55978251683094, 31.411736064]]]}}, {"type": "Feature", "properties": {"area_ha": 0.0, "mean": null}, "geometry": {"type": "Polygon", "coordinates": [[[120.59916284541319, 31.411736064], [120.59905755041699, 31.4116456], [120.59916284541319, 31.4116456], [120.59916284541319, 31.411736064]]]}}, {"type": "Feature", "properties": {"area_ha": 0.01, "mean": 0.1474}, "geometry": {"type": "Polygon", "coordinates": [[[120.55967722183473, 31.4116456], [120.55957192683852, 31.411464672], [120.55967722183473, 31.411464672], [120.55967722183473, 31.4116456]]]}}, {"type": "Feature", "properties": {"area_ha": 0.02, "mean": 0.1413}, "geometry": {"type": "Polygon", "coordinates": [[[120.56020369681578, 31.411464672], [120.55978251683094, 31.411374208], [120.56020369681578, 31.411374208], [120.56020369681578, 31.411464672]]]}}, {"type": "Feature", "properties": {"area_ha": 0.01, "mean": 0.1221}, "geometry": {"type": "Polygon", "coordinates": [[[120.55862427187263, 31.411464672], [120.55851897687643, 31.411283744], [120.55862427187263, 31.411283744], [120.55862427187263, 31.411464672]]]}}, {"type": "Feature", "properties": {"area_ha": 0.0, "mean": null}, "geometry": {"type": "Polygon", "coordinates": [[[120.55809779689159, 31.411374208], [120.55799250189538, 31.411283744], [120.55809779689159, 31.411283744], [120.55809779689159, 31.411374208]]]}}, {"type": "Feature", "properties": {"area_ha": 0.02, "mean": 0.1743}, "geometry": {"type": "Polygon", "coordinates": [[[120.59947873040183, 31.411555136], [120.59958402539803, 31.41119328], [120.59968932039425, 31.41119328], [120.59947873040183, 31.411555136]]]}}, {"type": "Feature", "properties": {"area_ha": 0.0, "mean": null}, "geometry": {"type": "Polygon", "coordinates": [[[120.54304061243367, 31.411283744], [120.54293531743745, 31.41119328], [120.54304061243367, 31.41119328], [120.54304061243367, 31.411283744]]]}}, {"type": "Feature", "properties": {"area_ha": 0.0, "mean": null}, "geometry": {"type": "Polygon", "coordinates": [[[120.59979461539045, 31.41119328], [120.59968932039425, 31.411102816], [120.59979461539045, 31.411102816], [120.59979461539045, 31.41119328]]]}}, {"type": "Feature", "properties": {"area_ha": 0.0, "mean": null}, "geometry": {"type": "Polygon", "coordinates": [[[120.60000520538287, 31.411102816], [120.59989991038665, 31.411012352], [120.60000520538287, 31.411012352], [120.60000520538287, 31.411102816]]]}}, {"type": "Feature", "properties": {"area_ha": 0.0, "mean": null}, "geometry": {"type": "Polygon", "coordinates": [[[120.60074227035633, 31.411012352], [120.60063697536013, 31.410921888], [120.60074227035633, 31.410921888], [120.60074227035633, 31.411012352]]]}}, {"type": "Feature", "properties": {"area_ha": 0.0, "mean": null}, "geometry": {"type": "Polygon", "coordinates": [[[120.54314590742987, 31.410831424], [120.54304061243367, 31.410740960000002], [120.54314590742987, 31.410740960000002], [120.54314590742987, 31.410831424]]]}}, {"type": "Feature", "properties": {"area_ha": 0.03, "mean": 0.1605}, "geometry": {"type": "Polygon", "coordinates": [[[120.6013740403336, 31.410650496], [120.60126874533738, 31.410469568], [120.6014793353298, 31.410379104], [120.6013740403336, 31.410650496]]]}}, {"type": "Feature", "properties": {"area_ha": 0.0, "mean": null}, "geometry": {"type": "Polygon", "coordinates": [[[120.60200581031084, 31.410107712], [120.60190051531464, 31.410017248], [120.60200581031084, 31.410017248], [120.60200581031084, 31.410107712]]]}}, {"type": "Feature", "properties": {"area_ha": 0.01, "mean": 0.1735}, "geometry": {"type": "Polygon", "coordinates": [[[120.60253228529189, 31.409926784], [120.60242699029568, 31.409745856], [120.60253228529189, 31.409745856], [120.60253228529189, 31.409926784]]]}}, {"type": "Feature", "properties": {"area_ha": 0.0, "mean": null}, "geometry": {"type": "Polygon", "coordinates": [[[120.60295346527673, 31.409655392], [120.60284817028052, 31.409564928], [120.60295346527673, 31.409564928], [120.60295346527673, 31.409655392]]]}}, {"type": "Feature", "properties": {"area_ha": 0.0, "mean": null}, "geometry": {"type": "Polygon", "coordinates": [[[120.60316405526915, 31.409564928], [120.60305876027294, 31.409474464], [120.60316405526915, 31.409474464], [120.60316405526915, 31.409564928]]]}}, {"type": "Feature", "properties": {"area_ha": 0.0, "mean": null}, "geometry": {"type": "Polygon", "coordinates": [[[120.5434617924185, 31.409022144], [120.5433564974223, 31.40893168], [120.5434617924185, 31.40893168], [120.5434617924185, 31.409022144]]]}}, {"type": "Feature", "properties": {"area_ha": 0.01, "mean": 0.1245}, "geometry": {"type": "Polygon", "coordinates": [[[120.5923186706596, 31.40893168], [120.59221337566339, 31.408750752], [120.5923186706596, 31.408750752], [120.5923186706596, 31.40893168]]]}}, {"type": "Feature", "properties": {"area_ha": 0.06, "mean": 0.1309}, "geometry": {"type": "Polygon", "coordinates": [[[120.59295044063686, 31.408660288], [120.59252926065201, 31.40847936], [120.59295044063686, 31.408388896], [120.59295044063686, 31.408660288]]]}}, {"type": "Feature", "properties": {"area_ha": 0.0, "mean": null}, "geometry": {"type": "Polygon", "coordinates": [[[120.56399431667931, 31.406127296], [120.5638890216831, 31.406036832], [120.56399431667931, 31.406036832], [120.56399431667931, 31.406127296]]]}}, {"type": "Feature", "properties": {"area_ha": 0.0, "mean": null}, "geometry": {"type": "Polygon", "coordinates": [[[120.56378372668689, 31.406036832], [120.56367843169068, 31.405946368], [120.56378372668689, 31.405946368], [120.56378372668689, 31.406036832]]]}}, {"type": "Feature", "properties": {"area_ha": 0.0, "mean": null}, "geometry": {"type": "Polygon", "coordinates": [[[120.55872956686885, 31.405584512], [120.55862427187263, 31.405494048], [120.55872956686885, 31.405494048], [120.55872956686885, 31.405584512]]]}}, {"type": "Feature", "properties": {"area_ha": 0.0, "mean": null}, "geometry": {"type": "Polygon", "coordinates": [[[120.57199673639121, 31.401965952], [120.571891441395, 31.401875488], [120.57199673639121, 31.401875488], [120.57199673639121, 31.401965952]]]}}, {"type": "Feature", "properties": {"area_ha": 0.02, "mean": 0.2592}, "geometry": {"type": "Polygon", "coordinates": [[[120.5717861463988, 31.401875488], [120.57136496641395, 31.401785024], [120.5717861463988, 31.401785024], [120.5717861463988, 31.401875488]]]}}, {"type": "Feature", "properties": {"area_ha": 0.0, "mean": null}, "geometry": {"type": "Polygon", "coordinates": [[[120.54419885739196, 31.397804608], [120.54409356239576, 31.397714144000002], [120.54419885739196, 31.397714144000002], [120.54419885739196, 31.397804608]]]}}, {"type": "Feature", "properties": {"area_ha": 0.0, "mean": null}, "geometry": {"type": "Polygon", "coordinates": [[[120.54430415238818, 31.39717136], [120.54419885739196, 31.397080896], [120.54430415238818, 31.397080896], [120.54430415238818, 31.39717136]]]}}, {"type": "Feature", "properties": {"area_ha": 0.0, "mean": null}, "geometry": {"type": "Polygon", "coordinates": [[[120.54483062736922, 31.396447648], [120.54472533237302, 31.396357184], [120.54483062736922, 31.396357184], [120.54483062736922, 31.396447648]]]}}, {"type": "Feature", "properties": {"area_ha": 0.0, "mean": null}, "geometry": {"type": "Polygon", "coordinates": [[[120.5445147423806, 31.395904864], [120.54440944738438, 31.3958144], [120.5445147423806, 31.3958144], [120.5445147423806, 31.395904864]]]}}]}