{"type": "FeatureCollection", "features": [{"type": "Feature", "properties": {"name": "黄埭镇水体边界 (JRC参考+S2 10m细化)"}, "geometry": {"type": "MultiPolygon", "coordinates": [[[[120.52429810310842, 31.410469568], [120.52208690818803, 31.409203072], [120.52229749818045, 31.41028864], [120.52429810310842, 31.410469568]]], [[[120.52598282304777, 31.412278848], [120.52650929802881, 31.412912096], [120.5275622479909, 31.411464672], [120.52598282304777, 31.412278848]]], [[[120.5148215534496, 31.413545344], [120.51461096345717, 31.413635808], [120.5149268484458, 31.413816736], [120.5148215534496, 31.413545344]]], [[[120.52882578794542, 31.414540448], [120.53177404783928, 31.416711584], [120.53303758779379, 31.415806944], [120.52882578794542, 31.414540448]]], [[[120.51671686338135, 31.418973184], [120.51650627338894, 31.419063648], [120.51682215837756, 31.41933504], [120.51671686338135, 31.418973184]]], [[[120.53893410758151, 31.42431056], [120.53872351758909, 31.424401024], [120.53903940257771, 31.424491488], [120.53893410758151, 31.42431056]]], [[[120.53819704260805, 31.424581952], [120.5377758626232, 31.424491488], [120.53809174761183, 31.42476288], [120.53819704260805, 31.424581952]]], [[[120.53745997763457, 31.42476288], [120.53282699780137, 31.424943808000002], [120.5332481777862, 31.425305664], [120.53745997763457, 31.42476288]]], [[[120.52850990295678, 31.425938912], [120.52903637793784, 31.426300768], [120.53008932789993, 31.42566752], [120.52850990295678, 31.425938912]]], [[[120.51829628832449, 31.42657216], [120.51755922335103, 31.427114944], [120.51808569833207, 31.428110048], [120.51829628832449, 31.42657216]]], [[[120.52145513821077, 31.427205408], [120.51934923828658, 31.4274768], [120.52008630326004, 31.431909536], [120.52145513821077, 31.427205408]]], [[[120.51682215837756, 31.435256704], [120.5161903884003, 31.435437632], [120.51682215837756, 31.43561856], [120.51682215837756, 31.435256704]]], [[[120.53872351758909, 31.439960832], [120.53830233760425, 31.441136864], [120.5388288125853, 31.441227328], [120.53872351758909, 31.439960832]]], [[[120.53840763260045, 31.44195104], [120.53798645261563, 31.442674752000002], [120.53809174761183, 31.444845888], [120.53840763260045, 31.44195104]]], [[[120.53756527263079, 31.447017024], [120.53714409264595, 31.447288416], [120.53788115761941, 31.447469344], [120.53756527263079, 31.447017024]]], [[[120.5367229126611, 31.450273728], [120.5365123226687, 31.450364192000002], [120.53682820765732, 31.450454656], [120.5367229126611, 31.450273728]]], [[[120.5365123226687, 31.451268832], [120.53630173267628, 31.451359296], [120.5366176176649, 31.451630688], [120.5365123226687, 31.451268832]]], [[[120.53640702767248, 31.451811616], [120.53619643768006, 31.45190208], [120.5365123226687, 31.452444864], [120.53640702767248, 31.451811616]]], [[[120.53619643768006, 31.452987648], [120.53598584768764, 31.453078112], [120.53630173267628, 31.453439968], [120.53619643768006, 31.452987648]]], [[[120.53566996269902, 31.45552064], [120.5353540777104, 31.456153888], [120.53577525769524, 31.456244352000002], [120.53566996269902, 31.45552064]]], [[[120.5354593727066, 31.456696672], [120.53524878271418, 31.456787136], [120.5354593727066, 31.457963168], [120.5354593727066, 31.456696672]]], [[[120.53493289772555, 31.459410592], [120.53472230773313, 31.459501056], [120.53503819272176, 31.459772448], [120.53493289772555, 31.459410592]]], [[[120.53482760272935, 31.459862912000002], [120.53461701273693, 31.459953376], [120.53493289772555, 31.460315232], [120.53482760272935, 31.459862912000002]]], [[[120.53472230773313, 31.460405696000002], [120.53451171774071, 31.46049616], [120.53482760272935, 31.461129408], [120.53472230773313, 31.460405696000002]]], [[[120.53461701273693, 31.461219872], [120.53419583275209, 31.462034048], [120.53472230773313, 31.461762656], [120.53461701273693, 31.461219872]]], [[[120.52619341304019, 31.46411472], [120.52566693805915, 31.464476576], [120.52629870803639, 31.464567040000002], [120.52619341304019, 31.46411472]]], [[[120.53398524275967, 31.464205184], [120.53377465276725, 31.464295648], [120.53409053775589, 31.464657504], [120.53398524275967, 31.464205184]]], [[[120.53387994776347, 31.464747968], [120.53282699780137, 31.466195392], [120.53335347278241, 31.46728096], [120.53387994776347, 31.464747968]]], [[[120.53124757285823, 31.466647712], [120.53029991789235, 31.467100032], [120.53124757285823, 31.46773328], [120.53124757285823, 31.466647712]]], [[[120.53019462289613, 31.467190496], [120.52903637793784, 31.466919104000002], [120.53008932789993, 31.46773328], [120.53019462289613, 31.467190496]]], [[[120.53809174761183, 31.471985088], [120.53914469757392, 31.471080448000002], [120.5241928081122, 31.466466784], [120.53219522782412, 31.471442304], [120.53809174761183, 31.471985088]]], [[[120.54851595223654, 31.387944032], [120.54872654222896, 31.387491712], [120.54841065724034, 31.387491712], [120.54851595223654, 31.387944032]]], [[[120.54662064230477, 31.389391456], [120.54293531743745, 31.400066208], [120.54820006724792, 31.38812496], [120.54662064230477, 31.389391456]]], [[[120.54725241228203, 31.395090688], [120.54662064230477, 31.394728832], [120.54704182228961, 31.395543008], [120.54725241228203, 31.395090688]]], [[[120.5434617924185, 31.397080896], [120.54325120242609, 31.39717136], [120.54356708741471, 31.397261824], [120.5434617924185, 31.397080896]]], [[[120.55799250189538, 31.398437856], [120.55778191190296, 31.39852832], [120.55809779689159, 31.398618784], [120.55799250189538, 31.398437856]]], [[[120.55146421213041, 31.400066208], [120.55083244215315, 31.399975744], [120.55072714715695, 31.400880384], [120.55146421213041, 31.400066208]]], [[[120.55041126216831, 31.402508736], [120.54956890219864, 31.402689664], [120.55009537717969, 31.402961056], [120.55041126216831, 31.402508736]]], [[[120.55894015686127, 31.405584512], [120.55862427187263, 31.405494048], [120.55883486186505, 31.40576544], [120.55894015686127, 31.405584512]]], [[[120.54419885739196, 31.40667008], [120.54388297240334, 31.407031936], [120.54430415238818, 31.407393792], [120.54419885739196, 31.40667008]]], [[[120.55904545185747, 31.41028864], [120.55872956686885, 31.410198176], [120.55894015686127, 31.410469568], [120.55904545185747, 31.41028864]]], [[[120.55915074685367, 31.411012352], [120.55830838688401, 31.411102816], [120.55872956686885, 31.4116456], [120.55915074685367, 31.411012352]]], [[[120.55788720689917, 31.411102816], [120.55725543692192, 31.411555136], [120.55799250189538, 31.411555136], [120.55788720689917, 31.411102816]]], [[[120.54367238241092, 31.408750752], [120.54219825246399, 31.41345488], [120.54283002244125, 31.414449984], [120.54367238241092, 31.408750752]]], [[[120.5491477222138, 31.416349728], [120.54304061243367, 31.420420608], [120.55841368188021, 31.414721376], [120.5491477222138, 31.416349728]]], [[[120.54240884245641, 31.415083232], [120.53967117255497, 31.416892512], [120.54230354746021, 31.42340592], [120.54240884245641, 31.415083232]]], [[[120.54304061243367, 31.41888272], [120.54314590742987, 31.419968288], [120.54440944738438, 31.41933504], [120.54304061243367, 31.41888272]]], [[[120.54767359226688, 31.429014688], [120.54777888726308, 31.429195616], [120.54851595223654, 31.42883376], [120.54767359226688, 31.429014688]]], [[[120.54051353252464, 31.429919328], [120.54030294253222, 31.430009792], [120.54061882752086, 31.430281184000002], [120.54051353252464, 31.429919328]]], [[[120.54630475731615, 31.430100256], [120.54598887232753, 31.430009792], [120.54619946231995, 31.430281184000002], [120.54630475731615, 31.430100256]]], [[[120.54040823752844, 31.430371648], [120.54019764753602, 31.430462112], [120.54051353252464, 31.430733504], [120.54040823752844, 31.430371648]]], [[[120.54030294253222, 31.431457216000002], [120.5398817625474, 31.432090464], [120.5412505974981, 31.432361856], [120.54030294253222, 31.431457216000002]]], [[[120.53967117255497, 31.434804384], [120.53946058256255, 31.434894848], [120.53977646755118, 31.435709024], [120.53967117255497, 31.434804384]]], [[[120.53956587755876, 31.435889952], [120.53935528756634, 31.435980416], [120.53967117255497, 31.43607088], [120.53956587755876, 31.435889952]]], [[[120.53946058256255, 31.437518304], [120.53914469757392, 31.437699232], [120.53946058256255, 31.438061088], [120.53946058256255, 31.437518304]]], [[[120.54988478718727, 31.440684544], [120.5491477222138, 31.440775008], [120.54967419719485, 31.441317792], [120.54988478718727, 31.440684544]]], [[[120.53893410758151, 31.445207744], [120.53861822259287, 31.445298208], [120.53946058256255, 31.445931456], [120.53893410758151, 31.445207744]]], [[[120.54156648248674, 31.445931456], [120.5399870575436, 31.445931456], [120.54146118749053, 31.446112384], [120.54156648248674, 31.445931456]]], [[[120.54293531743745, 31.46954256], [120.54261943244883, 31.469452096], [120.54283002244125, 31.469723488], [120.54293531743745, 31.46954256]]], [[[120.5412505974981, 31.471532768], [120.54082941751327, 31.471442304], [120.54104000750569, 31.471894624], [120.5412505974981, 31.471532768]]], [[[120.54104000750569, 31.474789472], [120.54104000750569, 31.474879936], [120.54177707247915, 31.474246688], [120.54104000750569, 31.474789472]]], [[[120.55525483199393, 31.47542272], [120.55504424200151, 31.475513184], [120.55536012699015, 31.475694112], [120.55525483199393, 31.47542272]]], [[[120.56378372668689, 31.4003376], [120.5638890216831, 31.400156672], [120.56325725170583, 31.400247136], [120.56378372668689, 31.4003376]]], [[[120.5638890216831, 31.400699456], [120.56357313669447, 31.40078992], [120.56399431667931, 31.400970848], [120.5638890216831, 31.400699456]]], [[[120.57968327111449, 31.400880384], [120.57905150113723, 31.40124224], [120.5798938611069, 31.40124224], [120.57968327111449, 31.400880384]]], [[[120.57094378642911, 31.401604096], [120.57104908142533, 31.401785024], [120.57231262137984, 31.401785024], [120.57094378642911, 31.401604096]]], [[[120.56736375655801, 31.401785024], [120.56704787156937, 31.40169456], [120.56715316656559, 31.402056416], [120.56736375655801, 31.401785024]]], [[[120.56546844662624, 31.4025992], [120.56557374162244, 31.402780128], [120.56588962661107, 31.402418272], [120.56546844662624, 31.4025992]]], [[[120.56799552653526, 31.40305152], [120.56683728157695, 31.4025992], [120.56789023153905, 31.403232448], [120.56799552653526, 31.40305152]]], [[[120.57705089620926, 31.40350384], [120.57673501122062, 31.403594304], [120.57715619120546, 31.403684768], [120.57705089620926, 31.40350384]]], [[[120.55915074685367, 31.405403584000002], [120.55894015686127, 31.405494048], [120.55925604184989, 31.405584512], [120.55915074685367, 31.405403584000002]]], [[[120.56399431667931, 31.405222656], [120.56346784169826, 31.405946368], [120.56452079166036, 31.40621776], [120.56399431667931, 31.405222656]]], [[[120.56094076178924, 31.40576544], [120.56062487680062, 31.405946368], [120.56104605678544, 31.405946368], [120.56094076178924, 31.40576544]]], [[[120.56020369681578, 31.405855904], [120.55999310682336, 31.405946368], [120.56030899181198, 31.406036832], [120.56020369681578, 31.405855904]]], [[[120.56325725170583, 31.406308224], [120.56315195670963, 31.406489152], [120.56357313669447, 31.406398688], [120.56325725170583, 31.406308224]]], [[[120.5616778267627, 31.406941472], [120.56136194177408, 31.4071224], [120.5617831217589, 31.407484256], [120.5616778267627, 31.406941472]]], [[[120.56030899181198, 31.410831424], [120.55967722183473, 31.410740960000002], [120.56020369681578, 31.411012352], [120.56030899181198, 31.410831424]]], [[[120.5604142868082, 31.411464672], [120.55967722183473, 31.411374208], [120.56030899181198, 31.4116456], [120.5604142868082, 31.411464672]]], [[[120.5604142868082, 31.413545344], [120.55999310682336, 31.4139072], [120.5605195818044, 31.414088128], [120.5604142868082, 31.413545344]]], [[[120.57694560121304, 31.41797808], [120.57684030621684, 31.418159008], [120.5775773711903, 31.418430400000002], [120.57694560121304, 31.41797808]]], [[[120.57831443616377, 31.424129632], [120.57557676626233, 31.425124736], [120.57020672145565, 31.42883376], [120.58242094101593, 31.423044064], [120.57936738612585, 31.42250128], [120.57831443616377, 31.424129632]]], [[[120.57936738612585, 31.426934016], [120.57926209112965, 31.427295872000002], [120.58031504109174, 31.42838144], [120.57936738612585, 31.426934016]]], [[[120.57820914116755, 31.428562368], [120.57799855117514, 31.428652832], [120.57831443616377, 31.428743296], [120.57820914116755, 31.428562368]]], [[[120.57831443616377, 31.428924224], [120.57820914116755, 31.429376544], [120.57926209112965, 31.430281184000002], [120.57831443616377, 31.428924224]]], [[[120.56220430174375, 31.439418048], [120.56220430174375, 31.439689440000002], [120.56283607172101, 31.439508512], [120.56220430174375, 31.439418048]]], [[[120.56378372668689, 31.440503616], [120.56367843169068, 31.440775008], [120.56420490667172, 31.440684544], [120.56378372668689, 31.440503616]]], [[[120.58147328605004, 31.452444864], [120.58115740106142, 31.4523544], [120.58136799105384, 31.452625792], [120.58147328605004, 31.452444864]]], [[[120.58136799105384, 31.452716256000002], [120.58115740106142, 31.45280672], [120.58147328605004, 31.452897184], [120.58136799105384, 31.452716256000002]]], [[[120.58020974609553, 31.453349504000002], [120.57999915610311, 31.453439968], [120.58031504109174, 31.453530432], [120.58020974609553, 31.453349504000002]]], [[[120.58157858104624, 31.454796928], [120.58115740106142, 31.454706464], [120.5810521060652, 31.455249248], [120.58157858104624, 31.454796928]]], [[[120.57715619120546, 31.471442304], [120.57557676626233, 31.47135184], [120.57673501122062, 31.472075552], [120.57715619120546, 31.471442304]]], [[[120.58347389097801, 31.471442304], [120.57947268112207, 31.471261376], [120.5798938611069, 31.47316112], [120.58347389097801, 31.471442304]]], [[[120.5651525616376, 31.475151328], [120.56494197164518, 31.475241792000002], [120.56525785663382, 31.475332256], [120.5651525616376, 31.475151328]]], [[[120.59116042570129, 31.407665184], [120.59042336072783, 31.407393792], [120.59084454071267, 31.407665184], [120.59116042570129, 31.407665184]]], [[[120.5901074757392, 31.408207968], [120.58989688574678, 31.408298432], [120.5902127707354, 31.408388896], [120.5901074757392, 31.408207968]]], [[[120.59052865572404, 31.408388896], [120.59179219567855, 31.408750752], [120.59273985064443, 31.408117504], [120.59052865572404, 31.408388896]]], [[[120.58979159075058, 31.408569824], [120.58947570576194, 31.408841216], [120.58989688574678, 31.408750752], [120.58979159075058, 31.408569824]]], [[[120.59705694548902, 31.409022144], [120.59600399552691, 31.40893168], [120.59705694548902, 31.409203072], [120.59705694548902, 31.409022144]]], [[[120.58958100075816, 31.409112608], [120.58926511576952, 31.409564928], [120.58968629575436, 31.410017248], [120.58958100075816, 31.409112608]]], [[[120.59189749067475, 31.409384], [120.59147631068993, 31.410107712], [120.59252926065201, 31.410107712], [120.59189749067475, 31.409384]]], [[[120.59073924571645, 31.409926784], [120.59063395072025, 31.410198176], [120.59116042570129, 31.410379104], [120.59073924571645, 31.409926784]]], [[[120.5934769156179, 31.41028864], [120.5935822106141, 31.410831424], [120.59431927558757, 31.410469568], [120.5934769156179, 31.41028864]]], [[[120.60400641523881, 31.410017248], [120.60179522031842, 31.410017248], [120.60011050037907, 31.412369312], [120.60400641523881, 31.410017248]]], [[[120.59621458551933, 31.411736064], [120.59379280060652, 31.4116456], [120.59589870053071, 31.412278848], [120.59621458551933, 31.411736064]]], [[[120.59000218074299, 31.411736064], [120.59000218074299, 31.412369312], [120.5912657206975, 31.412821632], [120.59000218074299, 31.411736064]]], [[[120.59210808066717, 31.415445088000002], [120.58821216580743, 31.417616224], [120.59337162062168, 31.415806944], [120.59210808066717, 31.415445088000002]]], [[[120.59705694548902, 31.416440192], [120.59653047050796, 31.41662112], [120.5968463554966, 31.416711584], [120.59705694548902, 31.416440192]]], [[[120.58736980583775, 31.418159008], [120.58189446603488, 31.421415712], [120.58789628081881, 31.419968288], [120.58736980583775, 31.418159008]]], [[[120.59337162062168, 31.422229888], [120.59316103062928, 31.422320352], [120.5934769156179, 31.422410816], [120.59337162062168, 31.422229888]]], [[[120.60695467513268, 31.422410816], [120.6060070201668, 31.422139424], [120.60684938013647, 31.422682208], [120.60695467513268, 31.422410816]]], [[[120.60769174010615, 31.42204896], [120.60695467513268, 31.424039168], [120.60884998506445, 31.424401024], [120.60769174010615, 31.42204896]]], [[[120.6071652651251, 31.424853344], [120.60548054518576, 31.424581952], [120.60674408514026, 31.4252152], [120.6071652651251, 31.424853344]]], [[[120.59905755041699, 31.425124736], [120.59916284541319, 31.425305664], [120.59958402539803, 31.425124736], [120.59905755041699, 31.425124736]]], [[[120.60874469006824, 31.427657728], [120.60684938013647, 31.427838656], [120.60863939507203, 31.42838144], [120.60874469006824, 31.427657728]]], [[[120.59853107543594, 31.430823968000002], [120.59832048544352, 31.431185824], [120.59937343540561, 31.431276288], [120.59853107543594, 31.430823968000002]]], [[[120.6105347050038, 31.430823968000002], [120.60979764003034, 31.430914432], [120.6105347050038, 31.431276288], [120.6105347050038, 31.430823968000002]]], [[[120.6083235100834, 31.433085568], [120.60779703510235, 31.433176032], [120.60811292009099, 31.433447424], [120.6083235100834, 31.433085568]]], [[[120.60769174010615, 31.433266496], [120.6071652651251, 31.433176032], [120.60758644510993, 31.433447424], [120.60769174010615, 31.433266496]]], [[[120.6071652651251, 31.443941248], [120.60705997012889, 31.44421264], [120.60758644510993, 31.444393568], [120.6071652651251, 31.443941248]]], [[[120.60168992532222, 31.444755424], [120.601584630326, 31.445026816000002], [120.60221640030326, 31.445207744], [120.60168992532222, 31.444755424]]], [[[120.58231564601972, 31.454435072], [120.58199976103108, 31.454344608], [120.5822103510235, 31.454616], [120.58231564601972, 31.454435072]]], [[[120.59653047050796, 31.456153888], [120.59379280060652, 31.457691776], [120.60116345034118, 31.454977856], [120.59653047050796, 31.456153888]]], [[[120.59200278567097, 31.466466784], [120.59179219567855, 31.466466784], [120.59189749067475, 31.466647712], [120.59200278567097, 31.466466784]]], [[[120.58621156087946, 31.469180704], [120.58600097088704, 31.469271168000002], [120.58631685587567, 31.469452096], [120.58621156087946, 31.469180704]]]]}}]}