{"type": "FeatureCollection", "features": [{"type": "Feature", "properties": {"area_ha": 0.0, "mean": null}, "geometry": {"type": "Polygon", "coordinates": [[[120.54293531743745, 31.475241792000002], [120.54283002244125, 31.475151328], [120.54293531743745, 31.475151328], [120.54293531743745, 31.475241792000002]]]}}, {"type": "Feature", "properties": {"area_ha": 0.0, "mean": null}, "geometry": {"type": "Polygon", "coordinates": [[[120.54219825246399, 31.474699008], [120.54209295746779, 31.474608544000002], [120.54219825246399, 31.474608544000002], [120.54219825246399, 31.474699008]]]}}, {"type": "Feature", "properties": {"area_ha": 0.0, "mean": null}, "geometry": {"type": "Polygon", "coordinates": [[[120.54209295746779, 31.474608544000002], [120.54198766247157, 31.47451808], [120.54209295746779, 31.47451808], [120.54209295746779, 31.474608544000002]]]}}, {"type": "Feature", "properties": {"area_ha": 0.0, "mean": null}, "geometry": {"type": "Polygon", "coordinates": [[[120.54167177748295, 31.474156224], [120.54156648248674, 31.474065760000002], [120.54167177748295, 31.474065760000002], [120.54167177748295, 31.474156224]]]}}, {"type": "Feature", "properties": {"area_ha": 0.0, "mean": null}, "geometry": {"type": "Polygon", "coordinates": [[[120.53924999257013, 31.473070656], [120.53914469757392, 31.472980192], [120.53924999257013, 31.472980192], [120.53924999257013, 31.473070656]]]}}, {"type": "Feature", "properties": {"area_ha": 0.0, "mean": null}, "geometry": {"type": "Polygon", "coordinates": [[[120.57863032115239, 31.473070656], [120.57852502615619, 31.472980192], [120.57863032115239, 31.472980192], [120.57863032115239, 31.473070656]]]}}, {"type": "Feature", "properties": {"area_ha": 0.0, "mean": null}, "geometry": {"type": "Polygon", "coordinates": [[[120.57905150113723, 31.473070656], [120.57894620614103, 31.472980192], [120.57905150113723, 31.472980192], [120.57905150113723, 31.473070656]]]}}, {"type": "Feature", "properties": {"area_ha": 0.0, "mean": null}, "geometry": {"type": "Polygon", "coordinates": [[[120.57947268112207, 31.473070656], [120.57936738612585, 31.472980192], [120.57947268112207, 31.472980192], [120.57947268112207, 31.473070656]]]}}, {"type": "Feature", "properties": {"area_ha": 0.0, "mean": null}, "geometry": {"type": "Polygon", "coordinates": [[[120.54019764753602, 31.472075552], [120.5400923525398, 31.471985088], [120.54019764753602, 31.471985088], [120.54019764753602, 31.472075552]]]}}, {"type": "Feature", "properties": {"area_ha": 0.0, "mean": null}, "geometry": {"type": "Polygon", "coordinates": [[[120.5400923525398, 31.471985088], [120.5399870575436, 31.471894624], [120.5400923525398, 31.471894624], [120.5400923525398, 31.471985088]]]}}, {"type": "Feature", "properties": {"area_ha": 0.0, "mean": null}, "geometry": {"type": "Polygon", "coordinates": [[[120.54082941751327, 31.471623232000002], [120.54072412251706, 31.471532768], [120.54082941751327, 31.471532768], [120.54082941751327, 31.471623232000002]]]}}, {"type": "Feature", "properties": {"area_ha": 0.04, "mean": 0.1565}, "geometry": {"type": "Polygon", "coordinates": [[[120.58189446603488, 31.471623232000002], [120.58157858104624, 31.471442304], [120.58178917103866, 31.47135184], [120.58189446603488, 31.471623232000002]]]}}, {"type": "Feature", "properties": {"area_ha": 0.01, "mean": 0.3291}, "geometry": {"type": "Polygon", "coordinates": [[[120.58136799105384, 31.471442304], [120.58115740106142, 31.47135184], [120.58136799105384, 31.47135184], [120.58136799105384, 31.471442304]]]}}, {"type": "Feature", "properties": {"area_ha": 0.0, "mean": null}, "geometry": {"type": "Polygon", "coordinates": [[[120.53935528756634, 31.47135184], [120.53924999257013, 31.471261376], [120.53935528756634, 31.471261376], [120.53935528756634, 31.47135184]]]}}, {"type": "Feature", "properties": {"area_ha": 0.0, "mean": null}, "geometry": {"type": "Polygon", "coordinates": [[[120.58284212100077, 31.47135184], [120.58273682600455, 31.471261376], [120.58284212100077, 31.471261376], [120.58284212100077, 31.47135184]]]}}, {"type": "Feature", "properties": {"area_ha": 0.01, "mean": 0.1842}, "geometry": {"type": "Polygon", "coordinates": [[[120.5388288125853, 31.471080448000002], [120.53851292759667, 31.470989984], [120.5388288125853, 31.470989984], [120.5388288125853, 31.471080448000002]]]}}, {"type": "Feature", "properties": {"area_ha": 0.0, "mean": null}, "geometry": {"type": "Polygon", "coordinates": [[[120.5377758626232, 31.47089952], [120.53767056762699, 31.470809056], [120.5377758626232, 31.470809056], [120.5377758626232, 31.47089952]]]}}, {"type": "Feature", "properties": {"area_ha": 0.0, "mean": null}, "geometry": {"type": "Polygon", "coordinates": [[[120.53303758779379, 31.469904416000002], [120.53293229279758, 31.469813952], [120.53303758779379, 31.469813952], [120.53303758779379, 31.469904416000002]]]}}, {"type": "Feature", "properties": {"area_ha": 0.01, "mean": 0.2412}, "geometry": {"type": "Polygon", "coordinates": [[[120.52956285291889, 31.468999776], [120.52924696793025, 31.468909312], [120.52956285291889, 31.468909312], [120.52956285291889, 31.468999776]]]}}, {"type": "Feature", "properties": {"area_ha": 0.0, "mean": null}, "geometry": {"type": "Polygon", "coordinates": [[[120.52840460796058, 31.468276064], [120.52829931296438, 31.4681856], [120.52840460796058, 31.4681856], [120.52840460796058, 31.468276064]]]}}, {"type": "Feature", "properties": {"area_ha": 0.0, "mean": null}, "geometry": {"type": "Polygon", "coordinates": [[[120.52819401796816, 31.468004672], [120.52808872297196, 31.467914208], [120.52819401796816, 31.467914208], [120.52819401796816, 31.468004672]]]}}, {"type": "Feature", "properties": {"area_ha": 0.0, "mean": null}, "geometry": {"type": "Polygon", "coordinates": [[[120.52808872297196, 31.467914208], [120.52798342797574, 31.467823744], [120.52808872297196, 31.467823744], [120.52808872297196, 31.467914208]]]}}, {"type": "Feature", "properties": {"area_ha": 0.0, "mean": null}, "geometry": {"type": "Polygon", "coordinates": [[[120.52798342797574, 31.467823744], [120.52787813297954, 31.46773328], [120.52798342797574, 31.46773328], [120.52798342797574, 31.467823744]]]}}, {"type": "Feature", "properties": {"area_ha": 0.01, "mean": 0.3418}, "geometry": {"type": "Polygon", "coordinates": [[[120.52777283798332, 31.46773328], [120.5274569529947, 31.467642816], [120.52777283798332, 31.467642816], [120.52777283798332, 31.46773328]]]}}, {"type": "Feature", "properties": {"area_ha": 0.0, "mean": null}, "geometry": {"type": "Polygon", "coordinates": [[[120.5273516579985, 31.467642816], [120.52724636300228, 31.467552352000002], [120.5273516579985, 31.467552352000002], [120.5273516579985, 31.467642816]]]}}, {"type": "Feature", "properties": {"area_ha": 0.0, "mean": null}, "geometry": {"type": "Polygon", "coordinates": [[[120.53008932789993, 31.467642816], [120.52998403290371, 31.467552352000002], [120.53008932789993, 31.467552352000002], [120.53008932789993, 31.467642816]]]}}, {"type": "Feature", "properties": {"area_ha": 0.0, "mean": null}, "geometry": {"type": "Polygon", "coordinates": [[[120.52703577300986, 31.467552352000002], [120.52693047801365, 31.467461888], [120.52703577300986, 31.467461888], [120.52703577300986, 31.467552352000002]]]}}, {"type": "Feature", "properties": {"area_ha": 0.02, "mean": 0.1367}, "geometry": {"type": "Polygon", "coordinates": [[[120.60126874533738, 31.456515744], [120.60116345034118, 31.456606208], [120.60105815534496, 31.45642528], [120.60126874533738, 31.456515744]]]}}, {"type": "Feature", "properties": {"area_ha": 0.0, "mean": null}, "geometry": {"type": "Polygon", "coordinates": [[[120.60063697536013, 31.45597296], [120.60053168036391, 31.455882496], [120.60063697536013, 31.455882496], [120.60063697536013, 31.45597296]]]}}, {"type": "Feature", "properties": {"area_ha": 0.0, "mean": null}, "geometry": {"type": "Polygon", "coordinates": [[[120.53724938764216, 31.447288416], [120.53714409264595, 31.447197952], [120.53724938764216, 31.447197952], [120.53724938764216, 31.447288416]]]}}, {"type": "Feature", "properties": {"area_ha": 0.0, "mean": null}, "geometry": {"type": "Polygon", "coordinates": [[[120.5398817625474, 31.446202848000002], [120.53977646755118, 31.446112384], [120.5398817625474, 31.446112384], [120.5398817625474, 31.446202848000002]]]}}, {"type": "Feature", "properties": {"area_ha": 0.0, "mean": null}, "geometry": {"type": "Polygon", "coordinates": [[[120.60758644510993, 31.444936352], [120.60748115011373, 31.444845888], [120.60758644510993, 31.444845888], [120.60758644510993, 31.444936352]]]}}, {"type": "Feature", "properties": {"area_ha": 0.01, "mean": 0.1379}, "geometry": {"type": "Polygon", "coordinates": [[[120.53788115761941, 31.444122176], [120.5377758626232, 31.443941248], [120.53788115761941, 31.443941248], [120.53788115761941, 31.444122176]]]}}, {"type": "Feature", "properties": {"area_ha": 0.0, "mean": null}, "geometry": {"type": "Polygon", "coordinates": [[[120.53809174761183, 31.442946144], [120.53798645261563, 31.44285568], [120.53809174761183, 31.44285568], [120.53809174761183, 31.442946144]]]}}, {"type": "Feature", "properties": {"area_ha": 0.01, "mean": 0.1179}, "geometry": {"type": "Polygon", "coordinates": [[[120.53840763260045, 31.441408256], [120.53830233760425, 31.441227328], [120.53840763260045, 31.441227328], [120.53840763260045, 31.441408256]]]}}, {"type": "Feature", "properties": {"area_ha": 0.01, "mean": 0.1724}, "geometry": {"type": "Polygon", "coordinates": [[[120.53851292759667, 31.440955936], [120.53840763260045, 31.440775008], [120.53851292759667, 31.440775008], [120.53851292759667, 31.440955936]]]}}, {"type": "Feature", "properties": {"area_ha": 0.0, "mean": null}, "geometry": {"type": "Polygon", "coordinates": [[[120.53861822259287, 31.440322688000002], [120.53851292759667, 31.440232224], [120.53861822259287, 31.440232224], [120.53861822259287, 31.440322688000002]]]}}, {"type": "Feature", "properties": {"area_ha": 0.0, "mean": null}, "geometry": {"type": "Polygon", "coordinates": [[[120.5388288125853, 31.43923712], [120.53872351758909, 31.439146656000002], [120.5388288125853, 31.439146656000002], [120.5388288125853, 31.43923712]]]}}, {"type": "Feature", "properties": {"area_ha": 0.04, "mean": 0.3323}, "geometry": {"type": "Polygon", "coordinates": [[[120.58515861091736, 31.434171136], [120.58473743093253, 31.434171136], [120.58505331592116, 31.433990208], [120.58515861091736, 31.434171136]]]}}, {"type": "Feature", "properties": {"area_ha": 0.01, "mean": 0.1754}, "geometry": {"type": "Polygon", "coordinates": [[[120.51682215837756, 31.433809280000002], [120.51671686338135, 31.433628352], [120.51682215837756, 31.433628352], [120.51682215837756, 31.433809280000002]]]}}, {"type": "Feature", "properties": {"area_ha": 0.04, "mean": 0.3419}, "geometry": {"type": "Polygon", "coordinates": [[[120.58494802092494, 31.43335696], [120.58452684094011, 31.432995104], [120.58505331592116, 31.433176032], [120.58494802092494, 31.43335696]]]}}, {"type": "Feature", "properties": {"area_ha": 0.0, "mean": null}, "geometry": {"type": "Polygon", "coordinates": [[[120.5398817625474, 31.433085568], [120.53977646755118, 31.432995104], [120.5398817625474, 31.432995104], [120.5398817625474, 31.433085568]]]}}, {"type": "Feature", "properties": {"area_ha": 0.02, "mean": 0.3607}, "geometry": {"type": "Polygon", "coordinates": [[[120.58915982077332, 31.432633248000002], [120.5888439357847, 31.432542784], [120.5890545257771, 31.43245232], [120.58915982077332, 31.432633248000002]]]}}, {"type": "Feature", "properties": {"area_ha": 0.0, "mean": null}, "geometry": {"type": "Polygon", "coordinates": [[[120.51934923828658, 31.432090464], [120.51924394329038, 31.432000000000002], [120.51934923828658, 31.432000000000002], [120.51934923828658, 31.432090464]]]}}, {"type": "Feature", "properties": {"area_ha": 0.0, "mean": null}, "geometry": {"type": "Polygon", "coordinates": [[[120.51924394329038, 31.432000000000002], [120.51913864829417, 31.431909536], [120.51924394329038, 31.431909536], [120.51924394329038, 31.432000000000002]]]}}, {"type": "Feature", "properties": {"area_ha": 0.0, "mean": null}, "geometry": {"type": "Polygon", "coordinates": [[[120.51787510833965, 31.43154768], [120.51776981334345, 31.431457216000002], [120.51787510833965, 31.431457216000002], [120.51787510833965, 31.43154768]]]}}, {"type": "Feature", "properties": {"area_ha": 0.0, "mean": null}, "geometry": {"type": "Polygon", "coordinates": [[[120.51776981334345, 31.431457216000002], [120.51766451834723, 31.431366752], [120.51776981334345, 31.431366752], [120.51776981334345, 31.431457216000002]]]}}, {"type": "Feature", "properties": {"area_ha": 0.04, "mean": 0.2229}, "geometry": {"type": "Polygon", "coordinates": [[[120.51934923828658, 31.431457216000002], [120.51903335329796, 31.431276288], [120.51924394329038, 31.431185824], [120.51934923828658, 31.431457216000002]]]}}, {"type": "Feature", "properties": {"area_ha": 0.0, "mean": null}, "geometry": {"type": "Polygon", "coordinates": [[[120.59863637043215, 31.431004896], [120.59853107543594, 31.430914432], [120.59863637043215, 31.430914432], [120.59863637043215, 31.431004896]]]}}, {"type": "Feature", "properties": {"area_ha": 0.0, "mean": null}, "geometry": {"type": "Polygon", "coordinates": [[[120.5457782823351, 31.430281184000002], [120.5456729873389, 31.43019072], [120.5457782823351, 31.43019072], [120.5457782823351, 31.430281184000002]]]}}, {"type": "Feature", "properties": {"area_ha": 0.0, "mean": null}, "geometry": {"type": "Polygon", "coordinates": [[[120.51829628832449, 31.430100256], [120.51819099332829, 31.430009792], [120.51829628832449, 31.430009792], [120.51829628832449, 31.430100256]]]}}, {"type": "Feature", "properties": {"area_ha": 0.0, "mean": null}, "geometry": {"type": "Polygon", "coordinates": [[[120.52019159825626, 31.430100256], [120.52008630326004, 31.430009792], [120.52019159825626, 31.430009792], [120.52019159825626, 31.430100256]]]}}, {"type": "Feature", "properties": {"area_ha": 0.0, "mean": null}, "geometry": {"type": "Polygon", "coordinates": [[[120.56925906648976, 31.429647936000002], [120.56915377149356, 31.429557472], [120.56925906648976, 31.429557472], [120.56925906648976, 31.429647936000002]]]}}, {"type": "Feature", "properties": {"area_ha": 0.0, "mean": null}, "geometry": {"type": "Polygon", "coordinates": [[[120.51892805830175, 31.429195616], [120.51882276330554, 31.429105152], [120.51892805830175, 31.429105152], [120.51892805830175, 31.429195616]]]}}, {"type": "Feature", "properties": {"area_ha": 0.01, "mean": 0.3047}, "geometry": {"type": "Polygon", "coordinates": [[[120.54862124723276, 31.42928608], [120.54851595223654, 31.429014688], [120.54862124723276, 31.429014688], [120.54862124723276, 31.42928608]]]}}, {"type": "Feature", "properties": {"area_ha": 0.01, "mean": 0.2166}, "geometry": {"type": "Polygon", "coordinates": [[[120.57199673639121, 31.429105152], [120.571891441395, 31.42883376], [120.57199673639121, 31.42883376], [120.57199673639121, 31.429105152]]]}}, {"type": "Feature", "properties": {"area_ha": 0.0, "mean": null}, "geometry": {"type": "Polygon", "coordinates": [[[120.60621761015922, 31.42883376], [120.606112315163, 31.428743296], [120.60621761015922, 31.428743296], [120.60621761015922, 31.42883376]]]}}, {"type": "Feature", "properties": {"area_ha": 0.01, "mean": 0.2273}, "geometry": {"type": "Polygon", "coordinates": [[[120.52029689325246, 31.428924224], [120.52019159825626, 31.428652832], [120.52029689325246, 31.428652832], [120.52029689325246, 31.428924224]]]}}, {"type": "Feature", "properties": {"area_ha": 0.0, "mean": null}, "geometry": {"type": "Polygon", "coordinates": [[[120.52040218824868, 31.428652832], [120.52029689325246, 31.428562368], [120.52040218824868, 31.428562368], [120.52040218824868, 31.428652832]]]}}, {"type": "Feature", "properties": {"area_ha": 0.01, "mean": 0.2607}, "geometry": {"type": "Polygon", "coordinates": [[[120.5206127782411, 31.428562368], [120.52040218824868, 31.428471904000002], [120.5206127782411, 31.428471904000002], [120.5206127782411, 31.428562368]]]}}, {"type": "Feature", "properties": {"area_ha": 0.01, "mean": 0.3003}, "geometry": {"type": "Polygon", "coordinates": [[[120.606112315163, 31.428471904000002], [120.6060070201668, 31.428562368], [120.60590172517058, 31.428471904000002], [120.606112315163, 31.428471904000002]]]}}, {"type": "Feature", "properties": {"area_ha": 0.0, "mean": null}, "geometry": {"type": "Polygon", "coordinates": [[[120.57231262137984, 31.428471904000002], [120.57220732638363, 31.42838144], [120.57231262137984, 31.42838144], [120.57231262137984, 31.428471904000002]]]}}, {"type": "Feature", "properties": {"area_ha": 0.0, "mean": null}, "geometry": {"type": "Polygon", "coordinates": [[[120.57241791637604, 31.42838144], [120.57231262137984, 31.428290976], [120.57241791637604, 31.428290976], [120.57241791637604, 31.42838144]]]}}, {"type": "Feature", "properties": {"area_ha": 0.0, "mean": null}, "geometry": {"type": "Polygon", "coordinates": [[[120.54767359226688, 31.428290976], [120.54756829727066, 31.428200512], [120.54767359226688, 31.428200512], [120.54767359226688, 31.428290976]]]}}, {"type": "Feature", "properties": {"area_ha": 0.0, "mean": null}, "geometry": {"type": "Polygon", "coordinates": [[[120.57252321137226, 31.428290976], [120.57241791637604, 31.428200512], [120.57252321137226, 31.428200512], [120.57252321137226, 31.428290976]]]}}, {"type": "Feature", "properties": {"area_ha": 0.01, "mean": 0.2635}, "geometry": {"type": "Polygon", "coordinates": [[[120.60579643017438, 31.428290976], [120.60558584018196, 31.428200512], [120.60579643017438, 31.428200512], [120.60579643017438, 31.428290976]]]}}, {"type": "Feature", "properties": {"area_ha": 0.0, "mean": null}, "geometry": {"type": "Polygon", "coordinates": [[[120.57262850636846, 31.428200512], [120.57252321137226, 31.428110048], [120.57262850636846, 31.428110048], [120.57262850636846, 31.428200512]]]}}, {"type": "Feature", "properties": {"area_ha": 0.0, "mean": null}, "geometry": {"type": "Polygon", "coordinates": [[[120.5206127782411, 31.428110048], [120.52050748324488, 31.428019584], [120.5206127782411, 31.428019584], [120.5206127782411, 31.428110048]]]}}, {"type": "Feature", "properties": {"area_ha": 0.0, "mean": null}, "geometry": {"type": "Polygon", "coordinates": [[[120.54756829727066, 31.428110048], [120.54746300227445, 31.428019584], [120.54756829727066, 31.428019584], [120.54756829727066, 31.428110048]]]}}, {"type": "Feature", "properties": {"area_ha": 0.0, "mean": null}, "geometry": {"type": "Polygon", "coordinates": [[[120.5730496863533, 31.42792912], [120.5729443913571, 31.427838656], [120.5730496863533, 31.427838656], [120.5730496863533, 31.42792912]]]}}, {"type": "Feature", "properties": {"area_ha": 0.01, "mean": 0.2585}, "geometry": {"type": "Polygon", "coordinates": [[[120.54051353252464, 31.42792912], [120.54040823752844, 31.427748192], [120.54051353252464, 31.427748192], [120.54051353252464, 31.42792912]]]}}, {"type": "Feature", "properties": {"area_ha": 0.0, "mean": null}, "geometry": {"type": "Polygon", "coordinates": [[[120.54872654222896, 31.427748192], [120.54862124723276, 31.427657728], [120.54872654222896, 31.427657728], [120.54872654222896, 31.427748192]]]}}, {"type": "Feature", "properties": {"area_ha": 0.0, "mean": null}, "geometry": {"type": "Polygon", "coordinates": [[[120.57357616133434, 31.427748192], [120.57347086633814, 31.427657728], [120.57357616133434, 31.427657728], [120.57357616133434, 31.427748192]]]}}, {"type": "Feature", "properties": {"area_ha": 0.0, "mean": null}, "geometry": {"type": "Polygon", "coordinates": [[[120.52187631819561, 31.427657728], [120.52177102319939, 31.427567264], [120.52187631819561, 31.427567264], [120.52187631819561, 31.427657728]]]}}, {"type": "Feature", "properties": {"area_ha": 0.01, "mean": 0.1732}, "geometry": {"type": "Polygon", "coordinates": [[[120.57378675132676, 31.427657728], [120.57357616133434, 31.427567264], [120.57378675132676, 31.427567264], [120.57378675132676, 31.427657728]]]}}, {"type": "Feature", "properties": {"area_ha": 0.0, "mean": null}, "geometry": {"type": "Polygon", "coordinates": [[[120.57389204632298, 31.427567264], [120.57378675132676, 31.4274768], [120.57389204632298, 31.4274768], [120.57389204632298, 31.427567264]]]}}, {"type": "Feature", "properties": {"area_ha": 0.0, "mean": null}, "geometry": {"type": "Polygon", "coordinates": [[[120.60727056012131, 31.427567264], [120.6071652651251, 31.4274768], [120.60727056012131, 31.4274768], [120.60727056012131, 31.427567264]]]}}, {"type": "Feature", "properties": {"area_ha": 0.0, "mean": null}, "geometry": {"type": "Polygon", "coordinates": [[[120.52303456315391, 31.4274768], [120.5229292681577, 31.427386336], [120.52303456315391, 31.427386336], [120.52303456315391, 31.4274768]]]}}, {"type": "Feature", "properties": {"area_ha": 0.0, "mean": null}, "geometry": {"type": "Polygon", "coordinates": [[[120.54714711728583, 31.4274768], [120.54704182228961, 31.427386336], [120.54714711728583, 31.427386336], [120.54714711728583, 31.4274768]]]}}, {"type": "Feature", "properties": {"area_ha": 0.0, "mean": null}, "geometry": {"type": "Polygon", "coordinates": [[[120.60758644510993, 31.4274768], [120.60748115011373, 31.427386336], [120.60758644510993, 31.427386336], [120.60758644510993, 31.4274768]]]}}, {"type": "Feature", "properties": {"area_ha": 0.03, "mean": 0.2082}, "geometry": {"type": "Polygon", "coordinates": [[[120.57705089620926, 31.427386336], [120.57652442122821, 31.427205408], [120.57705089620926, 31.427295872000002], [120.57705089620926, 31.427386336]]]}}, {"type": "Feature", "properties": {"area_ha": 0.02, "mean": 0.1614}, "geometry": {"type": "Polygon", "coordinates": [[[120.576419126232, 31.427295872000002], [120.57589265125095, 31.427205408], [120.576419126232, 31.427205408], [120.576419126232, 31.427295872000002]]]}}, {"type": "Feature", "properties": {"area_ha": 0.0, "mean": null}, "geometry": {"type": "Polygon", "coordinates": [[[120.54072412251706, 31.427205408], [120.54061882752086, 31.427114944], [120.54072412251706, 31.427114944], [120.54072412251706, 31.427205408]]]}}, {"type": "Feature", "properties": {"area_ha": 0.01, "mean": 0.2417}, "geometry": {"type": "Polygon", "coordinates": [[[120.57568206125853, 31.427205408], [120.57547147126611, 31.427114944], [120.57568206125853, 31.427114944], [120.57568206125853, 31.427205408]]]}}, {"type": "Feature", "properties": {"area_ha": 0.01, "mean": 0.2161}, "geometry": {"type": "Polygon", "coordinates": [[[120.57547147126611, 31.427114944], [120.57515558627749, 31.42702448], [120.57547147126611, 31.42702448], [120.57547147126611, 31.427114944]]]}}, {"type": "Feature", "properties": {"area_ha": 0.03, "mean": 0.209}, "geometry": {"type": "Polygon", "coordinates": [[[120.57515558627749, 31.42702448], [120.57452381630023, 31.426934016], [120.57515558627749, 31.426934016], [120.57515558627749, 31.42702448]]]}}, {"type": "Feature", "properties": {"area_ha": 0.0, "mean": null}, "geometry": {"type": "Polygon", "coordinates": [[[120.54082941751327, 31.425486592], [120.54072412251706, 31.425396128], [120.54082941751327, 31.425396128], [120.54082941751327, 31.425486592]]]}}, {"type": "Feature", "properties": {"area_ha": 0.0, "mean": null}, "geometry": {"type": "Polygon", "coordinates": [[[120.54072412251706, 31.425124736], [120.54061882752086, 31.425034272], [120.54072412251706, 31.425034272], [120.54072412251706, 31.425124736]]]}}, {"type": "Feature", "properties": {"area_ha": 0.0, "mean": null}, "geometry": {"type": "Polygon", "coordinates": [[[120.606112315163, 31.425124736], [120.6060070201668, 31.425034272], [120.606112315163, 31.425034272], [120.606112315163, 31.425124736]]]}}, {"type": "Feature", "properties": {"area_ha": 0.0, "mean": null}, "geometry": {"type": "Polygon", "coordinates": [[[120.6060070201668, 31.425034272], [120.60590172517058, 31.424943808000002], [120.6060070201668, 31.424943808000002], [120.6060070201668, 31.425034272]]]}}, {"type": "Feature", "properties": {"area_ha": 0.0, "mean": null}, "geometry": {"type": "Polygon", "coordinates": [[[120.54061882752086, 31.424853344], [120.54051353252464, 31.42476288], [120.54061882752086, 31.42476288], [120.54061882752086, 31.424853344]]]}}, {"type": "Feature", "properties": {"area_ha": 0.04, "mean": 0.2192}, "geometry": {"type": "Polygon", "coordinates": [[[120.60800762509477, 31.42476288], [120.60769174010615, 31.42476288], [120.60758644510993, 31.424491488], [120.60800762509477, 31.42476288]]]}}, {"type": "Feature", "properties": {"area_ha": 0.0, "mean": null}, "geometry": {"type": "Polygon", "coordinates": [[[120.60758644510993, 31.424491488], [120.60748115011373, 31.424401024], [120.60758644510993, 31.424401024], [120.60758644510993, 31.424491488]]]}}, {"type": "Feature", "properties": {"area_ha": 0.06, "mean": 0.2963}, "geometry": {"type": "Polygon", "coordinates": [[[120.60505936520092, 31.424581952], [120.60474348021229, 31.424581952], [120.6048487752085, 31.424220096], [120.60505936520092, 31.424581952]]]}}, {"type": "Feature", "properties": {"area_ha": 0.02, "mean": 0.2386}, "geometry": {"type": "Polygon", "coordinates": [[[120.60748115011373, 31.424220096], [120.60727056012131, 31.42431056], [120.60727056012131, 31.424129632], [120.60748115011373, 31.424220096]]]}}, {"type": "Feature", "properties": {"area_ha": 0.0, "mean": null}, "geometry": {"type": "Polygon", "coordinates": [[[120.54040823752844, 31.424220096], [120.54030294253222, 31.424129632], [120.54040823752844, 31.424129632], [120.54040823752844, 31.424220096]]]}}, {"type": "Feature", "properties": {"area_ha": 0.0, "mean": null}, "geometry": {"type": "Polygon", "coordinates": [[[120.55020067217589, 31.424220096], [120.55009537717969, 31.424129632], [120.55020067217589, 31.424129632], [120.55020067217589, 31.424220096]]]}}, {"type": "Feature", "properties": {"area_ha": 0.0, "mean": null}, "geometry": {"type": "Polygon", "coordinates": [[[120.60727056012131, 31.424129632], [120.6071652651251, 31.424039168], [120.60727056012131, 31.424039168], [120.60727056012131, 31.424129632]]]}}, {"type": "Feature", "properties": {"area_ha": 0.01, "mean": 0.2817}, "geometry": {"type": "Polygon", "coordinates": [[[120.6048487752085, 31.423948704], [120.60474348021229, 31.423767776000002], [120.6048487752085, 31.423767776000002], [120.6048487752085, 31.423948704]]]}}, {"type": "Feature", "properties": {"area_ha": 0.0, "mean": null}, "geometry": {"type": "Polygon", "coordinates": [[[120.5935822106141, 31.42340592], [120.5934769156179, 31.423315456], [120.5935822106141, 31.423315456], [120.5935822106141, 31.42340592]]]}}, {"type": "Feature", "properties": {"area_ha": 0.0, "mean": null}, "geometry": {"type": "Polygon", "coordinates": [[[120.57926209112965, 31.423044064], [120.57915679613343, 31.4229536], [120.57926209112965, 31.4229536], [120.57926209112965, 31.423044064]]]}}, {"type": "Feature", "properties": {"area_ha": 0.0, "mean": null}, "geometry": {"type": "Polygon", "coordinates": [[[120.60569113517816, 31.422772672], [120.60558584018196, 31.422682208], [120.60569113517816, 31.422682208], [120.60569113517816, 31.422772672]]]}}, {"type": "Feature", "properties": {"area_ha": 0.0, "mean": null}, "geometry": {"type": "Polygon", "coordinates": [[[120.59337162062168, 31.422682208], [120.59326632562548, 31.422591744], [120.59337162062168, 31.422591744], [120.59337162062168, 31.422682208]]]}}, {"type": "Feature", "properties": {"area_ha": 0.0, "mean": null}, "geometry": {"type": "Polygon", "coordinates": [[[120.60558584018196, 31.422682208], [120.60548054518576, 31.422591744], [120.60558584018196, 31.422591744], [120.60558584018196, 31.422682208]]]}}, {"type": "Feature", "properties": {"area_ha": 0.12, "mean": 0.2023}, "geometry": {"type": "Polygon", "coordinates": [[[120.60748115011373, 31.4229536], [120.60705997012889, 31.423224992], [120.60737585511751, 31.42250128], [120.60748115011373, 31.4229536]]]}}, {"type": "Feature", "properties": {"area_ha": 0.0, "mean": null}, "geometry": {"type": "Polygon", "coordinates": [[[120.58063092608037, 31.422410816], [120.58052563108416, 31.422320352], [120.58063092608037, 31.422320352], [120.58063092608037, 31.422410816]]]}}, {"type": "Feature", "properties": {"area_ha": 0.02, "mean": 0.3422}, "geometry": {"type": "Polygon", "coordinates": [[[120.60758644510993, 31.42250128], [120.60737585511751, 31.422320352], [120.60758644510993, 31.422229888], [120.60758644510993, 31.42250128]]]}}, {"type": "Feature", "properties": {"area_ha": 0.0, "mean": null}, "geometry": {"type": "Polygon", "coordinates": [[[120.60516466019712, 31.422320352], [120.6049540702047, 31.422139424], [120.60516466019712, 31.422229888], [120.60516466019712, 31.422320352]]]}}, {"type": "Feature", "properties": {"area_ha": 0.02, "mean": 0.3255}, "geometry": {"type": "Polygon", "coordinates": [[[120.5935822106141, 31.422229888], [120.5934769156179, 31.422320352], [120.59326632562548, 31.422139424], [120.5935822106141, 31.422229888]]]}}, {"type": "Feature", "properties": {"area_ha": 0.0, "mean": null}, "geometry": {"type": "Polygon", "coordinates": [[[120.60769174010615, 31.422229888], [120.60758644510993, 31.422139424], [120.60769174010615, 31.422139424], [120.60769174010615, 31.422229888]]]}}, {"type": "Feature", "properties": {"area_ha": 0.0, "mean": null}, "geometry": {"type": "Polygon", "coordinates": [[[120.60505936520092, 31.42204896], [120.6049540702047, 31.421958496000002], [120.60505936520092, 31.421958496000002], [120.60505936520092, 31.42204896]]]}}, {"type": "Feature", "properties": {"area_ha": 0.0, "mean": null}, "geometry": {"type": "Polygon", "coordinates": [[[120.58242094101593, 31.421234784], [120.58231564601972, 31.42114432], [120.58242094101593, 31.42114432], [120.58242094101593, 31.421234784]]]}}, {"type": "Feature", "properties": {"area_ha": 0.0, "mean": null}, "geometry": {"type": "Polygon", "coordinates": [[[120.60411171023503, 31.42114432], [120.60400641523881, 31.421053856], [120.60411171023503, 31.421053856], [120.60411171023503, 31.42114432]]]}}, {"type": "Feature", "properties": {"area_ha": 0.0, "mean": null}, "geometry": {"type": "Polygon", "coordinates": [[[120.58273682600455, 31.421053856], [120.58263153100835, 31.420963392], [120.58273682600455, 31.420963392], [120.58273682600455, 31.421053856]]]}}, {"type": "Feature", "properties": {"area_ha": 0.02, "mean": 0.2761}, "geometry": {"type": "Polygon", "coordinates": [[[120.54230354746021, 31.421234784], [120.54219825246399, 31.420872928], [120.54230354746021, 31.420872928], [120.54230354746021, 31.421234784]]]}}, {"type": "Feature", "properties": {"area_ha": 0.0, "mean": null}, "geometry": {"type": "Polygon", "coordinates": [[[120.55051655716453, 31.420963392], [120.55041126216831, 31.420872928], [120.55051655716453, 31.420872928], [120.55051655716453, 31.420963392]]]}}, {"type": "Feature", "properties": {"area_ha": 0.0, "mean": null}, "geometry": {"type": "Polygon", "coordinates": [[[120.58284212100077, 31.420963392], [120.58273682600455, 31.420872928], [120.58284212100077, 31.420872928], [120.58284212100077, 31.420963392]]]}}, {"type": "Feature", "properties": {"area_ha": 0.0, "mean": null}, "geometry": {"type": "Polygon", "coordinates": [[[120.58294741599697, 31.420872928], [120.58284212100077, 31.420782464000002], [120.58294741599697, 31.420782464000002], [120.58294741599697, 31.420872928]]]}}, {"type": "Feature", "properties": {"area_ha": 0.0, "mean": null}, "geometry": {"type": "Polygon", "coordinates": [[[120.58305271099319, 31.420782464000002], [120.58294741599697, 31.420692], [120.58305271099319, 31.420692], [120.58305271099319, 31.420782464000002]]]}}, {"type": "Feature", "properties": {"area_ha": 0.0, "mean": null}, "geometry": {"type": "Polygon", "coordinates": [[[120.58315800598939, 31.420692], [120.58305271099319, 31.420601536], [120.58315800598939, 31.420601536], [120.58315800598939, 31.420692]]]}}, {"type": "Feature", "properties": {"area_ha": 0.0, "mean": null}, "geometry": {"type": "Polygon", "coordinates": [[[120.58621156087946, 31.420601536], [120.58610626588325, 31.420511072], [120.58621156087946, 31.420511072], [120.58621156087946, 31.420601536]]]}}, {"type": "Feature", "properties": {"area_ha": 0.01, "mean": 0.3132}, "geometry": {"type": "Polygon", "coordinates": [[[120.58326330098559, 31.420601536], [120.58315800598939, 31.420420608], [120.58326330098559, 31.420420608], [120.58326330098559, 31.420601536]]]}}, {"type": "Feature", "properties": {"area_ha": 0.0, "mean": null}, "geometry": {"type": "Polygon", "coordinates": [[[120.58336859598181, 31.420330144], [120.58326330098559, 31.42023968], [120.58336859598181, 31.42023968], [120.58336859598181, 31.420330144]]]}}, {"type": "Feature", "properties": {"area_ha": 0.0, "mean": null}, "geometry": {"type": "Polygon", "coordinates": [[[120.58684333085671, 31.420330144], [120.5867380358605, 31.42023968], [120.58684333085671, 31.42023968], [120.58684333085671, 31.420330144]]]}}, {"type": "Feature", "properties": {"area_ha": 0.0, "mean": null}, "geometry": {"type": "Polygon", "coordinates": [[[120.54367238241092, 31.42023968], [120.54356708741471, 31.420149216], [120.54367238241092, 31.420149216], [120.54367238241092, 31.42023968]]]}}, {"type": "Feature", "properties": {"area_ha": 0.01, "mean": 0.3479}, "geometry": {"type": "Polygon", "coordinates": [[[120.58736980583775, 31.42023968], [120.58715921584535, 31.420149216], [120.58736980583775, 31.420149216], [120.58736980583775, 31.42023968]]]}}, {"type": "Feature", "properties": {"area_ha": 0.01, "mean": 0.2451}, "geometry": {"type": "Polygon", "coordinates": [[[120.58357918597423, 31.42023968], [120.58347389097801, 31.420058752], [120.58357918597423, 31.420058752], [120.58357918597423, 31.42023968]]]}}, {"type": "Feature", "properties": {"area_ha": 0.0, "mean": null}, "geometry": {"type": "Polygon", "coordinates": [[[120.54104000750569, 31.420058752], [120.54093471250948, 31.419968288], [120.54104000750569, 31.419968288], [120.54104000750569, 31.420058752]]]}}, {"type": "Feature", "properties": {"area_ha": 0.01, "mean": 0.3189}, "geometry": {"type": "Polygon", "coordinates": [[[120.58378977596665, 31.420058752], [120.58368448097043, 31.419877824], [120.58378977596665, 31.419877824], [120.58378977596665, 31.420058752]]]}}, {"type": "Feature", "properties": {"area_ha": 0.0, "mean": null}, "geometry": {"type": "Polygon", "coordinates": [[[120.58410566095527, 31.41978736], [120.58400036595907, 31.419696896], [120.58410566095527, 31.419696896], [120.58410566095527, 31.41978736]]]}}, {"type": "Feature", "properties": {"area_ha": 0.0, "mean": null}, "geometry": {"type": "Polygon", "coordinates": [[[120.58400036595907, 31.419696896], [120.58389507096285, 31.419606432000002], [120.58400036595907, 31.419606432000002], [120.58400036595907, 31.419696896]]]}}, {"type": "Feature", "properties": {"area_ha": 0.04, "mean": 0.2955}, "geometry": {"type": "Polygon", "coordinates": [[[120.58473743093253, 31.419696896], [120.58463213593632, 31.419515968], [120.58494802092494, 31.41933504], [120.58473743093253, 31.419696896]]]}}, {"type": "Feature", "properties": {"area_ha": 0.01, "mean": 0.1762}, "geometry": {"type": "Polygon", "coordinates": [[[120.55072714715695, 31.419606432000002], [120.55062185216073, 31.41933504], [120.55072714715695, 31.41933504], [120.55072714715695, 31.419606432000002]]]}}, {"type": "Feature", "properties": {"area_ha": 0.0, "mean": null}, "geometry": {"type": "Polygon", "coordinates": [[[120.58526390591358, 31.419244576], [120.58515861091736, 31.419154112], [120.58526390591358, 31.419154112], [120.58526390591358, 31.419244576]]]}}, {"type": "Feature", "properties": {"area_ha": 0.0, "mean": null}, "geometry": {"type": "Polygon", "coordinates": [[[120.58536920090978, 31.419154112], [120.58526390591358, 31.419063648], [120.58536920090978, 31.419063648], [120.58536920090978, 31.419154112]]]}}, {"type": "Feature", "properties": {"area_ha": 0.01, "mean": 0.3493}, "geometry": {"type": "Polygon", "coordinates": [[[120.58937041076574, 31.419063648], [120.58915982077332, 31.418973184], [120.58937041076574, 31.418973184], [120.58937041076574, 31.419063648]]]}}, {"type": "Feature", "properties": {"area_ha": 0.0, "mean": null}, "geometry": {"type": "Polygon", "coordinates": [[[120.58600097088704, 31.418973184], [120.58589567589082, 31.41888272], [120.58600097088704, 31.41888272], [120.58600097088704, 31.418973184]]]}}, {"type": "Feature", "properties": {"area_ha": 0.0, "mean": null}, "geometry": {"type": "Polygon", "coordinates": [[[120.58968629575436, 31.418701792], [120.58958100075816, 31.418611328], [120.58968629575436, 31.418611328], [120.58968629575436, 31.418701792]]]}}, {"type": "Feature", "properties": {"area_ha": 0.0, "mean": null}, "geometry": {"type": "Polygon", "coordinates": [[[120.58979159075058, 31.418611328], [120.58968629575436, 31.418520864], [120.58979159075058, 31.418520864], [120.58979159075058, 31.418611328]]]}}, {"type": "Feature", "properties": {"area_ha": 0.01, "mean": 0.2702}, "geometry": {"type": "Polygon", "coordinates": [[[120.58631685587567, 31.418701792], [120.58621156087946, 31.418430400000002], [120.58631685587567, 31.418430400000002], [120.58631685587567, 31.418701792]]]}}, {"type": "Feature", "properties": {"area_ha": 0.0, "mean": null}, "geometry": {"type": "Polygon", "coordinates": [[[120.5513589171342, 31.418520864], [120.55125362213799, 31.418430400000002], [120.5513589171342, 31.418430400000002], [120.5513589171342, 31.418520864]]]}}, {"type": "Feature", "properties": {"area_ha": 0.0, "mean": null}, "geometry": {"type": "Polygon", "coordinates": [[[120.58989688574678, 31.418520864], [120.58979159075058, 31.418430400000002], [120.58989688574678, 31.418430400000002], [120.58989688574678, 31.418520864]]]}}, {"type": "Feature", "properties": {"area_ha": 0.01, "mean": 0.2019}, "geometry": {"type": "Polygon", "coordinates": [[[120.58652744586809, 31.418430400000002], [120.58631685587567, 31.418339936], [120.58652744586809, 31.418339936], [120.58652744586809, 31.418430400000002]]]}}, {"type": "Feature", "properties": {"area_ha": 0.0, "mean": null}, "geometry": {"type": "Polygon", "coordinates": [[[120.55146421213041, 31.418339936], [120.5513589171342, 31.418249472], [120.55146421213041, 31.418249472], [120.55146421213041, 31.418339936]]]}}, {"type": "Feature", "properties": {"area_ha": 0.01, "mean": 0.3491}, "geometry": {"type": "Polygon", "coordinates": [[[120.58694862585293, 31.418339936], [120.5867380358605, 31.418249472], [120.58694862585293, 31.418249472], [120.58694862585293, 31.418339936]]]}}, {"type": "Feature", "properties": {"area_ha": 0.0, "mean": null}, "geometry": {"type": "Polygon", "coordinates": [[[120.59052865572404, 31.418159008], [120.59042336072783, 31.418068544], [120.59052865572404, 31.418068544], [120.59052865572404, 31.418159008]]]}}, {"type": "Feature", "properties": {"area_ha": 0.0, "mean": null}, "geometry": {"type": "Polygon", "coordinates": [[[120.59073924571645, 31.418068544], [120.59063395072025, 31.41797808], [120.59073924571645, 31.41797808], [120.59073924571645, 31.418068544]]]}}, {"type": "Feature", "properties": {"area_ha": 0.0, "mean": null}, "geometry": {"type": "Polygon", "coordinates": [[[120.59094983570887, 31.41797808], [120.59084454071267, 31.417887616], [120.59094983570887, 31.417887616], [120.59094983570887, 31.41797808]]]}}, {"type": "Feature", "properties": {"area_ha": 0.01, "mean": 0.1431}, "geometry": {"type": "Polygon", "coordinates": [[[120.55156950712662, 31.418068544], [120.55146421213041, 31.417797152], [120.55156950712662, 31.417797152], [120.55156950712662, 31.418068544]]]}}, {"type": "Feature", "properties": {"area_ha": 0.0, "mean": null}, "geometry": {"type": "Polygon", "coordinates": [[[120.59105513070509, 31.417887616], [120.59094983570887, 31.417797152], [120.59105513070509, 31.417797152], [120.59105513070509, 31.417887616]]]}}, {"type": "Feature", "properties": {"area_ha": 0.0, "mean": null}, "geometry": {"type": "Polygon", "coordinates": [[[120.59116042570129, 31.417797152], [120.59105513070509, 31.417706688], [120.59116042570129, 31.417706688], [120.59116042570129, 31.417797152]]]}}, {"type": "Feature", "properties": {"area_ha": 0.0, "mean": null}, "geometry": {"type": "Polygon", "coordinates": [[[120.5912657206975, 31.417706688], [120.59116042570129, 31.417616224], [120.5912657206975, 31.417616224], [120.5912657206975, 31.417706688]]]}}, {"type": "Feature", "properties": {"area_ha": 0.0, "mean": null}, "geometry": {"type": "Polygon", "coordinates": [[[120.59137101569371, 31.417616224], [120.5912657206975, 31.41752576], [120.59137101569371, 31.41752576], [120.59137101569371, 31.417616224]]]}}, {"type": "Feature", "properties": {"area_ha": 0.0, "mean": null}, "geometry": {"type": "Polygon", "coordinates": [[[120.5889492307809, 31.41752576], [120.5888439357847, 31.417435296], [120.5889492307809, 31.417435296], [120.5889492307809, 31.41752576]]]}}, {"type": "Feature", "properties": {"area_ha": 0.0, "mean": null}, "geometry": {"type": "Polygon", "coordinates": [[[120.58926511576952, 31.417435296], [120.58915982077332, 31.417344832], [120.58926511576952, 31.417344832], [120.58926511576952, 31.417435296]]]}}, {"type": "Feature", "properties": {"area_ha": 0.0, "mean": null}, "geometry": {"type": "Polygon", "coordinates": [[[120.58937041076574, 31.417344832], [120.58926511576952, 31.417254368000002], [120.58937041076574, 31.417254368000002], [120.58937041076574, 31.417344832]]]}}, {"type": "Feature", "properties": {"area_ha": 0.0, "mean": null}, "geometry": {"type": "Polygon", "coordinates": [[[120.59189749067475, 31.417254368000002], [120.59179219567855, 31.417163904], [120.59189749067475, 31.417163904], [120.59189749067475, 31.417254368000002]]]}}, {"type": "Feature", "properties": {"area_ha": 0.0, "mean": null}, "geometry": {"type": "Polygon", "coordinates": [[[120.59200278567097, 31.417163904], [120.59189749067475, 31.41707344], [120.59200278567097, 31.41707344], [120.59200278567097, 31.417163904]]]}}, {"type": "Feature", "properties": {"area_ha": 0.0, "mean": null}, "geometry": {"type": "Polygon", "coordinates": [[[120.5901074757392, 31.416892512], [120.59000218074299, 31.416802048], [120.5901074757392, 31.416802048], [120.5901074757392, 31.416892512]]]}}, {"type": "Feature", "properties": {"area_ha": 0.0, "mean": null}, "geometry": {"type": "Polygon", "coordinates": [[[120.5902127707354, 31.416802048], [120.5901074757392, 31.416711584], [120.5902127707354, 31.416711584], [120.5902127707354, 31.416802048]]]}}, {"type": "Feature", "properties": {"area_ha": 0.0, "mean": null}, "geometry": {"type": "Polygon", "coordinates": [[[120.59031806573162, 31.416711584], [120.5902127707354, 31.41662112], [120.59031806573162, 31.41662112], [120.59031806573162, 31.416711584]]]}}, {"type": "Feature", "properties": {"area_ha": 0.01, "mean": 0.126}, "geometry": {"type": "Polygon", "coordinates": [[[120.55209598210766, 31.416802048], [120.55199068711146, 31.416530656], [120.55209598210766, 31.416530656], [120.55209598210766, 31.416802048]]]}}, {"type": "Feature", "properties": {"area_ha": 0.0, "mean": null}, "geometry": {"type": "Polygon", "coordinates": [[[120.55272775208492, 31.41662112], [120.5526224570887, 31.416530656], [120.55272775208492, 31.416530656], [120.55272775208492, 31.41662112]]]}}, {"type": "Feature", "properties": {"area_ha": 0.0, "mean": null}, "geometry": {"type": "Polygon", "coordinates": [[[120.59042336072783, 31.41662112], [120.59031806573162, 31.416530656], [120.59042336072783, 31.416530656], [120.59042336072783, 31.41662112]]]}}, {"type": "Feature", "properties": {"area_ha": 0.0, "mean": null}, "geometry": {"type": "Polygon", "coordinates": [[[120.54283002244125, 31.416530656], [120.54272472744503, 31.416440192], [120.54283002244125, 31.416440192], [120.54283002244125, 31.416530656]]]}}, {"type": "Feature", "properties": {"area_ha": 0.0, "mean": null}, "geometry": {"type": "Polygon", "coordinates": [[[120.55314893206976, 31.416530656], [120.55304363707354, 31.416440192], [120.55314893206976, 31.416440192], [120.55314893206976, 31.416530656]]]}}, {"type": "Feature", "properties": {"area_ha": 0.0, "mean": null}, "geometry": {"type": "Polygon", "coordinates": [[[120.59073924571645, 31.416440192], [120.59063395072025, 31.416349728], [120.59073924571645, 31.416349728], [120.59073924571645, 31.416440192]]]}}, {"type": "Feature", "properties": {"area_ha": 0.0, "mean": null}, "geometry": {"type": "Polygon", "coordinates": [[[120.59084454071267, 31.416349728], [120.59073924571645, 31.416259264], [120.59084454071267, 31.416259264], [120.59084454071267, 31.416349728]]]}}, {"type": "Feature", "properties": {"area_ha": 0.0, "mean": null}, "geometry": {"type": "Polygon", "coordinates": [[[120.54967419719485, 31.416259264], [120.54956890219864, 31.4161688], [120.54967419719485, 31.4161688], [120.54967419719485, 31.416259264]]]}}, {"type": "Feature", "properties": {"area_ha": 0.01, "mean": 0.1893}, "geometry": {"type": "Polygon", "coordinates": [[[120.59263455564822, 31.416259264], [120.5924239656558, 31.416078336], [120.59263455564822, 31.416078336], [120.59263455564822, 31.416259264]]]}}, {"type": "Feature", "properties": {"area_ha": 0.01, "mean": 0.2574}, "geometry": {"type": "Polygon", "coordinates": [[[120.59158160568613, 31.415987872], [120.5912657206975, 31.415897408], [120.59158160568613, 31.415897408], [120.59158160568613, 31.415987872]]]}}, {"type": "Feature", "properties": {"area_ha": 0.0, "mean": null}, "geometry": {"type": "Polygon", "coordinates": [[[120.59168690068233, 31.415897408], [120.59158160568613, 31.415806944], [120.59168690068233, 31.415806944], [120.59168690068233, 31.415897408]]]}}, {"type": "Feature", "properties": {"area_ha": 0.0, "mean": null}, "geometry": {"type": "Polygon", "coordinates": [[[120.59179219567855, 31.415806944], [120.59168690068233, 31.41571648], [120.59179219567855, 31.41571648], [120.59179219567855, 31.415806944]]]}}, {"type": "Feature", "properties": {"area_ha": 0.0, "mean": null}, "geometry": {"type": "Polygon", "coordinates": [[[120.55757132191054, 31.41571648], [120.55746602691433, 31.415626016], [120.55757132191054, 31.415626016], [120.55757132191054, 31.41571648]]]}}, {"type": "Feature", "properties": {"area_ha": 0.0, "mean": null}, "geometry": {"type": "Polygon", "coordinates": [[[120.59189749067475, 31.41571648], [120.59179219567855, 31.415626016], [120.59189749067475, 31.415626016], [120.59189749067475, 31.41571648]]]}}, {"type": "Feature", "properties": {"area_ha": 0.0, "mean": null}, "geometry": {"type": "Polygon", "coordinates": [[[120.56094076178924, 31.415354624], [120.56083546679302, 31.41526416], [120.56094076178924, 31.41526416], [120.56094076178924, 31.415354624]]]}}, {"type": "Feature", "properties": {"area_ha": 0.03, "mean": 0.2802}, "geometry": {"type": "Polygon", "coordinates": [[[120.5536754070508, 31.41526416], [120.55304363707354, 31.415173696], [120.5536754070508, 31.415173696], [120.5536754070508, 31.41526416]]]}}, {"type": "Feature", "properties": {"area_ha": 0.0, "mean": null}, "geometry": {"type": "Polygon", "coordinates": [[[120.55388599704322, 31.41526416], [120.553780702047, 31.415173696], [120.55388599704322, 31.415173696], [120.55388599704322, 31.41526416]]]}}, {"type": "Feature", "properties": {"area_ha": 0.0, "mean": null}, "geometry": {"type": "Polygon", "coordinates": [[[120.55399129203943, 31.415173696], [120.55388599704322, 31.415083232], [120.55399129203943, 31.415083232], [120.55399129203943, 31.415173696]]]}}, {"type": "Feature", "properties": {"area_ha": 0.0, "mean": null}, "geometry": {"type": "Polygon", "coordinates": [[[120.55420188203185, 31.415083232], [120.55409658703563, 31.414992768], [120.55420188203185, 31.414992768], [120.55420188203185, 31.415083232]]]}}, {"type": "Feature", "properties": {"area_ha": 0.0, "mean": null}, "geometry": {"type": "Polygon", "coordinates": [[[120.55483365200911, 31.414902304], [120.55472835701289, 31.41481184], [120.55483365200911, 31.41481184], [120.55483365200911, 31.414902304]]]}}, {"type": "Feature", "properties": {"area_ha": 0.0, "mean": null}, "geometry": {"type": "Polygon", "coordinates": [[[120.55525483199393, 31.41481184], [120.55514953699773, 31.414721376], [120.55525483199393, 31.414721376], [120.55525483199393, 31.41481184]]]}}, {"type": "Feature", "properties": {"area_ha": 0.0, "mean": null}, "geometry": {"type": "Polygon", "coordinates": [[[120.55999310682336, 31.414721376], [120.55988781182715, 31.414630912], [120.55999310682336, 31.414630912], [120.55999310682336, 31.414721376]]]}}, {"type": "Feature", "properties": {"area_ha": 0.01, "mean": 0.4028}, "geometry": {"type": "Polygon", "coordinates": [[[120.5605195818044, 31.414721376], [120.56030899181198, 31.414630912], [120.5605195818044, 31.414630912], [120.5605195818044, 31.414721376]]]}}, {"type": "Feature", "properties": {"area_ha": 0.0, "mean": null}, "geometry": {"type": "Polygon", "coordinates": [[[120.59368750561032, 31.414721376], [120.5935822106141, 31.414630912], [120.59368750561032, 31.414630912], [120.59368750561032, 31.414721376]]]}}, {"type": "Feature", "properties": {"area_ha": 0.0, "mean": null}, "geometry": {"type": "Polygon", "coordinates": [[[120.55967722183473, 31.414630912], [120.55957192683852, 31.414540448], [120.55967722183473, 31.414540448], [120.55967722183473, 31.414630912]]]}}, {"type": "Feature", "properties": {"area_ha": 0.0, "mean": null}, "geometry": {"type": "Polygon", "coordinates": [[[120.56083546679302, 31.414630912], [120.56073017179682, 31.414540448], [120.56083546679302, 31.414540448], [120.56083546679302, 31.414630912]]]}}, {"type": "Feature", "properties": {"area_ha": 0.0, "mean": null}, "geometry": {"type": "Polygon", "coordinates": [[[120.5947404555724, 31.414630912], [120.5946351605762, 31.414540448], [120.5947404555724, 31.414540448], [120.5947404555724, 31.414630912]]]}}, {"type": "Feature", "properties": {"area_ha": 0.0, "mean": null}, "geometry": {"type": "Polygon", "coordinates": [[[120.52945755792267, 31.414540448], [120.52935226292647, 31.414449984], [120.52945755792267, 31.414449984], [120.52945755792267, 31.414540448]]]}}, {"type": "Feature", "properties": {"area_ha": 0.0, "mean": null}, "geometry": {"type": "Polygon", "coordinates": [[[120.59389809560274, 31.414540448], [120.59379280060652, 31.414449984], [120.59389809560274, 31.414449984], [120.59389809560274, 31.414540448]]]}}, {"type": "Feature", "properties": {"area_ha": 0.0, "mean": null}, "geometry": {"type": "Polygon", "coordinates": [[[120.59495104556483, 31.414540448], [120.59484575056861, 31.414449984], [120.59495104556483, 31.414449984], [120.59495104556483, 31.414540448]]]}}, {"type": "Feature", "properties": {"area_ha": 0.0, "mean": null}, "geometry": {"type": "Polygon", "coordinates": [[[120.59410868559515, 31.414449984], [120.59400339059894, 31.41435952], [120.59410868559515, 31.41435952], [120.59410868559515, 31.414449984]]]}}, {"type": "Feature", "properties": {"area_ha": 0.0, "mean": null}, "geometry": {"type": "Polygon", "coordinates": [[[120.59547752054587, 31.414269056000002], [120.59537222554967, 31.414178592], [120.59547752054587, 31.414178592], [120.59547752054587, 31.414269056000002]]]}}, {"type": "Feature", "properties": {"area_ha": 0.0, "mean": null}, "geometry": {"type": "Polygon", "coordinates": [[[120.59431927558757, 31.414178592], [120.59421398059136, 31.414088128], [120.59431927558757, 31.414088128], [120.59431927558757, 31.414178592]]]}}, {"type": "Feature", "properties": {"area_ha": 0.0, "mean": null}, "geometry": {"type": "Polygon", "coordinates": [[[120.59558281554209, 31.414178592], [120.59547752054587, 31.414088128], [120.59558281554209, 31.414088128], [120.59558281554209, 31.414178592]]]}}, {"type": "Feature", "properties": {"area_ha": 0.0, "mean": null}, "geometry": {"type": "Polygon", "coordinates": [[[120.55746602691433, 31.414088128], [120.55736073191812, 31.413997664], [120.55746602691433, 31.413997664], [120.55746602691433, 31.414088128]]]}}, {"type": "Feature", "properties": {"area_ha": 0.0, "mean": null}, "geometry": {"type": "Polygon", "coordinates": [[[120.5957934055345, 31.414088128], [120.59568811053829, 31.413997664], [120.5957934055345, 31.413997664], [120.5957934055345, 31.414088128]]]}}, {"type": "Feature", "properties": {"area_ha": 0.0, "mean": null}, "geometry": {"type": "Polygon", "coordinates": [[[120.59589870053071, 31.413997664], [120.5957934055345, 31.4139072], [120.59589870053071, 31.4139072], [120.59589870053071, 31.413997664]]]}}, {"type": "Feature", "properties": {"area_ha": 0.01, "mean": 0.2395}, "geometry": {"type": "Polygon", "coordinates": [[[120.55788720689917, 31.413997664], [120.55778191190296, 31.413816736], [120.55788720689917, 31.413816736], [120.55788720689917, 31.413997664]]]}}, {"type": "Feature", "properties": {"area_ha": 0.0, "mean": null}, "geometry": {"type": "Polygon", "coordinates": [[[120.59610929052313, 31.4139072], [120.59600399552691, 31.413816736], [120.59610929052313, 31.413816736], [120.59610929052313, 31.4139072]]]}}, {"type": "Feature", "properties": {"area_ha": 0.0, "mean": null}, "geometry": {"type": "Polygon", "coordinates": [[[120.55809779689159, 31.413816736], [120.55799250189538, 31.413726272], [120.55809779689159, 31.413726272], [120.55809779689159, 31.413816736]]]}}, {"type": "Feature", "properties": {"area_ha": 0.0, "mean": null}, "geometry": {"type": "Polygon", "coordinates": [[[120.59621458551933, 31.413816736], [120.59610929052313, 31.413726272], [120.59621458551933, 31.413726272], [120.59621458551933, 31.413816736]]]}}, {"type": "Feature", "properties": {"area_ha": 0.0, "mean": null}, "geometry": {"type": "Polygon", "coordinates": [[[120.59495104556483, 31.413726272], [120.59484575056861, 31.413635808], [120.59495104556483, 31.413635808], [120.59495104556483, 31.413726272]]]}}, {"type": "Feature", "properties": {"area_ha": 0.0, "mean": null}, "geometry": {"type": "Polygon", "coordinates": [[[120.59642517551175, 31.413726272], [120.59631988051555, 31.413635808], [120.59642517551175, 31.413635808], [120.59642517551175, 31.413726272]]]}}, {"type": "Feature", "properties": {"area_ha": 0.0, "mean": null}, "geometry": {"type": "Polygon", "coordinates": [[[120.59653047050796, 31.413635808], [120.59642517551175, 31.413545344], [120.59653047050796, 31.413545344], [120.59653047050796, 31.413635808]]]}}, {"type": "Feature", "properties": {"area_ha": 0.01, "mean": 0.3413}, "geometry": {"type": "Polygon", "coordinates": [[[120.56304666171343, 31.413635808], [120.56294136671721, 31.41345488], [120.56304666171343, 31.41345488], [120.56304666171343, 31.413635808]]]}}, {"type": "Feature", "properties": {"area_ha": 0.01, "mean": 0.3231}, "geometry": {"type": "Polygon", "coordinates": [[[120.56209900674754, 31.41345488], [120.56188841675512, 31.413364416], [120.56209900674754, 31.413364416], [120.56209900674754, 31.41345488]]]}}, {"type": "Feature", "properties": {"area_ha": 0.0, "mean": null}, "geometry": {"type": "Polygon", "coordinates": [[[120.59705694548902, 31.413364416], [120.5969516504928, 31.413273952], [120.59705694548902, 31.413273952], [120.59705694548902, 31.413364416]]]}}, {"type": "Feature", "properties": {"area_ha": 0.0, "mean": null}, "geometry": {"type": "Polygon", "coordinates": [[[120.59716224048522, 31.413273952], [120.59705694548902, 31.413183488], [120.59716224048522, 31.413183488], [120.59716224048522, 31.413273952]]]}}, {"type": "Feature", "properties": {"area_ha": 0.0, "mean": null}, "geometry": {"type": "Polygon", "coordinates": [[[120.59610929052313, 31.413183488], [120.59600399552691, 31.413093024000002], [120.59610929052313, 31.413093024000002], [120.59610929052313, 31.413183488]]]}}, {"type": "Feature", "properties": {"area_ha": 0.0, "mean": null}, "geometry": {"type": "Polygon", "coordinates": [[[120.59653047050796, 31.41300256], [120.59642517551175, 31.412912096], [120.59653047050796, 31.412912096], [120.59653047050796, 31.41300256]]]}}, {"type": "Feature", "properties": {"area_ha": 0.0, "mean": null}, "geometry": {"type": "Polygon", "coordinates": [[[120.5968463554966, 31.412912096], [120.59674106050038, 31.412821632], [120.5968463554966, 31.412821632], [120.5968463554966, 31.412912096]]]}}, {"type": "Feature", "properties": {"area_ha": 0.0, "mean": null}, "geometry": {"type": "Polygon", "coordinates": [[[120.59726753548144, 31.412731168], [120.59716224048522, 31.412640704], [120.59726753548144, 31.412640704], [120.59726753548144, 31.412731168]]]}}, {"type": "Feature", "properties": {"area_ha": 0.01, "mean": 0.1935}, "geometry": {"type": "Polygon", "coordinates": [[[120.59884696042457, 31.412731168], [120.59853107543594, 31.412640704], [120.59884696042457, 31.412640704], [120.59884696042457, 31.412731168]]]}}, {"type": "Feature", "properties": {"area_ha": 0.01, "mean": 0.1444}, "geometry": {"type": "Polygon", "coordinates": [[[120.59758342047006, 31.412640704], [120.59726753548144, 31.41255024], [120.59758342047006, 31.41255024], [120.59758342047006, 31.412640704]]]}}, {"type": "Feature", "properties": {"area_ha": 0.01, "mean": 0.1717}, "geometry": {"type": "Polygon", "coordinates": [[[120.59779401046248, 31.41255024], [120.59758342047006, 31.412459776], [120.59779401046248, 31.412459776], [120.59779401046248, 31.41255024]]]}}, {"type": "Feature", "properties": {"area_ha": 0.01, "mean": 0.2055}, "geometry": {"type": "Polygon", "coordinates": [[[120.5980046004549, 31.412459776], [120.59779401046248, 31.412369312], [120.5980046004549, 31.412369312], [120.5980046004549, 31.412459776]]]}}, {"type": "Feature", "properties": {"area_ha": 0.02, "mean": 0.2404}, "geometry": {"type": "Polygon", "coordinates": [[[120.5982151904473, 31.412369312], [120.5981098954511, 31.412188384], [120.59832048544352, 31.412188384], [120.5982151904473, 31.412369312]]]}}, {"type": "Feature", "properties": {"area_ha": 0.03, "mean": 0.187}, "geometry": {"type": "Polygon", "coordinates": [[[120.59863637043215, 31.412188384], [120.59832048544352, 31.41209792], [120.59874166542836, 31.412007456], [120.59863637043215, 31.412188384]]]}}, {"type": "Feature", "properties": {"area_ha": 0.0, "mean": null}, "geometry": {"type": "Polygon", "coordinates": [[[120.5902127707354, 31.411826528], [120.5901074757392, 31.411736064], [120.5902127707354, 31.411736064], [120.5902127707354, 31.411826528]]]}}, {"type": "Feature", "properties": {"area_ha": 0.06, "mean": 0.4078}, "geometry": {"type": "Polygon", "coordinates": [[[120.57073319643669, 31.411555136], [120.57020672145565, 31.4116456], [120.57062790144049, 31.411374208], [120.57073319643669, 31.411555136]]]}}, {"type": "Feature", "properties": {"area_ha": 0.0, "mean": null}, "geometry": {"type": "Polygon", "coordinates": [[[120.55767661690675, 31.411374208], [120.55757132191054, 31.411283744], [120.55767661690675, 31.411283744], [120.55767661690675, 31.411374208]]]}}, {"type": "Feature", "properties": {"area_ha": 0.02, "mean": 0.1964}, "geometry": {"type": "Polygon", "coordinates": [[[120.59989991038665, 31.411102816], [120.59958402539803, 31.411102816], [120.60042638536771, 31.411012352], [120.59989991038665, 31.411102816]]]}}, {"type": "Feature", "properties": {"area_ha": 0.0, "mean": null}, "geometry": {"type": "Polygon", "coordinates": [[[120.60063697536013, 31.411102816], [120.60053168036391, 31.411012352], [120.60063697536013, 31.411012352], [120.60063697536013, 31.411102816]]]}}, {"type": "Feature", "properties": {"area_ha": 0.0, "mean": null}, "geometry": {"type": "Polygon", "coordinates": [[[120.55746602691433, 31.410921888], [120.55736073191812, 31.410831424], [120.55746602691433, 31.410831424], [120.55746602691433, 31.410921888]]]}}, {"type": "Feature", "properties": {"area_ha": 0.0, "mean": null}, "geometry": {"type": "Polygon", "coordinates": [[[120.55799250189538, 31.410921888], [120.55788720689917, 31.410831424], [120.55799250189538, 31.410831424], [120.55799250189538, 31.410921888]]]}}, {"type": "Feature", "properties": {"area_ha": 0.0, "mean": null}, "geometry": {"type": "Polygon", "coordinates": [[[120.56030899181198, 31.410921888], [120.56020369681578, 31.410831424], [120.56030899181198, 31.410831424], [120.56030899181198, 31.410921888]]]}}, {"type": "Feature", "properties": {"area_ha": 0.0, "mean": null}, "geometry": {"type": "Polygon", "coordinates": [[[120.55736073191812, 31.410831424], [120.55725543692192, 31.410740960000002], [120.55736073191812, 31.410740960000002], [120.55736073191812, 31.410831424]]]}}, {"type": "Feature", "properties": {"area_ha": 0.0, "mean": null}, "geometry": {"type": "Polygon", "coordinates": [[[120.55788720689917, 31.410740960000002], [120.55778191190296, 31.410650496], [120.55788720689917, 31.410650496], [120.55788720689917, 31.410740960000002]]]}}, {"type": "Feature", "properties": {"area_ha": 0.0, "mean": null}, "geometry": {"type": "Polygon", "coordinates": [[[120.55788720689917, 31.410469568], [120.55778191190296, 31.410379104], [120.55788720689917, 31.410379104], [120.55788720689917, 31.410469568]]]}}, {"type": "Feature", "properties": {"area_ha": 0.0, "mean": null}, "geometry": {"type": "Polygon", "coordinates": [[[120.55809779689159, 31.410469568], [120.55799250189538, 31.410379104], [120.55809779689159, 31.410379104], [120.55809779689159, 31.410469568]]]}}, {"type": "Feature", "properties": {"area_ha": 0.01, "mean": 0.131}, "geometry": {"type": "Polygon", "coordinates": [[[120.60179522031842, 31.41028864], [120.601584630326, 31.410198176], [120.60179522031842, 31.410198176], [120.60179522031842, 31.41028864]]]}}, {"type": "Feature", "properties": {"area_ha": 0.01, "mean": 0.1367}, "geometry": {"type": "Polygon", "coordinates": [[[120.60200581031084, 31.410198176], [120.60179522031842, 31.410107712], [120.60200581031084, 31.410107712], [120.60200581031084, 31.410198176]]]}}, {"type": "Feature", "properties": {"area_ha": 0.0, "mean": null}, "geometry": {"type": "Polygon", "coordinates": [[[120.5570448469295, 31.410017248], [120.55693955193328, 31.409926784], [120.5570448469295, 31.409926784], [120.5570448469295, 31.410017248]]]}}, {"type": "Feature", "properties": {"area_ha": 0.0, "mean": null}, "geometry": {"type": "Polygon", "coordinates": [[[120.59621458551933, 31.410017248], [120.59610929052313, 31.409926784], [120.59621458551933, 31.409926784], [120.59621458551933, 31.410017248]]]}}, {"type": "Feature", "properties": {"area_ha": 0.02, "mean": 0.1977}, "geometry": {"type": "Polygon", "coordinates": [[[120.55851897687643, 31.409926784], [120.5582030918878, 31.409745856], [120.55851897687643, 31.40983632], [120.55851897687643, 31.409926784]]]}}, {"type": "Feature", "properties": {"area_ha": 0.0, "mean": null}, "geometry": {"type": "Polygon", "coordinates": [[[120.55872956686885, 31.40983632], [120.55862427187263, 31.409745856], [120.55872956686885, 31.409745856], [120.55872956686885, 31.40983632]]]}}, {"type": "Feature", "properties": {"area_ha": 0.04, "mean": 0.1918}, "geometry": {"type": "Polygon", "coordinates": [[[120.6026375802881, 31.409926784], [120.60253228529189, 31.409655392], [120.60284817028052, 31.409655392], [120.6026375802881, 31.409926784]]]}}, {"type": "Feature", "properties": {"area_ha": 0.0, "mean": null}, "geometry": {"type": "Polygon", "coordinates": [[[120.55683425693708, 31.409655392], [120.55672896194086, 31.409564928], [120.55683425693708, 31.409564928], [120.55683425693708, 31.409655392]]]}}, {"type": "Feature", "properties": {"area_ha": 0.05, "mean": 0.3205}, "geometry": {"type": "Polygon", "coordinates": [[[120.55767661690675, 31.409926784], [120.55757132191054, 31.409564928], [120.55778191190296, 31.409474464], [120.55767661690675, 31.409926784]]]}}, {"type": "Feature", "properties": {"area_ha": 0.0, "mean": null}, "geometry": {"type": "Polygon", "coordinates": [[[120.59179219567855, 31.409564928], [120.59168690068233, 31.409474464], [120.59179219567855, 31.409474464], [120.59179219567855, 31.409564928]]]}}, {"type": "Feature", "properties": {"area_ha": 0.02, "mean": 0.1803}, "geometry": {"type": "Polygon", "coordinates": [[[120.60337464526157, 31.409564928], [120.60326935026535, 31.409384], [120.60347994025777, 31.409384], [120.60337464526157, 31.409564928]]]}}, {"type": "Feature", "properties": {"area_ha": 0.0, "mean": null}, "geometry": {"type": "Polygon", "coordinates": [[[120.55683425693708, 31.409384], [120.55672896194086, 31.409293536], [120.55683425693708, 31.409293536], [120.55683425693708, 31.409384]]]}}, {"type": "Feature", "properties": {"area_ha": 0.0, "mean": null}, "geometry": {"type": "Polygon", "coordinates": [[[120.60358523525399, 31.409384], [120.60347994025777, 31.409293536], [120.60358523525399, 31.409293536], [120.60358523525399, 31.409384]]]}}, {"type": "Feature", "properties": {"area_ha": 0.0, "mean": null}, "geometry": {"type": "Polygon", "coordinates": [[[120.5570448469295, 31.409293536], [120.55693955193328, 31.409203072], [120.5570448469295, 31.409203072], [120.5570448469295, 31.409293536]]]}}, {"type": "Feature", "properties": {"area_ha": 0.16, "mean": 0.3495}, "geometry": {"type": "Polygon", "coordinates": [[[120.59589870053071, 31.409203072], [120.59484575056861, 31.409384], [120.59484575056861, 31.409112608], [120.59589870053071, 31.409203072]]]}}, {"type": "Feature", "properties": {"area_ha": 0.0, "mean": null}, "geometry": {"type": "Polygon", "coordinates": [[[120.59389809560274, 31.409022144], [120.59379280060652, 31.40893168], [120.59389809560274, 31.40893168], [120.59389809560274, 31.409022144]]]}}, {"type": "Feature", "properties": {"area_ha": 0.0, "mean": null}, "geometry": {"type": "Polygon", "coordinates": [[[120.5934769156179, 31.408569824], [120.59337162062168, 31.40847936], [120.5934769156179, 31.40847936], [120.5934769156179, 31.408569824]]]}}, {"type": "Feature", "properties": {"area_ha": 0.0, "mean": null}, "geometry": {"type": "Polygon", "coordinates": [[[120.57210203138742, 31.408207968], [120.57199673639121, 31.408117504], [120.57210203138742, 31.408117504], [120.57210203138742, 31.408207968]]]}}, {"type": "Feature", "properties": {"area_ha": 0.0, "mean": null}, "geometry": {"type": "Polygon", "coordinates": [[[120.56262548172859, 31.40802704], [120.56252018673237, 31.407936576], [120.56262548172859, 31.407936576], [120.56262548172859, 31.40802704]]]}}, {"type": "Feature", "properties": {"area_ha": 0.0, "mean": null}, "geometry": {"type": "Polygon", "coordinates": [[[120.56820611652768, 31.407755648], [120.56810082153147, 31.407665184], [120.56820611652768, 31.407665184], [120.56820611652768, 31.407755648]]]}}, {"type": "Feature", "properties": {"area_ha": 0.01, "mean": 0.1527}, "geometry": {"type": "Polygon", "coordinates": [[[120.56810082153147, 31.407665184], [120.56799552653526, 31.407484256], [120.56810082153147, 31.407484256], [120.56810082153147, 31.407665184]]]}}, {"type": "Feature", "properties": {"area_ha": 0.01, "mean": 0.3223}, "geometry": {"type": "Polygon", "coordinates": [[[120.56831141152388, 31.407665184], [120.56820611652768, 31.407484256], [120.56831141152388, 31.407484256], [120.56831141152388, 31.407665184]]]}}, {"type": "Feature", "properties": {"area_ha": 0.0, "mean": null}, "geometry": {"type": "Polygon", "coordinates": [[[120.56799552653526, 31.407484256], [120.56789023153905, 31.407393792], [120.56799552653526, 31.407393792], [120.56799552653526, 31.407484256]]]}}, {"type": "Feature", "properties": {"area_ha": 0.0, "mean": null}, "geometry": {"type": "Polygon", "coordinates": [[[120.56789023153905, 31.407393792], [120.56778493654284, 31.407303328], [120.56789023153905, 31.407303328], [120.56789023153905, 31.407393792]]]}}, {"type": "Feature", "properties": {"area_ha": 0.0, "mean": null}, "geometry": {"type": "Polygon", "coordinates": [[[120.56799552653526, 31.407303328], [120.56789023153905, 31.407212864], [120.56799552653526, 31.407212864], [120.56799552653526, 31.407303328]]]}}, {"type": "Feature", "properties": {"area_ha": 0.0, "mean": null}, "geometry": {"type": "Polygon", "coordinates": [[[120.57062790144049, 31.406941472], [120.57052260644429, 31.406851008], [120.57062790144049, 31.406851008], [120.57062790144049, 31.406941472]]]}}, {"type": "Feature", "properties": {"area_ha": 0.0, "mean": null}, "geometry": {"type": "Polygon", "coordinates": [[[120.56683728157695, 31.406851008], [120.56673198658075, 31.406760544], [120.56683728157695, 31.406760544], [120.56683728157695, 31.406851008]]]}}, {"type": "Feature", "properties": {"area_ha": 0.0, "mean": null}, "geometry": {"type": "Polygon", "coordinates": [[[120.56725846156179, 31.406851008], [120.56715316656559, 31.406760544], [120.56725846156179, 31.406760544], [120.56725846156179, 31.406851008]]]}}, {"type": "Feature", "properties": {"area_ha": 0.0, "mean": null}, "geometry": {"type": "Polygon", "coordinates": [[[120.59926814040941, 31.406851008], [120.59916284541319, 31.406760544], [120.59926814040941, 31.406760544], [120.59926814040941, 31.406851008]]]}}, {"type": "Feature", "properties": {"area_ha": 0.0, "mean": null}, "geometry": {"type": "Polygon", "coordinates": [[[120.56736375655801, 31.406760544], [120.56725846156179, 31.40667008], [120.56736375655801, 31.40667008], [120.56736375655801, 31.406760544]]]}}, {"type": "Feature", "properties": {"area_ha": 0.02, "mean": 0.3413}, "geometry": {"type": "Polygon", "coordinates": [[[120.57041731144807, 31.406579616000002], [120.57010142645944, 31.406308224], [120.57041731144807, 31.406398688], [120.57041731144807, 31.406579616000002]]]}}, {"type": "Feature", "properties": {"area_ha": 0.0, "mean": null}, "geometry": {"type": "Polygon", "coordinates": [[[120.5434617924185, 31.40440848], [120.5433564974223, 31.404318016], [120.5434617924185, 31.404318016], [120.5434617924185, 31.40440848]]]}}, {"type": "Feature", "properties": {"area_ha": 0.01, "mean": 0.2029}, "geometry": {"type": "Polygon", "coordinates": [[[120.54504121736164, 31.40169456], [120.54483062736922, 31.401604096], [120.54504121736164, 31.401604096], [120.54504121736164, 31.40169456]]]}}, {"type": "Feature", "properties": {"area_ha": 0.0, "mean": null}, "geometry": {"type": "Polygon", "coordinates": [[[120.5445147423806, 31.401604096], [120.54440944738438, 31.401513632], [120.5445147423806, 31.401513632], [120.5445147423806, 31.401604096]]]}}, {"type": "Feature", "properties": {"area_ha": 0.0, "mean": null}, "geometry": {"type": "Polygon", "coordinates": [[[120.54325120242609, 31.399613888], [120.54314590742987, 31.399523424], [120.54325120242609, 31.399523424], [120.54325120242609, 31.399613888]]]}}, {"type": "Feature", "properties": {"area_ha": 0.01, "mean": 0.1885}, "geometry": {"type": "Polygon", "coordinates": [[[120.55788720689917, 31.398256928], [120.55778191190296, 31.397985536], [120.55788720689917, 31.397985536], [120.55788720689917, 31.398256928]]]}}, {"type": "Feature", "properties": {"area_ha": 0.0, "mean": null}, "geometry": {"type": "Polygon", "coordinates": [[[120.54619946231995, 31.392105376], [120.54609416732373, 31.392014912], [120.54619946231995, 31.392014912], [120.54619946231995, 31.392105376]]]}}, {"type": "Feature", "properties": {"area_ha": 0.0, "mean": null}, "geometry": {"type": "Polygon", "coordinates": [[[120.5446200373768, 31.390024704], [120.5445147423806, 31.38993424], [120.5446200373768, 31.38993424], [120.5446200373768, 31.390024704]]]}}, {"type": "Feature", "properties": {"area_ha": 0.02, "mean": 0.5069}, "geometry": {"type": "Polygon", "coordinates": [[[120.54525180735406, 31.38993424], [120.54514651235785, 31.389753312], [120.54535710235027, 31.389753312], [120.54525180735406, 31.38993424]]]}}, {"type": "Feature", "properties": {"area_ha": 0.0, "mean": null}, "geometry": {"type": "Polygon", "coordinates": [[[120.54598887232753, 31.389300992], [120.5457782823351, 31.389120064], [120.54598887232753, 31.389210528], [120.54598887232753, 31.389300992]]]}}, {"type": "Feature", "properties": {"area_ha": 0.0, "mean": null}, "geometry": {"type": "Polygon", "coordinates": [[[120.54777888726308, 31.388848672], [120.54767359226688, 31.388758208], [120.54777888726308, 31.388758208], [120.54777888726308, 31.388848672]]]}}]}