{"type": "FeatureCollection", "features": [{"type": "Feature", "properties": {"area_ha": 0.01, "mean": 0.3291}, "geometry": {"type": "Polygon", "coordinates": [[[120.58136799105384, 31.471442304], [120.58115740106142, 31.47135184], [120.58136799105384, 31.47135184], [120.58136799105384, 31.471442304]]]}}, {"type": "Feature", "properties": {"area_ha": 0.0, "mean": null}, "geometry": {"type": "Polygon", "coordinates": [[[120.58178917103866, 31.471442304], [120.58168387604246, 31.47135184], [120.58178917103866, 31.47135184], [120.58178917103866, 31.471442304]]]}}, {"type": "Feature", "properties": {"area_ha": 0.0, "mean": null}, "geometry": {"type": "Polygon", "coordinates": [[[120.52777283798332, 31.46773328], [120.52766754298712, 31.467642816], [120.52777283798332, 31.467642816], [120.52777283798332, 31.46773328]]]}}, {"type": "Feature", "properties": {"area_ha": 0.01, "mean": 0.1677}, "geometry": {"type": "Polygon", "coordinates": [[[120.60126874533738, 31.456515744], [120.60116345034118, 31.456606208], [120.60105815534496, 31.456515744], [120.60126874533738, 31.456515744]]]}}, {"type": "Feature", "properties": {"area_ha": 0.04, "mean": 0.3323}, "geometry": {"type": "Polygon", "coordinates": [[[120.58515861091736, 31.434171136], [120.58473743093253, 31.434171136], [120.58505331592116, 31.433990208], [120.58515861091736, 31.434171136]]]}}, {"type": "Feature", "properties": {"area_ha": 0.04, "mean": 0.3419}, "geometry": {"type": "Polygon", "coordinates": [[[120.58494802092494, 31.43335696], [120.58452684094011, 31.432995104], [120.58505331592116, 31.433176032], [120.58494802092494, 31.43335696]]]}}, {"type": "Feature", "properties": {"area_ha": 0.02, "mean": 0.3607}, "geometry": {"type": "Polygon", "coordinates": [[[120.58915982077332, 31.432633248000002], [120.5888439357847, 31.432542784], [120.5890545257771, 31.43245232], [120.58915982077332, 31.432633248000002]]]}}, {"type": "Feature", "properties": {"area_ha": 0.01, "mean": 0.312}, "geometry": {"type": "Polygon", "coordinates": [[[120.51924394329038, 31.431457216000002], [120.51903335329796, 31.431276288], [120.51924394329038, 31.431276288], [120.51924394329038, 31.431457216000002]]]}}, {"type": "Feature", "properties": {"area_ha": 0.0, "mean": null}, "geometry": {"type": "Polygon", "coordinates": [[[120.57199673639121, 31.429014688], [120.571891441395, 31.428924224], [120.57199673639121, 31.428924224], [120.57199673639121, 31.429014688]]]}}, {"type": "Feature", "properties": {"area_ha": 0.0, "mean": null}, "geometry": {"type": "Polygon", "coordinates": [[[120.60621761015922, 31.42883376], [120.606112315163, 31.428743296], [120.60621761015922, 31.428743296], [120.60621761015922, 31.42883376]]]}}, {"type": "Feature", "properties": {"area_ha": 0.01, "mean": 0.2619}, "geometry": {"type": "Polygon", "coordinates": [[[120.606112315163, 31.428743296], [120.6060070201668, 31.428562368], [120.606112315163, 31.428562368], [120.606112315163, 31.428743296]]]}}, {"type": "Feature", "properties": {"area_ha": 0.0, "mean": null}, "geometry": {"type": "Polygon", "coordinates": [[[120.5206127782411, 31.428562368], [120.52050748324488, 31.428471904000002], [120.5206127782411, 31.428471904000002], [120.5206127782411, 31.428562368]]]}}, {"type": "Feature", "properties": {"area_ha": 0.0, "mean": null}, "geometry": {"type": "Polygon", "coordinates": [[[120.57262850636846, 31.428200512], [120.57252321137226, 31.428110048], [120.57262850636846, 31.428110048], [120.57262850636846, 31.428200512]]]}}, {"type": "Feature", "properties": {"area_ha": 0.0, "mean": null}, "geometry": {"type": "Polygon", "coordinates": [[[120.52187631819561, 31.427657728], [120.52177102319939, 31.427567264], [120.52187631819561, 31.427567264], [120.52187631819561, 31.427657728]]]}}, {"type": "Feature", "properties": {"area_ha": 0.0, "mean": null}, "geometry": {"type": "Polygon", "coordinates": [[[120.57378675132676, 31.427657728], [120.57368145633056, 31.427567264], [120.57378675132676, 31.427567264], [120.57378675132676, 31.427657728]]]}}, {"type": "Feature", "properties": {"area_ha": 0.03, "mean": 0.1843}, "geometry": {"type": "Polygon", "coordinates": [[[120.57705089620926, 31.427386336], [120.576419126232, 31.427295872000002], [120.57705089620926, 31.427295872000002], [120.57705089620926, 31.427386336]]]}}, {"type": "Feature", "properties": {"area_ha": 0.01, "mean": 0.1966}, "geometry": {"type": "Polygon", "coordinates": [[[120.57610324124337, 31.427295872000002], [120.57589265125095, 31.427205408], [120.57610324124337, 31.427205408], [120.57610324124337, 31.427295872000002]]]}}, {"type": "Feature", "properties": {"area_ha": 0.0, "mean": null}, "geometry": {"type": "Polygon", "coordinates": [[[120.57557676626233, 31.427205408], [120.57547147126611, 31.427114944], [120.57557676626233, 31.427114944], [120.57557676626233, 31.427205408]]]}}, {"type": "Feature", "properties": {"area_ha": 0.01, "mean": 0.2021}, "geometry": {"type": "Polygon", "coordinates": [[[120.57536617626991, 31.427114944], [120.57515558627749, 31.42702448], [120.57536617626991, 31.42702448], [120.57536617626991, 31.427114944]]]}}, {"type": "Feature", "properties": {"area_ha": 0.0, "mean": null}, "geometry": {"type": "Polygon", "coordinates": [[[120.60800762509477, 31.424943808000002], [120.60790233009857, 31.424853344], [120.60800762509477, 31.424853344], [120.60800762509477, 31.424943808000002]]]}}, {"type": "Feature", "properties": {"area_ha": 0.0, "mean": null}, "geometry": {"type": "Polygon", "coordinates": [[[120.60505936520092, 31.424853344], [120.6049540702047, 31.42476288], [120.60505936520092, 31.42476288], [120.60505936520092, 31.424853344]]]}}, {"type": "Feature", "properties": {"area_ha": 0.0, "mean": null}, "geometry": {"type": "Polygon", "coordinates": [[[120.60790233009857, 31.424853344], [120.60779703510235, 31.42476288], [120.60790233009857, 31.42476288], [120.60790233009857, 31.424853344]]]}}, {"type": "Feature", "properties": {"area_ha": 0.01, "mean": 0.2418}, "geometry": {"type": "Polygon", "coordinates": [[[120.60779703510235, 31.42476288], [120.60769174010615, 31.424581952], [120.60779703510235, 31.424581952], [120.60779703510235, 31.42476288]]]}}, {"type": "Feature", "properties": {"area_ha": 0.0, "mean": null}, "geometry": {"type": "Polygon", "coordinates": [[[120.60769174010615, 31.424581952], [120.60758644510993, 31.424491488], [120.60769174010615, 31.424491488], [120.60769174010615, 31.424581952]]]}}, {"type": "Feature", "properties": {"area_ha": 0.03, "mean": 0.2766}, "geometry": {"type": "Polygon", "coordinates": [[[120.6049540702047, 31.424401024], [120.60474348021229, 31.424581952], [120.60474348021229, 31.424401024], [120.6049540702047, 31.424401024]]]}}, {"type": "Feature", "properties": {"area_ha": 0.0, "mean": null}, "geometry": {"type": "Polygon", "coordinates": [[[120.60758644510993, 31.424491488], [120.60748115011373, 31.424401024], [120.60758644510993, 31.424401024], [120.60758644510993, 31.424491488]]]}}, {"type": "Feature", "properties": {"area_ha": 0.0, "mean": null}, "geometry": {"type": "Polygon", "coordinates": [[[120.60748115011373, 31.424401024], [120.60737585511751, 31.42431056], [120.60748115011373, 31.42431056], [120.60748115011373, 31.424401024]]]}}, {"type": "Feature", "properties": {"area_ha": 0.0, "mean": null}, "geometry": {"type": "Polygon", "coordinates": [[[120.60737585511751, 31.42431056], [120.60727056012131, 31.424220096], [120.60737585511751, 31.424220096], [120.60737585511751, 31.42431056]]]}}, {"type": "Feature", "properties": {"area_ha": 0.0, "mean": null}, "geometry": {"type": "Polygon", "coordinates": [[[120.6071652651251, 31.424039168], [120.60705997012889, 31.423948704], [120.6071652651251, 31.423948704], [120.6071652651251, 31.424039168]]]}}, {"type": "Feature", "properties": {"area_ha": 0.0, "mean": null}, "geometry": {"type": "Polygon", "coordinates": [[[120.60705997012889, 31.423948704], [120.60695467513268, 31.42385824], [120.60705997012889, 31.42385824], [120.60705997012889, 31.423948704]]]}}, {"type": "Feature", "properties": {"area_ha": 0.02, "mean": 0.2829}, "geometry": {"type": "Polygon", "coordinates": [[[120.6071652651251, 31.423677312], [120.60705997012889, 31.423224992], [120.6071652651251, 31.423224992], [120.6071652651251, 31.423677312]]]}}, {"type": "Feature", "properties": {"area_ha": 0.0, "mean": null}, "geometry": {"type": "Polygon", "coordinates": [[[120.60727056012131, 31.423224992], [120.6071652651251, 31.423134528000002], [120.60727056012131, 31.423134528000002], [120.60727056012131, 31.423224992]]]}}, {"type": "Feature", "properties": {"area_ha": 0.02, "mean": 0.1385}, "geometry": {"type": "Polygon", "coordinates": [[[120.60737585511751, 31.423044064], [120.60727056012131, 31.422682208], [120.60737585511751, 31.422682208], [120.60737585511751, 31.423044064]]]}}, {"type": "Feature", "properties": {"area_ha": 0.0, "mean": null}, "geometry": {"type": "Polygon", "coordinates": [[[120.60558584018196, 31.422682208], [120.60548054518576, 31.422591744], [120.60558584018196, 31.422591744], [120.60558584018196, 31.422682208]]]}}, {"type": "Feature", "properties": {"area_ha": 0.0, "mean": null}, "geometry": {"type": "Polygon", "coordinates": [[[120.60737585511751, 31.422591744], [120.60727056012131, 31.42250128], [120.60737585511751, 31.42250128], [120.60737585511751, 31.422591744]]]}}, {"type": "Feature", "properties": {"area_ha": 0.0, "mean": null}, "geometry": {"type": "Polygon", "coordinates": [[[120.60748115011373, 31.422410816], [120.60737585511751, 31.422320352], [120.60748115011373, 31.422320352], [120.60748115011373, 31.422410816]]]}}, {"type": "Feature", "properties": {"area_ha": 0.0, "mean": null}, "geometry": {"type": "Polygon", "coordinates": [[[120.60505936520092, 31.422320352], [120.6049540702047, 31.422229888], [120.60505936520092, 31.422229888], [120.60505936520092, 31.422320352]]]}}, {"type": "Feature", "properties": {"area_ha": 0.0, "mean": null}, "geometry": {"type": "Polygon", "coordinates": [[[120.60411171023503, 31.42114432], [120.60400641523881, 31.421053856], [120.60411171023503, 31.421053856], [120.60411171023503, 31.42114432]]]}}, {"type": "Feature", "properties": {"area_ha": 0.0, "mean": null}, "geometry": {"type": "Polygon", "coordinates": [[[120.58294741599697, 31.420872928], [120.58284212100077, 31.420782464000002], [120.58294741599697, 31.420782464000002], [120.58294741599697, 31.420872928]]]}}, {"type": "Feature", "properties": {"area_ha": 0.0, "mean": null}, "geometry": {"type": "Polygon", "coordinates": [[[120.58305271099319, 31.420782464000002], [120.58294741599697, 31.420692], [120.58305271099319, 31.420692], [120.58305271099319, 31.420782464000002]]]}}, {"type": "Feature", "properties": {"area_ha": 0.0, "mean": null}, "geometry": {"type": "Polygon", "coordinates": [[[120.58315800598939, 31.420692], [120.58305271099319, 31.420601536], [120.58315800598939, 31.420601536], [120.58315800598939, 31.420692]]]}}, {"type": "Feature", "properties": {"area_ha": 0.0, "mean": null}, "geometry": {"type": "Polygon", "coordinates": [[[120.58326330098559, 31.420511072], [120.58315800598939, 31.420420608], [120.58326330098559, 31.420420608], [120.58326330098559, 31.420511072]]]}}, {"type": "Feature", "properties": {"area_ha": 0.0, "mean": null}, "geometry": {"type": "Polygon", "coordinates": [[[120.58736980583775, 31.42023968], [120.58726451084155, 31.420149216], [120.58736980583775, 31.420149216], [120.58736980583775, 31.42023968]]]}}, {"type": "Feature", "properties": {"area_ha": 0.0, "mean": null}, "geometry": {"type": "Polygon", "coordinates": [[[120.58357918597423, 31.420149216], [120.58347389097801, 31.420058752], [120.58357918597423, 31.420058752], [120.58357918597423, 31.420149216]]]}}, {"type": "Feature", "properties": {"area_ha": 0.0, "mean": null}, "geometry": {"type": "Polygon", "coordinates": [[[120.58368448097043, 31.420058752], [120.58357918597423, 31.419968288], [120.58368448097043, 31.419968288], [120.58368448097043, 31.420058752]]]}}, {"type": "Feature", "properties": {"area_ha": 0.0, "mean": null}, "geometry": {"type": "Polygon", "coordinates": [[[120.58378977596665, 31.419968288], [120.58368448097043, 31.419877824], [120.58378977596665, 31.419877824], [120.58378977596665, 31.419968288]]]}}, {"type": "Feature", "properties": {"area_ha": 0.0, "mean": null}, "geometry": {"type": "Polygon", "coordinates": [[[120.58400036595907, 31.419696896], [120.58389507096285, 31.419606432000002], [120.58400036595907, 31.419606432000002], [120.58400036595907, 31.419696896]]]}}, {"type": "Feature", "properties": {"area_ha": 0.01, "mean": 0.3165}, "geometry": {"type": "Polygon", "coordinates": [[[120.58473743093253, 31.419696896], [120.58463213593632, 31.419515968], [120.58473743093253, 31.419515968], [120.58473743093253, 31.419696896]]]}}, {"type": "Feature", "properties": {"area_ha": 0.0, "mean": null}, "geometry": {"type": "Polygon", "coordinates": [[[120.58484272592874, 31.419515968], [120.58473743093253, 31.419425504], [120.58484272592874, 31.419425504], [120.58484272592874, 31.419515968]]]}}, {"type": "Feature", "properties": {"area_ha": 0.0, "mean": null}, "geometry": {"type": "Polygon", "coordinates": [[[120.58926511576952, 31.419154112], [120.58915982077332, 31.419063648], [120.58926511576952, 31.419063648], [120.58926511576952, 31.419154112]]]}}, {"type": "Feature", "properties": {"area_ha": 0.0, "mean": null}, "geometry": {"type": "Polygon", "coordinates": [[[120.58937041076574, 31.419063648], [120.58926511576952, 31.418973184], [120.58937041076574, 31.418973184], [120.58937041076574, 31.419063648]]]}}, {"type": "Feature", "properties": {"area_ha": 0.01, "mean": 0.2614}, "geometry": {"type": "Polygon", "coordinates": [[[120.58631685587567, 31.418701792], [120.58621156087946, 31.418520864], [120.58631685587567, 31.418520864], [120.58631685587567, 31.418701792]]]}}, {"type": "Feature", "properties": {"area_ha": 0.0, "mean": null}, "geometry": {"type": "Polygon", "coordinates": [[[120.58979159075058, 31.418611328], [120.58968629575436, 31.418520864], [120.58979159075058, 31.418520864], [120.58979159075058, 31.418611328]]]}}, {"type": "Feature", "properties": {"area_ha": 0.0, "mean": null}, "geometry": {"type": "Polygon", "coordinates": [[[120.58642215087188, 31.418430400000002], [120.58631685587567, 31.418339936], [120.58642215087188, 31.418339936], [120.58642215087188, 31.418430400000002]]]}}, {"type": "Feature", "properties": {"area_ha": 0.01, "mean": 0.3491}, "geometry": {"type": "Polygon", "coordinates": [[[120.58694862585293, 31.418339936], [120.5867380358605, 31.418249472], [120.58694862585293, 31.418249472], [120.58694862585293, 31.418339936]]]}}, {"type": "Feature", "properties": {"area_ha": 0.0, "mean": null}, "geometry": {"type": "Polygon", "coordinates": [[[120.5912657206975, 31.417706688], [120.59116042570129, 31.417616224], [120.5912657206975, 31.417616224], [120.5912657206975, 31.417706688]]]}}, {"type": "Feature", "properties": {"area_ha": 0.0, "mean": null}, "geometry": {"type": "Polygon", "coordinates": [[[120.58937041076574, 31.417344832], [120.58926511576952, 31.417254368000002], [120.58937041076574, 31.417254368000002], [120.58937041076574, 31.417344832]]]}}, {"type": "Feature", "properties": {"area_ha": 0.01, "mean": 0.1364}, "geometry": {"type": "Polygon", "coordinates": [[[120.59252926065201, 31.416259264], [120.5924239656558, 31.416078336], [120.59252926065201, 31.416078336], [120.59252926065201, 31.416259264]]]}}, {"type": "Feature", "properties": {"area_ha": 0.01, "mean": 0.315}, "geometry": {"type": "Polygon", "coordinates": [[[120.59147631068993, 31.415987872], [120.5912657206975, 31.415897408], [120.59147631068993, 31.415897408], [120.59147631068993, 31.415987872]]]}}, {"type": "Feature", "properties": {"area_ha": 0.01, "mean": 0.2942}, "geometry": {"type": "Polygon", "coordinates": [[[120.55346481705838, 31.41526416], [120.55325422706596, 31.415173696], [120.55346481705838, 31.415173696], [120.55346481705838, 31.41526416]]]}}, {"type": "Feature", "properties": {"area_ha": 0.0, "mean": null}, "geometry": {"type": "Polygon", "coordinates": [[[120.55399129203943, 31.415173696], [120.55388599704322, 31.415083232], [120.55399129203943, 31.415083232], [120.55399129203943, 31.415173696]]]}}, {"type": "Feature", "properties": {"area_ha": 0.0, "mean": null}, "geometry": {"type": "Polygon", "coordinates": [[[120.5947404555724, 31.414630912], [120.5946351605762, 31.414540448], [120.5947404555724, 31.414540448], [120.5947404555724, 31.414630912]]]}}, {"type": "Feature", "properties": {"area_ha": 0.0, "mean": null}, "geometry": {"type": "Polygon", "coordinates": [[[120.55788720689917, 31.4139072], [120.55778191190296, 31.413816736], [120.55788720689917, 31.413816736], [120.55788720689917, 31.4139072]]]}}, {"type": "Feature", "properties": {"area_ha": 0.0, "mean": null}, "geometry": {"type": "Polygon", "coordinates": [[[120.59716224048522, 31.413273952], [120.59705694548902, 31.413183488], [120.59716224048522, 31.413183488], [120.59716224048522, 31.413273952]]]}}, {"type": "Feature", "properties": {"area_ha": 0.01, "mean": 0.1935}, "geometry": {"type": "Polygon", "coordinates": [[[120.59884696042457, 31.412731168], [120.59863637043215, 31.412640704], [120.59884696042457, 31.412640704], [120.59884696042457, 31.412731168]]]}}, {"type": "Feature", "properties": {"area_ha": 0.01, "mean": 0.196}, "geometry": {"type": "Polygon", "coordinates": [[[120.59747812547384, 31.412640704], [120.59726753548144, 31.41255024], [120.59747812547384, 31.41255024], [120.59747812547384, 31.412640704]]]}}, {"type": "Feature", "properties": {"area_ha": 0.0, "mean": null}, "geometry": {"type": "Polygon", "coordinates": [[[120.59768871546626, 31.41255024], [120.59758342047006, 31.412459776], [120.59768871546626, 31.412459776], [120.59768871546626, 31.41255024]]]}}, {"type": "Feature", "properties": {"area_ha": 0.0, "mean": null}, "geometry": {"type": "Polygon", "coordinates": [[[120.59789930545868, 31.412459776], [120.59779401046248, 31.412369312], [120.59789930545868, 31.412369312], [120.59789930545868, 31.412459776]]]}}, {"type": "Feature", "properties": {"area_ha": 0.0, "mean": null}, "geometry": {"type": "Polygon", "coordinates": [[[120.5981098954511, 31.412369312], [120.5980046004549, 31.412278848], [120.5981098954511, 31.412278848], [120.5981098954511, 31.412369312]]]}}, {"type": "Feature", "properties": {"area_ha": 0.0, "mean": null}, "geometry": {"type": "Polygon", "coordinates": [[[120.5982151904473, 31.412278848], [120.5981098954511, 31.412188384], [120.5982151904473, 31.412188384], [120.5982151904473, 31.412278848]]]}}, {"type": "Feature", "properties": {"area_ha": 0.0, "mean": null}, "geometry": {"type": "Polygon", "coordinates": [[[120.59863637043215, 31.41209792], [120.59853107543594, 31.412007456], [120.59863637043215, 31.412007456], [120.59863637043215, 31.41209792]]]}}, {"type": "Feature", "properties": {"area_ha": 0.01, "mean": 0.1668}, "geometry": {"type": "Polygon", "coordinates": [[[120.59905755041699, 31.411826528], [120.59884696042457, 31.411736064], [120.59905755041699, 31.411736064], [120.59905755041699, 31.411826528]]]}}, {"type": "Feature", "properties": {"area_ha": 0.0, "mean": null}, "geometry": {"type": "Polygon", "coordinates": [[[120.59916284541319, 31.411736064], [120.59905755041699, 31.4116456], [120.59916284541319, 31.4116456], [120.59916284541319, 31.411736064]]]}}, {"type": "Feature", "properties": {"area_ha": 0.06, "mean": 0.4078}, "geometry": {"type": "Polygon", "coordinates": [[[120.57073319643669, 31.411555136], [120.57020672145565, 31.4116456], [120.57062790144049, 31.411374208], [120.57073319643669, 31.411555136]]]}}, {"type": "Feature", "properties": {"area_ha": 0.03, "mean": 0.173}, "geometry": {"type": "Polygon", "coordinates": [[[120.59968932039425, 31.411374208], [120.59958402539803, 31.411102816], [120.59979461539045, 31.411102816], [120.59968932039425, 31.411374208]]]}}, {"type": "Feature", "properties": {"area_ha": 0.01, "mean": 0.2004}, "geometry": {"type": "Polygon", "coordinates": [[[120.60000520538287, 31.411102816], [120.59979461539045, 31.411012352], [120.60000520538287, 31.411012352], [120.60000520538287, 31.411102816]]]}}, {"type": "Feature", "properties": {"area_ha": 0.0, "mean": null}, "geometry": {"type": "Polygon", "coordinates": [[[120.55788720689917, 31.410469568], [120.55778191190296, 31.410379104], [120.55788720689917, 31.410379104], [120.55788720689917, 31.410469568]]]}}, {"type": "Feature", "properties": {"area_ha": 0.01, "mean": 0.131}, "geometry": {"type": "Polygon", "coordinates": [[[120.60179522031842, 31.41028864], [120.601584630326, 31.410198176], [120.60179522031842, 31.410198176], [120.60179522031842, 31.41028864]]]}}, {"type": "Feature", "properties": {"area_ha": 0.0, "mean": null}, "geometry": {"type": "Polygon", "coordinates": [[[120.60190051531464, 31.410198176], [120.60179522031842, 31.410107712], [120.60190051531464, 31.410107712], [120.60190051531464, 31.410198176]]]}}, {"type": "Feature", "properties": {"area_ha": 0.0, "mean": null}, "geometry": {"type": "Polygon", "coordinates": [[[120.60232169529948, 31.410017248], [120.60221640030326, 31.409926784], [120.60232169529948, 31.409926784], [120.60232169529948, 31.410017248]]]}}, {"type": "Feature", "properties": {"area_ha": 0.02, "mean": 0.1855}, "geometry": {"type": "Polygon", "coordinates": [[[120.55841368188021, 31.409926784], [120.55809779689159, 31.40983632], [120.55841368188021, 31.409745856], [120.55841368188021, 31.409926784]]]}}, {"type": "Feature", "properties": {"area_ha": 0.0, "mean": null}, "geometry": {"type": "Polygon", "coordinates": [[[120.55767661690675, 31.40983632], [120.55757132191054, 31.409745856], [120.55767661690675, 31.409745856], [120.55767661690675, 31.40983632]]]}}, {"type": "Feature", "properties": {"area_ha": 0.03, "mean": 0.2193}, "geometry": {"type": "Polygon", "coordinates": [[[120.60253228529189, 31.409926784], [120.60253228529189, 31.409655392], [120.6027428752843, 31.409655392], [120.60253228529189, 31.409926784]]]}}, {"type": "Feature", "properties": {"area_ha": 0.0, "mean": null}, "geometry": {"type": "Polygon", "coordinates": [[[120.55778191190296, 31.409655392], [120.55767661690675, 31.409564928], [120.55778191190296, 31.409564928], [120.55778191190296, 31.409655392]]]}}, {"type": "Feature", "properties": {"area_ha": 0.0, "mean": null}, "geometry": {"type": "Polygon", "coordinates": [[[120.60295346527673, 31.409655392], [120.60284817028052, 31.409564928], [120.60295346527673, 31.409564928], [120.60295346527673, 31.409655392]]]}}, {"type": "Feature", "properties": {"area_ha": 0.01, "mean": 0.1734}, "geometry": {"type": "Polygon", "coordinates": [[[120.60326935026535, 31.409564928], [120.60305876027294, 31.409474464], [120.60326935026535, 31.409474464], [120.60326935026535, 31.409564928]]]}}, {"type": "Feature", "properties": {"area_ha": 0.0, "mean": null}, "geometry": {"type": "Polygon", "coordinates": [[[120.60337464526157, 31.409474464], [120.60326935026535, 31.409384], [120.60337464526157, 31.409384], [120.60337464526157, 31.409474464]]]}}, {"type": "Feature", "properties": {"area_ha": 0.0, "mean": null}, "geometry": {"type": "Polygon", "coordinates": [[[120.60358523525399, 31.409384], [120.60347994025777, 31.409293536], [120.60358523525399, 31.409293536], [120.60358523525399, 31.409384]]]}}, {"type": "Feature", "properties": {"area_ha": 0.16, "mean": 0.3795}, "geometry": {"type": "Polygon", "coordinates": [[[120.5957934055345, 31.409474464], [120.59495104556483, 31.409112608], [120.5957934055345, 31.409112608], [120.5957934055345, 31.409474464]]]}}]}