{"type": "FeatureCollection", "features": [{"type": "Feature", "properties": {"name": "黄埭镇水体边界 (JRC参考+S2 10m细化)"}, "geometry": {"type": "MultiPolygon", "coordinates": [[[[120.54388297240334, 31.396538112], [120.54356708741471, 31.396447648], [120.54377767740714, 31.39671904], [120.54388297240334, 31.396538112]]], [[[120.54356708741471, 31.39717136], [120.54325120242609, 31.397080896], [120.5434617924185, 31.397352288], [120.54356708741471, 31.39717136]]], [[[120.54440944738438, 31.398076], [120.54293531743745, 31.400247136], [120.54535710235027, 31.401875488], [120.54440944738438, 31.398076]]], [[[120.5434617924185, 31.403232448], [120.5433564974223, 31.404679872], [120.54409356239576, 31.40531312], [120.5434617924185, 31.403232448]]], [[[120.52345574313874, 31.410650496], [120.52356103813496, 31.410831424], [120.5241928081122, 31.41028864], [120.52345574313874, 31.410650496]]], [[[120.52598282304777, 31.412188384], [120.52619341304019, 31.412731168], [120.5275622479909, 31.411555136], [120.52598282304777, 31.412188384]]], [[[120.54304061243367, 31.41888272], [120.54304061243367, 31.41978736], [120.5445147423806, 31.419515968], [120.54304061243367, 31.41888272]]], [[[120.54251413745261, 31.4161688], [120.54030294253222, 31.419425504], [120.54230354746021, 31.42340592], [120.54251413745261, 31.4161688]]], [[[120.53272170280516, 31.425034272], [120.53114227786202, 31.42566752], [120.53703879764974, 31.42476288], [120.53272170280516, 31.425034272]]], [[[120.54104000750569, 31.425577056], [120.54082941751327, 31.42566752], [120.5411453025019, 31.426119840000002], [120.54104000750569, 31.425577056]]], [[[120.528615197953, 31.425938912], [120.52956285291889, 31.42657216], [120.52998403290371, 31.425757984], [120.528615197953, 31.425938912]]], [[[120.51829628832449, 31.42657216], [120.51755922335103, 31.427114944], [120.51819099332829, 31.427838656], [120.51829628832449, 31.42657216]]], [[[120.52356103813496, 31.427295872000002], [120.52313985815012, 31.427205408], [120.52335044814254, 31.427567264], [120.52356103813496, 31.427295872000002]]], [[[120.54093471250948, 31.426391232], [120.54040823752844, 31.427748192], [120.54104000750569, 31.42838144], [120.54093471250948, 31.426391232]]], [[[120.519559828279, 31.427205408], [120.51755922335103, 31.431276288], [120.52156043320699, 31.427295872000002], [120.519559828279, 31.427205408]]], [[[120.54030294253222, 31.430100256], [120.54061882752086, 31.430281184000002], [120.54051353252464, 31.430009792], [120.54030294253222, 31.430100256]]], [[[120.5399870575436, 31.432000000000002], [120.5411453025019, 31.432361856], [120.54030294253222, 31.43154768], [120.5399870575436, 31.432000000000002]]], [[[120.5399870575436, 31.43290464], [120.53977646755118, 31.432995104], [120.5400923525398, 31.433085568], [120.5399870575436, 31.43290464]]], [[[120.51745392835483, 31.432995104], [120.51692745337377, 31.433176032], [120.51755922335103, 31.433266496], [120.51745392835483, 31.432995104]]], [[[120.51692745337377, 31.434985312000002], [120.51629568339652, 31.435347168], [120.51692745337377, 31.435528096], [120.51692745337377, 31.434985312000002]]], [[[120.53967117255497, 31.43516624], [120.53946058256255, 31.435256704], [120.53977646755118, 31.435709024], [120.53967117255497, 31.43516624]]], [[[120.53893410758151, 31.439056192], [120.53872351758909, 31.439146656000002], [120.53903940257771, 31.439689440000002], [120.53893410758151, 31.439056192]]], [[[120.53872351758909, 31.44014176], [120.53851292759667, 31.440232224], [120.5388288125853, 31.440955936], [120.53872351758909, 31.44014176]]], [[[120.53840763260045, 31.442041504], [120.53819704260805, 31.442131968], [120.53851292759667, 31.442312896], [120.53840763260045, 31.442041504]]], [[[120.53798645261563, 31.44285568], [120.53840763260045, 31.443036608], [120.53830233760425, 31.44240336], [120.53798645261563, 31.44285568]]], [[[120.5377758626232, 31.443941248], [120.53819704260805, 31.444031712], [120.53809174761183, 31.443398464], [120.5377758626232, 31.443941248]]], [[[120.53788115761941, 31.444574496], [120.53756527263079, 31.44511728], [120.53788115761941, 31.445750528], [120.53788115761941, 31.444574496]]], [[[120.53893410758151, 31.445207744], [120.53861822259287, 31.445388672], [120.53946058256255, 31.445840992], [120.53893410758151, 31.445207744]]], [[[120.54146118749053, 31.445750528], [120.5400923525398, 31.445931456], [120.54135589249432, 31.44602192], [120.54146118749053, 31.445750528]]], [[[120.53756527263079, 31.446293312], [120.53724938764216, 31.446745632], [120.5377758626232, 31.447469344], [120.53756527263079, 31.446293312]]], [[[120.53314288279, 31.466014464], [120.53282699780137, 31.466195392], [120.53335347278241, 31.46728096], [120.53314288279, 31.466014464]]], [[[120.53135286785444, 31.466557248], [120.53019462289613, 31.467100032], [120.53135286785444, 31.46773328], [120.53135286785444, 31.466557248]]], [[[120.53029991789235, 31.467552352000002], [120.52903637793784, 31.466919104000002], [120.52966814791509, 31.468004672], [120.53029991789235, 31.467552352000002]]], [[[120.52808872297196, 31.469271168000002], [120.53240581781654, 31.46863792], [120.52598282304777, 31.467823744], [120.52808872297196, 31.469271168000002]]], [[[120.53809174761183, 31.471985088], [120.53914469757392, 31.471080448000002], [120.53461701273693, 31.47135184], [120.53809174761183, 31.471985088]]], [[[120.5412505974981, 31.471532768], [120.54082941751327, 31.471442304], [120.54104000750569, 31.471894624], [120.5412505974981, 31.471532768]]], [[[120.54809477225172, 31.388396352], [120.5468312322972, 31.38948192], [120.54820006724792, 31.39038656], [120.54809477225172, 31.388396352]]], [[[120.54598887232753, 31.389210528], [120.54440944738438, 31.390024704], [120.5456729873389, 31.389572384], [120.54598887232753, 31.389210528]]], [[[120.54662064230477, 31.3912912], [120.54609416732373, 31.392014912], [120.54672593730099, 31.39174352], [120.54662064230477, 31.3912912]]], [[[120.54609416732373, 31.392376768], [120.54588357733131, 31.392467232], [120.54619946231995, 31.39264816], [120.54609416732373, 31.392376768]]], [[[120.54588357733131, 31.392919552], [120.5456729873389, 31.393010016], [120.54598887232753, 31.39310048], [120.54588357733131, 31.392919552]]], [[[120.5456729873389, 31.393371872], [120.54514651235785, 31.394095584], [120.5456729873389, 31.393824192], [120.5456729873389, 31.393371872]]], [[[120.54651534730857, 31.394819296], [120.54693652729341, 31.395633472], [120.54725241228203, 31.395090688], [120.54651534730857, 31.394819296]]], [[[120.5445147423806, 31.395543008], [120.54483062736922, 31.396085792], [120.54504121736164, 31.394728832], [120.5445147423806, 31.395543008]]], [[[120.5446200373768, 31.396176256], [120.54430415238818, 31.396809504], [120.54472533237302, 31.396809504], [120.5446200373768, 31.396176256]]], [[[120.54440944738438, 31.397533216], [120.54419885739196, 31.39762368], [120.5445147423806, 31.397804608], [120.54440944738438, 31.397533216]]], [[[120.55851897687643, 31.397714144000002], [120.55767661690675, 31.397804608], [120.5582030918878, 31.398076], [120.55851897687643, 31.397714144000002]]], [[[120.55125362213799, 31.399975744], [120.55020067217589, 31.400699456], [120.5513589171342, 31.400156672], [120.55125362213799, 31.399975744]]], [[[120.56588962661107, 31.400699456], [120.56325725170583, 31.400156672], [120.56452079166036, 31.40124224], [120.56588962661107, 31.400699456]]], [[[120.55041126216831, 31.402237344], [120.55020067217589, 31.402327808], [120.55051655716453, 31.402418272], [120.55041126216831, 31.402237344]]], [[[120.55293834207734, 31.404589408], [120.55314893206976, 31.40531312], [120.55441247202427, 31.405132192], [120.55293834207734, 31.404589408]]], [[[120.56136194177408, 31.405041728], [120.5616778267627, 31.40531312], [120.5617831217589, 31.405132192], [120.56136194177408, 31.405041728]]], [[[120.56294136671721, 31.40757472], [120.56473138165278, 31.40621776], [120.56431020166794, 31.403232448], [120.56294136671721, 31.40757472]]], [[[120.55483365200911, 31.40531312], [120.55462306201669, 31.405403584000002], [120.55493894700531, 31.405494048], [120.55483365200911, 31.40531312]]], [[[120.55904545185747, 31.405494048], [120.55862427187263, 31.405494048], [120.55883486186505, 31.40576544], [120.55904545185747, 31.405494048]]], [[[120.56125664677786, 31.405946368], [120.56009840181956, 31.405855904], [120.56115135178166, 31.40667008], [120.56125664677786, 31.405946368]]], [[[120.5617831217589, 31.407031936], [120.56136194177408, 31.406941472], [120.5616778267627, 31.407212864], [120.5617831217589, 31.407031936]]], [[[120.55862427187263, 31.408750752], [120.55809779689159, 31.408660288], [120.55841368188021, 31.409022144], [120.55862427187263, 31.408750752]]], [[[120.56115135178166, 31.409203072], [120.55841368188021, 31.409384], [120.56009840181956, 31.41028864], [120.56115135178166, 31.409203072]]], [[[120.55693955193328, 31.409203072], [120.55672896194086, 31.410469568], [120.55778191190296, 31.409384], [120.55693955193328, 31.409203072]]], [[[120.55957192683852, 31.410740960000002], [120.56020369681578, 31.411012352], [120.56030899181198, 31.410831424], [120.55957192683852, 31.410740960000002]]], [[[120.55851897687643, 31.411012352], [120.55894015686127, 31.411374208], [120.55915074685367, 31.411012352], [120.55851897687643, 31.411012352]]], [[[120.5604142868082, 31.411464672], [120.55988781182715, 31.411374208], [120.56030899181198, 31.411736064], [120.5604142868082, 31.411464672]]], [[[120.56136194177408, 31.413093024000002], [120.56146723677028, 31.413273952], [120.56230959673996, 31.413093024000002], [120.56136194177408, 31.413093024000002]]], [[[120.56294136671721, 31.41300256], [120.56241489173617, 31.4139072], [120.56315195670963, 31.41345488], [120.56294136671721, 31.41300256]]], [[[120.56104605678544, 31.41662112], [120.56083546679302, 31.416711584], [120.56115135178166, 31.416802048], [120.56104605678544, 31.41662112]]], [[[120.56125664677786, 31.416892512], [120.56115135178166, 31.41707344], [120.56188841675512, 31.417163904], [120.56125664677786, 31.416892512]]], [[[120.54956890219864, 31.4161688], [120.54304061243367, 31.420511072], [120.56115135178166, 31.414630912], [120.54956890219864, 31.4161688]]], [[[120.56283607172101, 31.417887616], [120.56273077672479, 31.418068544], [120.56357313669447, 31.418249472], [120.56283607172101, 31.417887616]]], [[[120.5478841822593, 31.429195616], [120.54862124723276, 31.428924224], [120.54820006724792, 31.428743296], [120.5478841822593, 31.429195616]]], [[[120.54556769234269, 31.430281184000002], [120.54598887232753, 31.43064304], [120.54619946231995, 31.430100256], [120.54556769234269, 31.430281184000002]]], [[[120.54925301721, 31.440775008], [120.5490424272176, 31.441136864], [120.54977949219106, 31.440865472], [120.54925301721, 31.440775008]]], [[[120.57968327111449, 31.400880384], [120.57905150113723, 31.40124224], [120.5798938611069, 31.401151776], [120.57968327111449, 31.400880384]]], [[[120.56915377149356, 31.401151776], [120.56862729651252, 31.401061312], [120.56904847649736, 31.401332704], [120.56915377149356, 31.401151776]]], [[[120.56736375655801, 31.401875488], [120.56652139658833, 31.401604096], [120.56725846156179, 31.402237344], [120.56736375655801, 31.401875488]]], [[[120.57315498134952, 31.401965952], [120.5729443913571, 31.402056416], [120.57326027634572, 31.40214688], [120.57315498134952, 31.401965952]]], [[[120.56557374162244, 31.402418272], [120.56546844662624, 31.402870592], [120.5662055115997, 31.402508736], [120.56557374162244, 31.402418272]]], [[[120.56778493654284, 31.402689664], [120.56704787156937, 31.402689664], [120.56789023153905, 31.403141984], [120.56778493654284, 31.402689664]]], [[[120.57589265125095, 31.403141984], [120.57620853623958, 31.403232448], [120.57610324124337, 31.40305152], [120.57589265125095, 31.403141984]]], [[[120.57610324124337, 31.403322912], [120.5763138312358, 31.403684768], [120.57715619120546, 31.403594304], [120.57610324124337, 31.403322912]]], [[[120.56673198658075, 31.4048608], [120.56546844662624, 31.40440848], [120.56652139658833, 31.405222656], [120.56673198658075, 31.4048608]]], [[[120.56525785663382, 31.406036832], [120.5651525616376, 31.40621776], [120.56567903661866, 31.406127296], [120.56525785663382, 31.406036832]]], [[[120.57010142645944, 31.406308224], [120.56999613146323, 31.406579616000002], [120.57062790144049, 31.406851008], [120.57010142645944, 31.406308224]]], [[[120.56610021660349, 31.40667008], [120.56641610159213, 31.407303328], [120.56778493654284, 31.406489152], [120.56610021660349, 31.40667008]]], [[[120.57252321137226, 31.407936576], [120.57199673639121, 31.408117504], [120.57273380136468, 31.408207968], [120.57252321137226, 31.407936576]]], [[[120.57062790144049, 31.411374208], [120.57020672145565, 31.4116456], [120.57073319643669, 31.411555136], [120.57062790144049, 31.411374208]]], [[[120.57705089620926, 31.41797808], [120.57694560121304, 31.418159008], [120.5776826661865, 31.418611328], [120.57705089620926, 31.41797808]]], [[[120.58189446603488, 31.421325248], [120.58789628081881, 31.420058752], [120.58736980583775, 31.418159008], [120.58189446603488, 31.421325248]]], [[[120.57936738612585, 31.426753088], [120.57926209112965, 31.426481696], [120.57921673328512, 31.426501180553846], [120.58242094101593, 31.423044064], [120.57936738612585, 31.422410816], [120.57789325617892, 31.42792912], [120.57911646135666, 31.426609366967742], [120.57936738612585, 31.426753088]]], [[[120.57936738612585, 31.426934016], [120.57926209112965, 31.427386336], [120.58010445109932, 31.428110048], [120.57936738612585, 31.426934016]]], [[[120.57863032115239, 31.429195616], [120.57841973115997, 31.42928608], [120.5787356161486, 31.429467008], [120.57863032115239, 31.429195616]]], [[[120.56789023153905, 31.430462112], [120.56767964154663, 31.430552576], [120.56799552653526, 31.43064304], [120.56789023153905, 31.430462112]]], [[[120.56736375655801, 31.431004896], [120.56662669158453, 31.43109536], [120.56715316656559, 31.431276288], [120.56736375655801, 31.431004896]]], [[[120.56610021660349, 31.43154768], [120.56588962661107, 31.431638144], [120.5662055115997, 31.431728608], [120.56610021660349, 31.43154768]]], [[[120.5890545257771, 31.43245232], [120.5888439357847, 31.432542784], [120.58915982077332, 31.432633248000002], [120.5890545257771, 31.43245232]]], [[[120.58452684094011, 31.432995104], [120.58494802092494, 31.43335696], [120.58505331592116, 31.433176032], [120.58452684094011, 31.432995104]]], [[[120.58473743093253, 31.434171136], [120.58515861091736, 31.434171136], [120.58505331592116, 31.433990208], [120.58473743093253, 31.434171136]]], [[[120.58336859598181, 31.437246912], [120.58252623601213, 31.436885056], [120.58294741599697, 31.437699232], [120.58336859598181, 31.437246912]]], [[[120.5798938611069, 31.438513408000002], [120.57905150113723, 31.438513408000002], [120.57947268112207, 31.438965728], [120.5798938611069, 31.438513408000002]]], [[[120.58410566095527, 31.439598976], [120.58400036595907, 31.439779904], [120.58463213593632, 31.439960832], [120.58410566095527, 31.439598976]]], [[[120.58705392084913, 31.441136864], [120.58663274086429, 31.4410464], [120.58694862585293, 31.441408256], [120.58705392084913, 31.441136864]]], [[[120.5867380358605, 31.446836096000002], [120.58610626588325, 31.447740736], [120.58747510083397, 31.447107488], [120.5867380358605, 31.446836096000002]]], [[[120.58147328605004, 31.452444864], [120.58052563108416, 31.452535328], [120.58136799105384, 31.452987648], [120.58147328605004, 31.452444864]]], [[[120.58020974609553, 31.45325904], [120.57999915610311, 31.453349504000002], [120.58031504109174, 31.453530432], [120.58020974609553, 31.45325904]]], [[[120.58600097088704, 31.469361632000002], [120.58631685587567, 31.469452096], [120.58621156087946, 31.469271168000002], [120.58600097088704, 31.469361632000002]]], [[[120.57547147126611, 31.472075552], [120.57705089620926, 31.471170912], [120.57536617626991, 31.471261376], [120.57547147126611, 31.472075552]]], [[[120.58347389097801, 31.471442304], [120.57947268112207, 31.471261376], [120.58010445109932, 31.473070656], [120.58347389097801, 31.471442304]]], [[[120.59895225542078, 31.406579616000002], [120.59884696042457, 31.407031936], [120.59937343540561, 31.406851008], [120.59895225542078, 31.406579616000002]]], [[[120.59063395072025, 31.407031936], [120.58937041076574, 31.408841216], [120.59368750561032, 31.408660288], [120.59063395072025, 31.407031936]]], [[[120.59379280060652, 31.40893168], [120.59421398059136, 31.40983632], [120.5969516504928, 31.408750752], [120.59379280060652, 31.40893168]]], [[[120.59179219567855, 31.409384], [120.59137101569371, 31.410107712], [120.59284514564064, 31.410198176], [120.59179219567855, 31.409384]]], [[[120.59073924571645, 31.409926784], [120.59063395072025, 31.41028864], [120.59116042570129, 31.410198176], [120.59073924571645, 31.409926784]]], [[[120.59421398059136, 31.410198176], [120.59337162062168, 31.41028864], [120.59431927558757, 31.410831424], [120.59421398059136, 31.410198176]]], [[[120.59610929052313, 31.410740960000002], [120.59642517551175, 31.410921888], [120.59631988051555, 31.410650496], [120.59610929052313, 31.410740960000002]]], [[[120.59484575056861, 31.413635808], [120.60400641523881, 31.410017248], [120.59958402539803, 31.411102816], [120.59484575056861, 31.413635808]]], [[[120.59653047050796, 31.411916992000002], [120.59389809560274, 31.411464672], [120.59642517551175, 31.412188384], [120.59653047050796, 31.411916992000002]]], [[[120.59052865572404, 31.411464672], [120.58989688574678, 31.412188384], [120.59137101569371, 31.412821632], [120.59052865572404, 31.411464672]]], [[[120.59221337566339, 31.415445088000002], [120.58821216580743, 31.417616224], [120.5934769156179, 31.415806944], [120.59221337566339, 31.415445088000002]]], [[[120.59737283047764, 31.416440192], [120.59631988051555, 31.416349728], [120.59705694548902, 31.416802048], [120.59737283047764, 31.416440192]]], [[[120.60421700523123, 31.420963392], [120.60400641523881, 31.421053856], [120.60432230022745, 31.42114432], [120.60421700523123, 31.420963392]]], [[[120.5934769156179, 31.422139424], [120.59305573563306, 31.422229888], [120.5935822106141, 31.42250128], [120.5934769156179, 31.422139424]]], [[[120.60674408514026, 31.42250128], [120.6048487752085, 31.42204896], [120.60663879014405, 31.422682208], [120.60674408514026, 31.42250128]]], [[[120.59316103062928, 31.423315456], [120.5935822106141, 31.42340592], [120.5934769156179, 31.423224992], [120.59316103062928, 31.423315456]]], [[[120.60695467513268, 31.423948704], [120.60884998506445, 31.424581952], [120.60758644510993, 31.422139424], [120.60695467513268, 31.423948704]]], [[[120.60463818521607, 31.42385824], [120.6048487752085, 31.42476288], [120.60705997012889, 31.424672416], [120.60463818521607, 31.42385824]]], [[[120.60095286034876, 31.42566752], [120.59926814040941, 31.424853344], [120.60084756535254, 31.425848448], [120.60095286034876, 31.42566752]]], [[[120.60874469006824, 31.427748192], [120.60558584018196, 31.427567264], [120.60863939507203, 31.428290976], [120.60874469006824, 31.427748192]]], [[[120.6026375802881, 31.427838656], [120.60242699029568, 31.42792912], [120.6027428752843, 31.428110048], [120.6026375802881, 31.427838656]]], [[[120.59547752054587, 31.428562368], [120.59526693055345, 31.428652832], [120.59558281554209, 31.428743296], [120.59547752054587, 31.428562368]]], [[[120.59589870053071, 31.430823968000002], [120.59568811053829, 31.430914432], [120.59600399552691, 31.431004896], [120.59589870053071, 31.430823968000002]]], [[[120.59874166542836, 31.430823968000002], [120.59832048544352, 31.431185824], [120.59958402539803, 31.431185824], [120.59874166542836, 31.430823968000002]]], [[[120.60221640030326, 31.432542784], [120.60284817028052, 31.43290464], [120.60295346527673, 31.432633248000002], [120.60221640030326, 31.432542784]]], [[[120.59916284541319, 31.434623456], [120.60000520538287, 31.43471392], [120.59937343540561, 31.4342616], [120.59916284541319, 31.434623456]]], [[[120.59916284541319, 31.43833248], [120.59905755041699, 31.438603872], [120.59958402539803, 31.438603872], [120.59916284541319, 31.43833248]]], [[[120.59947873040183, 31.439056192], [120.59926814040941, 31.439146656000002], [120.59958402539803, 31.43923712], [120.59947873040183, 31.439056192]]], [[[120.5934769156179, 31.441589184], [120.59337162062168, 31.44195104], [120.59410868559515, 31.442312896], [120.5934769156179, 31.441589184]]], [[[120.60663879014405, 31.44285568], [120.60642820015164, 31.442946144], [120.60674408514026, 31.443036608], [120.60663879014405, 31.44285568]]], [[[120.60705997012889, 31.444122176], [120.60695467513268, 31.444393568], [120.60769174010615, 31.444484032000002], [120.60705997012889, 31.444122176]]], [[[120.60211110530706, 31.445660064000002], [120.60190051531464, 31.445750528], [120.60221640030326, 31.445840992], [120.60211110530706, 31.445660064000002]]], [[[120.59653047050796, 31.456153888], [120.59379280060652, 31.457691776], [120.60116345034118, 31.454977856], [120.59653047050796, 31.456153888]]], [[[120.60011050037907, 31.457058528], [120.6003210903715, 31.45732992], [120.60053168036391, 31.457058528], [120.60011050037907, 31.457058528]]], [[[120.59179219567855, 31.466466784], [120.59189749067475, 31.466647712], [120.59200278567097, 31.466466784], [120.59179219567855, 31.466466784]]]]}}]}