{"type": "FeatureCollection", "features": [{"type": "Feature", "properties": {"area_ha": 0.0, "mean": null}, "geometry": {"type": "Polygon", "coordinates": [[[120.52134984321457, 31.469723488], [120.52124454821835, 31.469633024], [120.52134984321457, 31.469633024], [120.52134984321457, 31.469723488]]]}}, {"type": "Feature", "properties": {"area_ha": 0.0, "mean": null}, "geometry": {"type": "Polygon", "coordinates": [[[120.5206127782411, 31.469633024], [120.52050748324488, 31.46954256], [120.5206127782411, 31.46954256], [120.5206127782411, 31.469633024]]]}}, {"type": "Feature", "properties": {"area_ha": 0.0, "mean": null}, "geometry": {"type": "Polygon", "coordinates": [[[120.52177102319939, 31.469633024], [120.52166572820319, 31.46954256], [120.52177102319939, 31.46954256], [120.52177102319939, 31.469633024]]]}}, {"type": "Feature", "properties": {"area_ha": 0.0, "mean": null}, "geometry": {"type": "Polygon", "coordinates": [[[120.51934923828658, 31.469633024], [120.51913864829417, 31.469452096], [120.51924394329038, 31.469452096], [120.51934923828658, 31.469633024]]]}}, {"type": "Feature", "properties": {"area_ha": 0.01, "mean": 0.1515}, "geometry": {"type": "Polygon", "coordinates": [[[120.52040218824868, 31.46954256], [120.52008630326004, 31.469452096], [120.52040218824868, 31.469452096], [120.52040218824868, 31.46954256]]]}}, {"type": "Feature", "properties": {"area_ha": 0.01, "mean": 0.0875}, "geometry": {"type": "Polygon", "coordinates": [[[120.52198161319181, 31.46954256], [120.52177102319939, 31.469452096], [120.52198161319181, 31.469452096], [120.52198161319181, 31.46954256]]]}}, {"type": "Feature", "properties": {"area_ha": 0.02, "mean": 0.1462}, "geometry": {"type": "Polygon", "coordinates": [[[120.52008630326004, 31.469452096], [120.51966512327522, 31.469361632000002], [120.52008630326004, 31.469361632000002], [120.52008630326004, 31.469452096]]]}}, {"type": "Feature", "properties": {"area_ha": 0.0, "mean": null}, "geometry": {"type": "Polygon", "coordinates": [[[120.52219220318423, 31.469452096], [120.52208690818803, 31.469361632000002], [120.52219220318423, 31.469361632000002], [120.52219220318423, 31.469452096]]]}}, {"type": "Feature", "properties": {"area_ha": 0.0, "mean": null}, "geometry": {"type": "Polygon", "coordinates": [[[120.51966512327522, 31.469361632000002], [120.519559828279, 31.469271168000002], [120.51966512327522, 31.469271168000002], [120.51966512327522, 31.469361632000002]]]}}, {"type": "Feature", "properties": {"area_ha": 0.0, "mean": null}, "geometry": {"type": "Polygon", "coordinates": [[[120.52229749818045, 31.469361632000002], [120.52219220318423, 31.469271168000002], [120.52229749818045, 31.469271168000002], [120.52229749818045, 31.469361632000002]]]}}, {"type": "Feature", "properties": {"area_ha": 0.0, "mean": null}, "geometry": {"type": "Polygon", "coordinates": [[[120.52240279317665, 31.469271168000002], [120.52229749818045, 31.469180704], [120.52240279317665, 31.469180704], [120.52240279317665, 31.469271168000002]]]}}, {"type": "Feature", "properties": {"area_ha": 0.0, "mean": null}, "geometry": {"type": "Polygon", "coordinates": [[[120.52250808817286, 31.46909024], [120.52240279317665, 31.468999776], [120.52250808817286, 31.468999776], [120.52250808817286, 31.46909024]]]}}, {"type": "Feature", "properties": {"area_ha": 0.0, "mean": null}, "geometry": {"type": "Polygon", "coordinates": [[[120.52261338316907, 31.468999776], [120.52250808817286, 31.468909312], [120.52261338316907, 31.468909312], [120.52261338316907, 31.468999776]]]}}, {"type": "Feature", "properties": {"area_ha": 0.01, "mean": 0.0791}, "geometry": {"type": "Polygon", "coordinates": [[[120.52450869310084, 31.467461888], [120.52440339810462, 31.46728096], [120.52450869310084, 31.46728096], [120.52450869310084, 31.467461888]]]}}, {"type": "Feature", "properties": {"area_ha": 0.01, "mean": 0.0696}, "geometry": {"type": "Polygon", "coordinates": [[[120.51345271849887, 31.467190496], [120.51313683351025, 31.467100032], [120.51345271849887, 31.467100032], [120.51345271849887, 31.467190496]]]}}, {"type": "Feature", "properties": {"area_ha": 0.0, "mean": null}, "geometry": {"type": "Polygon", "coordinates": [[[120.52482457808946, 31.466919104000002], [120.52471928309326, 31.46682864], [120.52482457808946, 31.46682864], [120.52482457808946, 31.466919104000002]]]}}, {"type": "Feature", "properties": {"area_ha": 0.0, "mean": null}, "geometry": {"type": "Polygon", "coordinates": [[[120.5241928081122, 31.46682864], [120.524087513116, 31.466738176], [120.5241928081122, 31.466738176], [120.5241928081122, 31.46682864]]]}}, {"type": "Feature", "properties": {"area_ha": 0.01, "mean": 0.0738}, "geometry": {"type": "Polygon", "coordinates": [[[120.52556164306293, 31.46682864], [120.52535105307051, 31.46682864], [120.52482457808946, 31.466738176], [120.52556164306293, 31.46682864]]]}}, {"type": "Feature", "properties": {"area_ha": 0.0, "mean": null}, "geometry": {"type": "Polygon", "coordinates": [[[120.52429810310842, 31.466738176], [120.5241928081122, 31.466647712], [120.52429810310842, 31.466647712], [120.52429810310842, 31.466738176]]]}}, {"type": "Feature", "properties": {"area_ha": 0.15, "mean": 0.1601}, "geometry": {"type": "Polygon", "coordinates": [[[120.51345271849887, 31.466647712], [120.51250506353298, 31.466738176], [120.51229447354056, 31.466466784], [120.51345271849887, 31.466647712]]]}}, {"type": "Feature", "properties": {"area_ha": 0.01, "mean": 0.1046}, "geometry": {"type": "Polygon", "coordinates": [[[120.5115574085671, 31.465924], [120.51134681857468, 31.465833536], [120.5115574085671, 31.465833536], [120.5115574085671, 31.465924]]]}}, {"type": "Feature", "properties": {"area_ha": 0.1, "mean": 0.0885}, "geometry": {"type": "Polygon", "coordinates": [[[120.52608811804397, 31.464657504], [120.52566693805915, 31.464928896], [120.52566693805915, 31.464476576], [120.52608811804397, 31.464657504]]]}}, {"type": "Feature", "properties": {"area_ha": 0.01, "mean": 0.0814}, "geometry": {"type": "Polygon", "coordinates": [[[120.52629870803639, 31.464567040000002], [120.52619341304019, 31.464386112], [120.52629870803639, 31.464386112], [120.52629870803639, 31.464567040000002]]]}}, {"type": "Feature", "properties": {"area_ha": 0.0, "mean": null}, "geometry": {"type": "Polygon", "coordinates": [[[120.52587752805155, 31.464476576], [120.52577223305535, 31.464386112], [120.52587752805155, 31.464386112], [120.52587752805155, 31.464476576]]]}}, {"type": "Feature", "properties": {"area_ha": 0.0, "mean": null}, "geometry": {"type": "Polygon", "coordinates": [[[120.52598282304777, 31.464386112], [120.52587752805155, 31.464295648], [120.52598282304777, 31.464295648], [120.52598282304777, 31.464386112]]]}}, {"type": "Feature", "properties": {"area_ha": 0.0, "mean": null}, "geometry": {"type": "Polygon", "coordinates": [[[120.52629870803639, 31.464295648], [120.52608811804397, 31.46411472], [120.52629870803639, 31.464205184], [120.52629870803639, 31.464295648]]]}}, {"type": "Feature", "properties": {"area_ha": 0.0, "mean": null}, "geometry": {"type": "Polygon", "coordinates": [[[120.51008327862017, 31.460677088], [120.50997798362397, 31.460586624], [120.51008327862017, 31.460586624], [120.51008327862017, 31.460677088]]]}}, {"type": "Feature", "properties": {"area_ha": 0.0, "mean": null}, "geometry": {"type": "Polygon", "coordinates": [[[120.50987268862775, 31.46049616], [120.50976739363155, 31.460405696000002], [120.50987268862775, 31.460405696000002], [120.50987268862775, 31.46049616]]]}}, {"type": "Feature", "properties": {"area_ha": 0.01, "mean": 0.1109}, "geometry": {"type": "Polygon", "coordinates": [[[120.5081879686884, 31.459681984], [120.50797737869598, 31.45959152], [120.5081879686884, 31.45959152], [120.5081879686884, 31.459681984]]]}}, {"type": "Feature", "properties": {"area_ha": 0.0, "mean": null}, "geometry": {"type": "Polygon", "coordinates": [[[120.49850082903716, 31.45959152], [120.49839553404094, 31.459501056], [120.49850082903716, 31.459501056], [120.49850082903716, 31.45959152]]]}}, {"type": "Feature", "properties": {"area_ha": 0.0, "mean": null}, "geometry": {"type": "Polygon", "coordinates": [[[120.50323910386658, 31.45959152], [120.50313380887036, 31.459501056], [120.50323910386658, 31.459501056], [120.50323910386658, 31.45959152]]]}}, {"type": "Feature", "properties": {"area_ha": 0.01, "mean": 0.1306}, "geometry": {"type": "Polygon", "coordinates": [[[120.5036602838514, 31.45959152], [120.50344969385898, 31.459501056], [120.5036602838514, 31.459501056], [120.5036602838514, 31.45959152]]]}}, {"type": "Feature", "properties": {"area_ha": 0.05, "mean": 0.0872}, "geometry": {"type": "Polygon", "coordinates": [[[120.50745090371494, 31.45959152], [120.50639795375285, 31.459501056], [120.50745090371494, 31.459501056], [120.50745090371494, 31.45959152]]]}}, {"type": "Feature", "properties": {"area_ha": 0.0, "mean": null}, "geometry": {"type": "Polygon", "coordinates": [[[120.50608206876421, 31.459501056], [120.50597677376801, 31.459410592], [120.50608206876421, 31.459410592], [120.50608206876421, 31.459501056]]]}}, {"type": "Feature", "properties": {"area_ha": 0.02, "mean": 0.1104}, "geometry": {"type": "Polygon", "coordinates": [[[120.50387087384382, 31.459501056], [120.5036602838514, 31.459410592], [120.50387087384382, 31.459320128], [120.50387087384382, 31.459501056]]]}}, {"type": "Feature", "properties": {"area_ha": 0.0, "mean": null}, "geometry": {"type": "Polygon", "coordinates": [[[120.49755317407127, 31.459229664000002], [120.49744787907507, 31.4591392], [120.49755317407127, 31.4591392], [120.49755317407127, 31.459229664000002]]]}}, {"type": "Feature", "properties": {"area_ha": 0.0, "mean": null}, "geometry": {"type": "Polygon", "coordinates": [[[120.50408146383624, 31.459048736], [120.50397616884004, 31.458958272], [120.50408146383624, 31.458958272], [120.50408146383624, 31.459048736]]]}}, {"type": "Feature", "properties": {"area_ha": 0.0, "mean": null}, "geometry": {"type": "Polygon", "coordinates": [[[120.49713199408643, 31.458958272], [120.49702669909023, 31.458867808], [120.49713199408643, 31.458867808], [120.49713199408643, 31.458958272]]]}}, {"type": "Feature", "properties": {"area_ha": 0.0, "mean": null}, "geometry": {"type": "Polygon", "coordinates": [[[120.49702669909023, 31.458867808], [120.49692140409401, 31.458777344], [120.49702669909023, 31.458777344], [120.49702669909023, 31.458867808]]]}}, {"type": "Feature", "properties": {"area_ha": 0.0, "mean": null}, "geometry": {"type": "Polygon", "coordinates": [[[120.50418675883246, 31.458867808], [120.50408146383624, 31.458777344], [120.50418675883246, 31.458777344], [120.50418675883246, 31.458867808]]]}}, {"type": "Feature", "properties": {"area_ha": 0.0, "mean": null}, "geometry": {"type": "Polygon", "coordinates": [[[120.49692140409401, 31.458777344], [120.49681610909781, 31.458686880000002], [120.49692140409401, 31.458686880000002], [120.49692140409401, 31.458777344]]]}}, {"type": "Feature", "properties": {"area_ha": 0.0, "mean": null}, "geometry": {"type": "Polygon", "coordinates": [[[120.50481852880971, 31.45823456], [120.5047132338135, 31.458144096], [120.50481852880971, 31.458144096], [120.50481852880971, 31.45823456]]]}}, {"type": "Feature", "properties": {"area_ha": 0.03, "mean": 0.1757}, "geometry": {"type": "Polygon", "coordinates": [[[120.5047132338135, 31.458144096], [120.50429205382866, 31.458053632000002], [120.50460793881729, 31.457963168], [120.5047132338135, 31.458144096]]]}}, {"type": "Feature", "properties": {"area_ha": 0.14, "mean": 0.0909}, "geometry": {"type": "Polygon", "coordinates": [[[120.50997798362397, 31.45823456], [120.50997798362397, 31.457963168], [120.51071504859743, 31.458144096], [120.51071504859743, 31.45823456], [120.50997798362397, 31.45823456]], [[120.51008327862017, 31.458053632000002], [120.51018857361638, 31.458144096], [120.51018857361638, 31.458053632000002], [120.51008327862017, 31.458053632000002]]]}}, {"type": "Feature", "properties": {"area_ha": 0.01, "mean": 0.0932}, "geometry": {"type": "Polygon", "coordinates": [[[120.53524878271418, 31.457691776], [120.53514348771797, 31.457510848000002], [120.53524878271418, 31.457510848000002], [120.53524878271418, 31.457691776]]]}}, {"type": "Feature", "properties": {"area_ha": 0.0, "mean": null}, "geometry": {"type": "Polygon", "coordinates": [[[120.5353540777104, 31.457058528], [120.53524878271418, 31.456968064], [120.5353540777104, 31.456968064], [120.5353540777104, 31.457058528]]]}}, {"type": "Feature", "properties": {"area_ha": 0.0, "mean": null}, "geometry": {"type": "Polygon", "coordinates": [[[120.5353540777104, 31.456877600000002], [120.53524878271418, 31.456787136], [120.5353540777104, 31.456787136], [120.5353540777104, 31.456877600000002]]]}}, {"type": "Feature", "properties": {"area_ha": 0.0, "mean": null}, "geometry": {"type": "Polygon", "coordinates": [[[120.5354593727066, 31.456515744], [120.5353540777104, 31.45642528], [120.5354593727066, 31.45642528], [120.5354593727066, 31.456515744]]]}}, {"type": "Feature", "properties": {"area_ha": 0.01, "mean": 0.139}, "geometry": {"type": "Polygon", "coordinates": [[[120.5354593727066, 31.456334816000002], [120.5353540777104, 31.456153888], [120.5354593727066, 31.456153888], [120.5354593727066, 31.456334816000002]]]}}, {"type": "Feature", "properties": {"area_ha": 0.0, "mean": null}, "geometry": {"type": "Polygon", "coordinates": [[[120.53556466770281, 31.456153888], [120.5354593727066, 31.456063424], [120.53556466770281, 31.456063424], [120.53556466770281, 31.456153888]]]}}, {"type": "Feature", "properties": {"area_ha": 0.0, "mean": null}, "geometry": {"type": "Polygon", "coordinates": [[[120.53630173267628, 31.453439968], [120.53619643768006, 31.453349504000002], [120.53630173267628, 31.453349504000002], [120.53630173267628, 31.453439968]]]}}, {"type": "Feature", "properties": {"area_ha": 0.01, "mean": 0.1062}, "geometry": {"type": "Polygon", "coordinates": [[[120.53609114268386, 31.45325904], [120.53598584768764, 31.453078112], [120.53609114268386, 31.453078112], [120.53609114268386, 31.45325904]]]}}, {"type": "Feature", "properties": {"area_ha": 0.0, "mean": null}, "geometry": {"type": "Polygon", "coordinates": [[[120.53619643768006, 31.452535328], [120.53609114268386, 31.452444864], [120.53619643768006, 31.452444864], [120.53619643768006, 31.452535328]]]}}, {"type": "Feature", "properties": {"area_ha": 0.01, "mean": 0.1358}, "geometry": {"type": "Polygon", "coordinates": [[[120.53630173267628, 31.452263936], [120.53619643768006, 31.451992544], [120.53630173267628, 31.451992544], [120.53630173267628, 31.452263936]]]}}, {"type": "Feature", "properties": {"area_ha": 0.01, "mean": 0.0937}, "geometry": {"type": "Polygon", "coordinates": [[[120.53640702767248, 31.451630688], [120.53630173267628, 31.45144976], [120.53640702767248, 31.45144976], [120.53640702767248, 31.451630688]]]}}, {"type": "Feature", "properties": {"area_ha": 0.0, "mean": null}, "geometry": {"type": "Polygon", "coordinates": [[[120.5366176176649, 31.450454656], [120.5365123226687, 31.450364192000002], [120.5366176176649, 31.450364192000002], [120.5366176176649, 31.450454656]]]}}, {"type": "Feature", "properties": {"area_ha": 0.0, "mean": null}, "geometry": {"type": "Polygon", "coordinates": [[[120.5367229126611, 31.450364192000002], [120.5366176176649, 31.450273728], [120.5367229126611, 31.450273728], [120.5367229126611, 31.450364192000002]]]}}, {"type": "Feature", "properties": {"area_ha": 0.0, "mean": null}, "geometry": {"type": "Polygon", "coordinates": [[[120.53946058256255, 31.446836096000002], [120.53935528756634, 31.446745632], [120.53946058256255, 31.446745632], [120.53946058256255, 31.446836096000002]]]}}, {"type": "Feature", "properties": {"area_ha": 0.0, "mean": null}, "geometry": {"type": "Polygon", "coordinates": [[[120.53967117255497, 31.446655168], [120.53956587755876, 31.446564704], [120.53967117255497, 31.446564704], [120.53967117255497, 31.446655168]]]}}, {"type": "Feature", "properties": {"area_ha": 0.0, "mean": null}, "geometry": {"type": "Polygon", "coordinates": [[[120.56431020166794, 31.440955936], [120.56420490667172, 31.440865472], [120.56431020166794, 31.440865472], [120.56431020166794, 31.440955936]]]}}, {"type": "Feature", "properties": {"area_ha": 0.0, "mean": null}, "geometry": {"type": "Polygon", "coordinates": [[[120.51903335329796, 31.432271392], [120.51892805830175, 31.432180928], [120.51903335329796, 31.432180928], [120.51903335329796, 31.432271392]]]}}, {"type": "Feature", "properties": {"area_ha": 0.0, "mean": null}, "geometry": {"type": "Polygon", "coordinates": [[[120.51934923828658, 31.432090464], [120.51924394329038, 31.432000000000002], [120.51934923828658, 31.432000000000002], [120.51934923828658, 31.432090464]]]}}, {"type": "Feature", "properties": {"area_ha": 0.0, "mean": null}, "geometry": {"type": "Polygon", "coordinates": [[[120.51787510833965, 31.43154768], [120.51776981334345, 31.431457216000002], [120.51787510833965, 31.431457216000002], [120.51787510833965, 31.43154768]]]}}, {"type": "Feature", "properties": {"area_ha": 0.0, "mean": null}, "geometry": {"type": "Polygon", "coordinates": [[[120.59895225542078, 31.43154768], [120.59884696042457, 31.431457216000002], [120.59895225542078, 31.431457216000002], [120.59895225542078, 31.43154768]]]}}, {"type": "Feature", "properties": {"area_ha": 0.0, "mean": null}, "geometry": {"type": "Polygon", "coordinates": [[[120.51776981334345, 31.431457216000002], [120.51766451834723, 31.431366752], [120.51776981334345, 31.431366752], [120.51776981334345, 31.431457216000002]]]}}, {"type": "Feature", "properties": {"area_ha": 0.0, "mean": null}, "geometry": {"type": "Polygon", "coordinates": [[[120.51776981334345, 31.431276288], [120.51766451834723, 31.431185824], [120.51776981334345, 31.431185824], [120.51776981334345, 31.431276288]]]}}, {"type": "Feature", "properties": {"area_ha": 0.01, "mean": 0.138}, "geometry": {"type": "Polygon", "coordinates": [[[120.51787510833965, 31.431185824], [120.51776981334345, 31.431004896], [120.51787510833965, 31.431004896], [120.51787510833965, 31.431185824]]]}}, {"type": "Feature", "properties": {"area_ha": 0.01, "mean": 0.141}, "geometry": {"type": "Polygon", "coordinates": [[[120.59926814040941, 31.431185824], [120.59916284541319, 31.431004896], [120.59926814040941, 31.431004896], [120.59926814040941, 31.431185824]]]}}, {"type": "Feature", "properties": {"area_ha": 0.12, "mean": 0.1074}, "geometry": {"type": "Polygon", "coordinates": [[[120.59874166542836, 31.431366752], [120.59832048544352, 31.431004896], [120.59884696042457, 31.430823968000002], [120.59874166542836, 31.431366752]]]}}, {"type": "Feature", "properties": {"area_ha": 0.01, "mean": 0.1738}, "geometry": {"type": "Polygon", "coordinates": [[[120.51798040333587, 31.431004896], [120.51787510833965, 31.430733504], [120.51798040333587, 31.430733504], [120.51798040333587, 31.431004896]]]}}, {"type": "Feature", "properties": {"area_ha": 0.01, "mean": 0.0871}, "geometry": {"type": "Polygon", "coordinates": [[[120.52019159825626, 31.43064304], [120.52008630326004, 31.430462112], [120.52019159825626, 31.430462112], [120.52019159825626, 31.43064304]]]}}, {"type": "Feature", "properties": {"area_ha": 0.0, "mean": null}, "geometry": {"type": "Polygon", "coordinates": [[[120.51808569833207, 31.430552576], [120.51798040333587, 31.430462112], [120.51808569833207, 31.430462112], [120.51808569833207, 31.430552576]]]}}, {"type": "Feature", "properties": {"area_ha": 0.01, "mean": 0.2208}, "geometry": {"type": "Polygon", "coordinates": [[[120.51819099332829, 31.430462112], [120.51808569833207, 31.43019072], [120.51819099332829, 31.43019072], [120.51819099332829, 31.430462112]]]}}, {"type": "Feature", "properties": {"area_ha": 0.02, "mean": 0.1383}, "geometry": {"type": "Polygon", "coordinates": [[[120.5184015833207, 31.430100256], [120.51819099332829, 31.429919328], [120.5184015833207, 31.4297384], [120.5184015833207, 31.430100256]]]}}, {"type": "Feature", "properties": {"area_ha": 0.0, "mean": null}, "geometry": {"type": "Polygon", "coordinates": [[[120.51850687831691, 31.429647936000002], [120.5184015833207, 31.429557472], [120.51850687831691, 31.429557472], [120.51850687831691, 31.429647936000002]]]}}, {"type": "Feature", "properties": {"area_ha": 0.03, "mean": 0.0839}, "geometry": {"type": "Polygon", "coordinates": [[[120.52019159825626, 31.430009792], [120.52008630326004, 31.429467008], [120.52019159825626, 31.429467008], [120.52019159825626, 31.430009792]]]}}, {"type": "Feature", "properties": {"area_ha": 0.01, "mean": 0.1429}, "geometry": {"type": "Polygon", "coordinates": [[[120.51861217331312, 31.429557472], [120.51850687831691, 31.429376544], [120.51861217331312, 31.429376544], [120.51861217331312, 31.429557472]]]}}, {"type": "Feature", "properties": {"area_ha": 0.0, "mean": null}, "geometry": {"type": "Polygon", "coordinates": [[[120.51871746830933, 31.429376544], [120.51861217331312, 31.42928608], [120.51871746830933, 31.42928608], [120.51871746830933, 31.429376544]]]}}, {"type": "Feature", "properties": {"area_ha": 0.0, "mean": null}, "geometry": {"type": "Polygon", "coordinates": [[[120.52029689325246, 31.429376544], [120.52019159825626, 31.42928608], [120.52029689325246, 31.42928608], [120.52029689325246, 31.429376544]]]}}, {"type": "Feature", "properties": {"area_ha": 0.0, "mean": null}, "geometry": {"type": "Polygon", "coordinates": [[[120.51882276330554, 31.42928608], [120.51871746830933, 31.429195616], [120.51882276330554, 31.429195616], [120.51882276330554, 31.42928608]]]}}, {"type": "Feature", "properties": {"area_ha": 0.0, "mean": null}, "geometry": {"type": "Polygon", "coordinates": [[[120.52040218824868, 31.42928608], [120.52029689325246, 31.429195616], [120.52040218824868, 31.429195616], [120.52040218824868, 31.42928608]]]}}, {"type": "Feature", "properties": {"area_ha": 0.02, "mean": 0.1106}, "geometry": {"type": "Polygon", "coordinates": [[[120.57052260644429, 31.42928608], [120.57031201645187, 31.429105152], [120.57062790144049, 31.429105152], [120.57052260644429, 31.42928608]]]}}, {"type": "Feature", "properties": {"area_ha": 0.02, "mean": 0.1681}, "geometry": {"type": "Polygon", "coordinates": [[[120.51892805830175, 31.429195616], [120.51882276330554, 31.429014688], [120.51903335329796, 31.429014688], [120.51892805830175, 31.429195616]]]}}, {"type": "Feature", "properties": {"area_ha": 0.0, "mean": null}, "geometry": {"type": "Polygon", "coordinates": [[[120.52050748324488, 31.429105152], [120.52040218824868, 31.429014688], [120.52050748324488, 31.429014688], [120.52050748324488, 31.429105152]]]}}, {"type": "Feature", "properties": {"area_ha": 0.01, "mean": 0.0712}, "geometry": {"type": "Polygon", "coordinates": [[[120.57083849143291, 31.429105152], [120.57062790144049, 31.428924224], [120.57083849143291, 31.428924224], [120.57083849143291, 31.429105152]]]}}, {"type": "Feature", "properties": {"area_ha": 0.01, "mean": 0.0893}, "geometry": {"type": "Polygon", "coordinates": [[[120.5207180732373, 31.428924224], [120.5206127782411, 31.428743296], [120.5207180732373, 31.428743296], [120.5207180732373, 31.428924224]]]}}, {"type": "Feature", "properties": {"area_ha": 0.0, "mean": null}, "geometry": {"type": "Polygon", "coordinates": [[[120.57104908142533, 31.42883376], [120.57094378642911, 31.428743296], [120.57104908142533, 31.428743296], [120.57104908142533, 31.42883376]]]}}, {"type": "Feature", "properties": {"area_ha": 0.01, "mean": 0.1847}, "geometry": {"type": "Polygon", "coordinates": [[[120.51892805830175, 31.428924224], [120.51882276330554, 31.428652832], [120.51892805830175, 31.428652832], [120.51892805830175, 31.428924224]]]}}, {"type": "Feature", "properties": {"area_ha": 0.02, "mean": 0.0837}, "geometry": {"type": "Polygon", "coordinates": [[[120.57073319643669, 31.42883376], [120.57041731144807, 31.428743296], [120.57073319643669, 31.428652832], [120.57073319643669, 31.42883376]]]}}, {"type": "Feature", "properties": {"area_ha": 0.0, "mean": null}, "geometry": {"type": "Polygon", "coordinates": [[[120.57136496641395, 31.428743296], [120.57125967141775, 31.428652832], [120.57136496641395, 31.428652832], [120.57136496641395, 31.428743296]]]}}, {"type": "Feature", "properties": {"area_ha": 0.01, "mean": 0.132}, "geometry": {"type": "Polygon", "coordinates": [[[120.51903335329796, 31.428652832], [120.51892805830175, 31.428471904000002], [120.51903335329796, 31.428471904000002], [120.51903335329796, 31.428652832]]]}}, {"type": "Feature", "properties": {"area_ha": 0.02, "mean": 0.1344}, "geometry": {"type": "Polygon", "coordinates": [[[120.57094378642911, 31.428652832], [120.57083849143291, 31.428471904000002], [120.57104908142533, 31.428471904000002], [120.57094378642911, 31.428652832]]]}}, {"type": "Feature", "properties": {"area_ha": 0.01, "mean": 0.0776}, "geometry": {"type": "Polygon", "coordinates": [[[120.57157555640637, 31.428652832], [120.57147026141017, 31.428471904000002], [120.57157555640637, 31.428471904000002], [120.57157555640637, 31.428652832]]]}}, {"type": "Feature", "properties": {"area_ha": 0.0, "mean": null}, "geometry": {"type": "Polygon", "coordinates": [[[120.57125967141775, 31.428471904000002], [120.57115437642153, 31.42838144], [120.57125967141775, 31.42838144], [120.57125967141775, 31.428471904000002]]]}}, {"type": "Feature", "properties": {"area_ha": 0.26, "mean": 0.074}, "geometry": {"type": "Polygon", "coordinates": [[[120.57220732638363, 31.428562368], [120.57104908142533, 31.428924224], [120.57199673639121, 31.428200512], [120.57220732638363, 31.428562368]]]}}, {"type": "Feature", "properties": {"area_ha": 0.01, "mean": 0.1436}, "geometry": {"type": "Polygon", "coordinates": [[[120.51913864829417, 31.42838144], [120.51903335329796, 31.428200512], [120.51913864829417, 31.428200512], [120.51913864829417, 31.42838144]]]}}, {"type": "Feature", "properties": {"area_ha": 0.01, "mean": 0.0856}, "geometry": {"type": "Polygon", "coordinates": [[[120.51776981334345, 31.428290976], [120.51766451834723, 31.428110048], [120.51776981334345, 31.428110048], [120.51776981334345, 31.428290976]]]}}, {"type": "Feature", "properties": {"area_ha": 0.0, "mean": null}, "geometry": {"type": "Polygon", "coordinates": [[[120.57168085140258, 31.428200512], [120.57157555640637, 31.428110048], [120.57168085140258, 31.428110048], [120.57168085140258, 31.428200512]]]}}, {"type": "Feature", "properties": {"area_ha": 0.0, "mean": null}, "geometry": {"type": "Polygon", "coordinates": [[[120.57789325617892, 31.428200512], [120.57778796118272, 31.428110048], [120.57789325617892, 31.428110048], [120.57789325617892, 31.428200512]]]}}, {"type": "Feature", "properties": {"area_ha": 0.0, "mean": null}, "geometry": {"type": "Polygon", "coordinates": [[[120.571891441395, 31.428110048], [120.5717861463988, 31.428019584], [120.571891441395, 31.428019584], [120.571891441395, 31.428110048]]]}}, {"type": "Feature", "properties": {"area_ha": 0.0, "mean": null}, "geometry": {"type": "Polygon", "coordinates": [[[120.57778796118272, 31.428110048], [120.5776826661865, 31.428019584], [120.57778796118272, 31.428019584], [120.57778796118272, 31.428110048]]]}}, {"type": "Feature", "properties": {"area_ha": 0.01, "mean": 0.0756}, "geometry": {"type": "Polygon", "coordinates": [[[120.5206127782411, 31.428200512], [120.52050748324488, 31.42792912], [120.5206127782411, 31.42792912], [120.5206127782411, 31.428200512]]]}}, {"type": "Feature", "properties": {"area_ha": 0.01, "mean": 0.0751}, "geometry": {"type": "Polygon", "coordinates": [[[120.51934923828658, 31.428019584], [120.51913864829417, 31.42792912], [120.51934923828658, 31.42792912], [120.51934923828658, 31.428019584]]]}}, {"type": "Feature", "properties": {"area_ha": 0.0, "mean": null}, "geometry": {"type": "Polygon", "coordinates": [[[120.51808569833207, 31.428019584], [120.51798040333587, 31.42792912], [120.51808569833207, 31.42792912], [120.51808569833207, 31.428019584]]]}}, {"type": "Feature", "properties": {"area_ha": 0.0, "mean": null}, "geometry": {"type": "Polygon", "coordinates": [[[120.57199673639121, 31.428019584], [120.571891441395, 31.42792912], [120.57199673639121, 31.42792912], [120.57199673639121, 31.428019584]]]}}, {"type": "Feature", "properties": {"area_ha": 0.0, "mean": null}, "geometry": {"type": "Polygon", "coordinates": [[[120.57210203138742, 31.42792912], [120.57199673639121, 31.427838656], [120.57210203138742, 31.427838656], [120.57210203138742, 31.42792912]]]}}, {"type": "Feature", "properties": {"area_ha": 0.0, "mean": null}, "geometry": {"type": "Polygon", "coordinates": [[[120.51934923828658, 31.427838656], [120.51924394329038, 31.427748192], [120.51934923828658, 31.427748192], [120.51934923828658, 31.427838656]]]}}, {"type": "Feature", "properties": {"area_ha": 0.01, "mean": 0.1439}, "geometry": {"type": "Polygon", "coordinates": [[[120.52103395822593, 31.427748192], [120.5207180732373, 31.427657728], [120.52103395822593, 31.427657728], [120.52103395822593, 31.427748192]]]}}, {"type": "Feature", "properties": {"area_ha": 0.04, "mean": 0.1139}, "geometry": {"type": "Polygon", "coordinates": [[[120.57252321137226, 31.427838656], [120.57210203138742, 31.427748192], [120.57252321137226, 31.427657728], [120.57252321137226, 31.427838656]]]}}, {"type": "Feature", "properties": {"area_ha": 0.0, "mean": null}, "geometry": {"type": "Polygon", "coordinates": [[[120.5194545332828, 31.427657728], [120.51934923828658, 31.427567264], [120.5194545332828, 31.427567264], [120.5194545332828, 31.427657728]]]}}, {"type": "Feature", "properties": {"area_ha": 0.01, "mean": 0.1742}, "geometry": {"type": "Polygon", "coordinates": [[[120.57273380136468, 31.427657728], [120.57262850636846, 31.4274768], [120.57273380136468, 31.4274768], [120.57273380136468, 31.427657728]]]}}, {"type": "Feature", "properties": {"area_ha": 0.01, "mean": 0.0769}, "geometry": {"type": "Polygon", "coordinates": [[[120.51819099332829, 31.427567264], [120.51808569833207, 31.427386336], [120.51819099332829, 31.427386336], [120.51819099332829, 31.427567264]]]}}, {"type": "Feature", "properties": {"area_ha": 0.01, "mean": 0.1067}, "geometry": {"type": "Polygon", "coordinates": [[[120.519559828279, 31.427567264], [120.5194545332828, 31.427386336], [120.519559828279, 31.427386336], [120.519559828279, 31.427567264]]]}}, {"type": "Feature", "properties": {"area_ha": 0.22, "mean": 0.0867}, "geometry": {"type": "Polygon", "coordinates": [[[120.57262850636846, 31.42792912], [120.57273380136468, 31.427386336], [120.57347086633814, 31.427567264], [120.57262850636846, 31.42792912]]]}}, {"type": "Feature", "properties": {"area_ha": 0.0, "mean": null}, "geometry": {"type": "Polygon", "coordinates": [[[120.57315498134952, 31.427386336], [120.5730496863533, 31.427295872000002], [120.57315498134952, 31.427295872000002], [120.57315498134952, 31.427386336]]]}}, {"type": "Feature", "properties": {"area_ha": 0.0, "mean": null}, "geometry": {"type": "Polygon", "coordinates": [[[120.57715619120546, 31.427386336], [120.57705089620926, 31.427295872000002], [120.57715619120546, 31.427295872000002], [120.57715619120546, 31.427386336]]]}}, {"type": "Feature", "properties": {"area_ha": 0.02, "mean": 0.1129}, "geometry": {"type": "Polygon", "coordinates": [[[120.51977041827142, 31.427386336], [120.51966512327522, 31.427205408], [120.51987571326764, 31.427205408], [120.51977041827142, 31.427386336]]]}}, {"type": "Feature", "properties": {"area_ha": 0.0, "mean": null}, "geometry": {"type": "Polygon", "coordinates": [[[120.57694560121304, 31.427295872000002], [120.57684030621684, 31.427205408], [120.57694560121304, 31.427205408], [120.57694560121304, 31.427295872000002]]]}}, {"type": "Feature", "properties": {"area_ha": 0.01, "mean": 0.1161}, "geometry": {"type": "Polygon", "coordinates": [[[120.51766451834723, 31.427295872000002], [120.51755922335103, 31.427114944], [120.51766451834723, 31.427114944], [120.51766451834723, 31.427295872000002]]]}}, {"type": "Feature", "properties": {"area_ha": 0.02, "mean": 0.0924}, "geometry": {"type": "Polygon", "coordinates": [[[120.57336557134192, 31.427295872000002], [120.57315498134952, 31.427205408], [120.57336557134192, 31.427114944], [120.57336557134192, 31.427295872000002]]]}}, {"type": "Feature", "properties": {"area_ha": 0.01, "mean": 0.0873}, "geometry": {"type": "Polygon", "coordinates": [[[120.52008630326004, 31.427205408], [120.51987571326764, 31.427114944], [120.52008630326004, 31.427114944], [120.52008630326004, 31.427205408]]]}}, {"type": "Feature", "properties": {"area_ha": 0.0, "mean": null}, "geometry": {"type": "Polygon", "coordinates": [[[120.57673501122062, 31.427205408], [120.57662971622442, 31.427114944], [120.57673501122062, 31.427114944], [120.57673501122062, 31.427205408]]]}}, {"type": "Feature", "properties": {"area_ha": 0.0, "mean": null}, "geometry": {"type": "Polygon", "coordinates": [[[120.5775773711903, 31.427205408], [120.57747207619408, 31.427114944], [120.5775773711903, 31.427114944], [120.5775773711903, 31.427205408]]]}}, {"type": "Feature", "properties": {"area_ha": 0.01, "mean": 0.0814}, "geometry": {"type": "Polygon", "coordinates": [[[120.52040218824868, 31.427114944], [120.52008630326004, 31.42702448], [120.52040218824868, 31.42702448], [120.52040218824868, 31.427114944]]]}}, {"type": "Feature", "properties": {"area_ha": 0.11, "mean": 0.0852}, "geometry": {"type": "Polygon", "coordinates": [[[120.52156043320699, 31.427386336], [120.52124454821835, 31.4274768], [120.5206127782411, 31.42702448], [120.52156043320699, 31.427386336]]]}}, {"type": "Feature", "properties": {"area_ha": 0.0, "mean": null}, "geometry": {"type": "Polygon", "coordinates": [[[120.57347086633814, 31.427114944], [120.57336557134192, 31.42702448], [120.57347086633814, 31.42702448], [120.57347086633814, 31.427114944]]]}}, {"type": "Feature", "properties": {"area_ha": 0.02, "mean": 0.0712}, "geometry": {"type": "Polygon", "coordinates": [[[120.51787510833965, 31.427114944], [120.51766451834723, 31.42702448], [120.51787510833965, 31.426934016], [120.51787510833965, 31.427114944]]]}}, {"type": "Feature", "properties": {"area_ha": 0.02, "mean": 0.0854}, "geometry": {"type": "Polygon", "coordinates": [[[120.51819099332829, 31.427205408], [120.51808569833207, 31.426843552], [120.51819099332829, 31.426843552], [120.51819099332829, 31.427205408]]]}}, {"type": "Feature", "properties": {"area_ha": 0.0, "mean": null}, "geometry": {"type": "Polygon", "coordinates": [[[120.51829628832449, 31.426843552], [120.51819099332829, 31.426753088], [120.51829628832449, 31.426753088], [120.51829628832449, 31.426843552]]]}}, {"type": "Feature", "properties": {"area_ha": 0.0, "mean": null}, "geometry": {"type": "Polygon", "coordinates": [[[120.5775773711903, 31.426843552], [120.57747207619408, 31.426753088], [120.5775773711903, 31.426753088], [120.5775773711903, 31.426843552]]]}}, {"type": "Feature", "properties": {"area_ha": 0.25, "mean": 0.1123}, "geometry": {"type": "Polygon", "coordinates": [[[120.57441852130403, 31.426934016], [120.57441852130403, 31.426662624], [120.57620853623958, 31.42702448], [120.57441852130403, 31.426934016]]]}}, {"type": "Feature", "properties": {"area_ha": 0.0, "mean": null}, "geometry": {"type": "Polygon", "coordinates": [[[120.51819099332829, 31.426753088], [120.51808569833207, 31.426662624], [120.51819099332829, 31.426662624], [120.51819099332829, 31.426753088]]]}}, {"type": "Feature", "properties": {"area_ha": 0.0, "mean": null}, "geometry": {"type": "Polygon", "coordinates": [[[120.5184015833207, 31.426753088], [120.51829628832449, 31.426662624], [120.5184015833207, 31.426662624], [120.5184015833207, 31.426753088]]]}}, {"type": "Feature", "properties": {"area_ha": 0.0, "mean": null}, "geometry": {"type": "Polygon", "coordinates": [[[120.57431322630781, 31.426753088], [120.5742079313116, 31.426662624], [120.57431322630781, 31.426662624], [120.57431322630781, 31.426753088]]]}}, {"type": "Feature", "properties": {"area_ha": 0.0, "mean": null}, "geometry": {"type": "Polygon", "coordinates": [[[120.58136799105384, 31.424220096], [120.58126269605762, 31.424129632], [120.58136799105384, 31.424129632], [120.58136799105384, 31.424220096]]]}}, {"type": "Feature", "properties": {"area_ha": 0.0, "mean": null}, "geometry": {"type": "Polygon", "coordinates": [[[120.58168387604246, 31.423948704], [120.58157858104624, 31.42385824], [120.58168387604246, 31.42385824], [120.58168387604246, 31.423948704]]]}}, {"type": "Feature", "properties": {"area_ha": 0.02, "mean": 0.095}, "geometry": {"type": "Polygon", "coordinates": [[[120.58189446603488, 31.42385824], [120.58168387604246, 31.423677312], [120.58199976103108, 31.423677312], [120.58189446603488, 31.42385824]]]}}, {"type": "Feature", "properties": {"area_ha": 0.0, "mean": null}, "geometry": {"type": "Polygon", "coordinates": [[[120.5821050560273, 31.423677312], [120.58199976103108, 31.423586848], [120.5821050560273, 31.423586848], [120.5821050560273, 31.423677312]]]}}, {"type": "Feature", "properties": {"area_ha": 0.0, "mean": null}, "geometry": {"type": "Polygon", "coordinates": [[[120.5822103510235, 31.423586848], [120.5821050560273, 31.423496384], [120.5822103510235, 31.423496384], [120.5822103510235, 31.423586848]]]}}, {"type": "Feature", "properties": {"area_ha": 0.04, "mean": 0.1034}, "geometry": {"type": "Polygon", "coordinates": [[[120.58242094101593, 31.42340592], [120.5821050560273, 31.423224992], [120.58242094101593, 31.423134528000002], [120.58242094101593, 31.42340592]]]}}, {"type": "Feature", "properties": {"area_ha": 0.0, "mean": null}, "geometry": {"type": "Polygon", "coordinates": [[[120.58273682600455, 31.4229536], [120.58263153100835, 31.422863136], [120.58273682600455, 31.422863136], [120.58273682600455, 31.4229536]]]}}, {"type": "Feature", "properties": {"area_ha": 0.01, "mean": 0.0796}, "geometry": {"type": "Polygon", "coordinates": [[[120.58326330098559, 31.422772672], [120.58305271099319, 31.422591744], [120.58326330098559, 31.422591744], [120.58326330098559, 31.422772672]]]}}, {"type": "Feature", "properties": {"area_ha": 0.01, "mean": 0.1166}, "geometry": {"type": "Polygon", "coordinates": [[[120.58336859598181, 31.422591744], [120.58326330098559, 31.422410816], [120.58336859598181, 31.422410816], [120.58336859598181, 31.422591744]]]}}, {"type": "Feature", "properties": {"area_ha": 0.0, "mean": null}, "geometry": {"type": "Polygon", "coordinates": [[[120.58315800598939, 31.42250128], [120.58305271099319, 31.422410816], [120.58315800598939, 31.422410816], [120.58315800598939, 31.42250128]]]}}, {"type": "Feature", "properties": {"area_ha": 0.0, "mean": null}, "geometry": {"type": "Polygon", "coordinates": [[[120.58231564601972, 31.422410816], [120.5822103510235, 31.422320352], [120.58231564601972, 31.422320352], [120.58231564601972, 31.422410816]]]}}, {"type": "Feature", "properties": {"area_ha": 0.02, "mean": 0.2411}, "geometry": {"type": "Polygon", "coordinates": [[[120.5934769156179, 31.422410816], [120.59316103062928, 31.422320352], [120.59337162062168, 31.422229888], [120.5934769156179, 31.422410816]]]}}, {"type": "Feature", "properties": {"area_ha": 0.04, "mean": 0.1189}, "geometry": {"type": "Polygon", "coordinates": [[[120.58378977596665, 31.422139424], [120.58336859598181, 31.422229888], [120.58378977596665, 31.421958496000002], [120.58378977596665, 31.422139424]]]}}, {"type": "Feature", "properties": {"area_ha": 0.01, "mean": 0.1036}, "geometry": {"type": "Polygon", "coordinates": [[[120.58400036595907, 31.421868032], [120.58378977596665, 31.421777568], [120.58400036595907, 31.421777568], [120.58400036595907, 31.421868032]]]}}, {"type": "Feature", "properties": {"area_ha": 1.08, "mean": 0.1047}, "geometry": {"type": "Polygon", "coordinates": [[[120.54419885739196, 31.422682208], [120.54314590742987, 31.42204896], [120.54514651235785, 31.421325248], [120.54419885739196, 31.422682208]]]}}, {"type": "Feature", "properties": {"area_ha": 0.0, "mean": null}, "geometry": {"type": "Polygon", "coordinates": [[[120.58421095595148, 31.421325248], [120.58410566095527, 31.421234784], [120.58421095595148, 31.421234784], [120.58421095595148, 31.421325248]]]}}, {"type": "Feature", "properties": {"area_ha": 0.03, "mean": 0.1075}, "geometry": {"type": "Polygon", "coordinates": [[[120.54546239734648, 31.421325248], [120.54514651235785, 31.421234784], [120.54556769234269, 31.42114432], [120.54546239734648, 31.421325248]]]}}, {"type": "Feature", "properties": {"area_ha": 0.78, "mean": 0.0907}, "geometry": {"type": "Polygon", "coordinates": [[[120.58400036595907, 31.421777568], [120.58452684094011, 31.420963392], [120.5855797909022, 31.420511072], [120.58505331592116, 31.421506176], [120.58400036595907, 31.421777568]], [[120.58473743093253, 31.421325248], [120.58494802092494, 31.421415712], [120.58494802092494, 31.421234784], [120.58473743093253, 31.421325248]], [[120.58473743093253, 31.421053856], [120.58484272592874, 31.42114432], [120.58484272592874, 31.421053856], [120.58473743093253, 31.421053856]]]}}, {"type": "Feature", "properties": {"area_ha": 0.0, "mean": null}, "geometry": {"type": "Polygon", "coordinates": [[[120.58494802092494, 31.420601536], [120.58484272592874, 31.420511072], [120.58494802092494, 31.420511072], [120.58494802092494, 31.420601536]]]}}, {"type": "Feature", "properties": {"area_ha": 0.0, "mean": null}, "geometry": {"type": "Polygon", "coordinates": [[[120.58568508589842, 31.420330144], [120.5855797909022, 31.42023968], [120.58568508589842, 31.42023968], [120.58568508589842, 31.420330144]]]}}, {"type": "Feature", "properties": {"area_ha": 0.48, "mean": 0.1078}, "geometry": {"type": "Polygon", "coordinates": [[[120.58589567589082, 31.420692], [120.58568508589842, 31.419968288], [120.58642215087188, 31.419968288], [120.58652744586809, 31.420511072], [120.58589567589082, 31.420692]], [[120.58600097088704, 31.420330144], [120.58610626588325, 31.420420608], [120.58610626588325, 31.420330144], [120.58600097088704, 31.420330144]]]}}, {"type": "Feature", "properties": {"area_ha": 0.0, "mean": null}, "geometry": {"type": "Polygon", "coordinates": [[[120.5411453025019, 31.417887616], [120.54104000750569, 31.417797152], [120.5411453025019, 31.417797152], [120.5411453025019, 31.417887616]]]}}, {"type": "Feature", "properties": {"area_ha": 0.0, "mean": null}, "geometry": {"type": "Polygon", "coordinates": [[[120.54104000750569, 31.417706688], [120.54082941751327, 31.41752576], [120.54104000750569, 31.417616224], [120.54104000750569, 31.417706688]]]}}, {"type": "Feature", "properties": {"area_ha": 0.01, "mean": 0.0889}, "geometry": {"type": "Polygon", "coordinates": [[[120.54082941751327, 31.417344832], [120.54072412251706, 31.417435296], [120.54061882752086, 31.417344832], [120.54082941751327, 31.417344832]]]}}, {"type": "Feature", "properties": {"area_ha": 0.0, "mean": null}, "geometry": {"type": "Polygon", "coordinates": [[[120.54061882752086, 31.417344832], [120.54051353252464, 31.417254368000002], [120.54061882752086, 31.417254368000002], [120.54061882752086, 31.417344832]]]}}, {"type": "Feature", "properties": {"area_ha": 0.0, "mean": null}, "geometry": {"type": "Polygon", "coordinates": [[[120.54051353252464, 31.417254368000002], [120.54040823752844, 31.417163904], [120.54051353252464, 31.417163904], [120.54051353252464, 31.417254368000002]]]}}, {"type": "Feature", "properties": {"area_ha": 0.0, "mean": null}, "geometry": {"type": "Polygon", "coordinates": [[[120.53040521288855, 31.415535552], [120.53029991789235, 31.415445088000002], [120.53040521288855, 31.415445088000002], [120.53040521288855, 31.415535552]]]}}, {"type": "Feature", "properties": {"area_ha": 0.0, "mean": null}, "geometry": {"type": "Polygon", "coordinates": [[[120.53029991789235, 31.415445088000002], [120.53019462289613, 31.415354624], [120.53029991789235, 31.415354624], [120.53029991789235, 31.415445088000002]]]}}, {"type": "Feature", "properties": {"area_ha": 0.02, "mean": 0.1113}, "geometry": {"type": "Polygon", "coordinates": [[[120.53019462289613, 31.415354624], [120.52987873790751, 31.415173696], [120.53019462289613, 31.41526416], [120.53019462289613, 31.415354624]]]}}, {"type": "Feature", "properties": {"area_ha": 0.4, "mean": 0.2225}, "geometry": {"type": "Polygon", "coordinates": [[[120.55178009711904, 31.416349728], [120.54956890219864, 31.416711584], [120.55851897687643, 31.414902304], [120.55178009711904, 31.416349728]]]}}, {"type": "Feature", "properties": {"area_ha": 0.03, "mean": 0.1359}, "geometry": {"type": "Polygon", "coordinates": [[[120.52987873790751, 31.415083232], [120.52956285291889, 31.415083232], [120.52956285291889, 31.414902304], [120.52987873790751, 31.415083232]]]}}, {"type": "Feature", "properties": {"area_ha": 0.02, "mean": 0.1003}, "geometry": {"type": "Polygon", "coordinates": [[[120.52935226292647, 31.41481184], [120.52903637793784, 31.414630912], [120.52935226292647, 31.414721376], [120.52935226292647, 31.41481184]]]}}]}