{"type": "FeatureCollection", "features": [{"type": "Feature", "properties": {"area_ha": 0.0, "mean": null}, "geometry": {"type": "Polygon", "coordinates": [[[120.5206127782411, 31.469633024], [120.52050748324488, 31.46954256], [120.5206127782411, 31.46954256], [120.5206127782411, 31.469633024]]]}}, {"type": "Feature", "properties": {"area_ha": 0.0, "mean": null}, "geometry": {"type": "Polygon", "coordinates": [[[120.52040218824868, 31.46954256], [120.52029689325246, 31.469452096], [120.52040218824868, 31.469452096], [120.52040218824868, 31.46954256]]]}}, {"type": "Feature", "properties": {"area_ha": 0.0, "mean": null}, "geometry": {"type": "Polygon", "coordinates": [[[120.52187631819561, 31.46954256], [120.52177102319939, 31.469452096], [120.52187631819561, 31.469452096], [120.52187631819561, 31.46954256]]]}}, {"type": "Feature", "properties": {"area_ha": 0.01, "mean": 0.1595}, "geometry": {"type": "Polygon", "coordinates": [[[120.52008630326004, 31.469452096], [120.51987571326764, 31.469361632000002], [120.52008630326004, 31.469361632000002], [120.52008630326004, 31.469452096]]]}}, {"type": "Feature", "properties": {"area_ha": 0.0, "mean": null}, "geometry": {"type": "Polygon", "coordinates": [[[120.52229749818045, 31.469361632000002], [120.52219220318423, 31.469271168000002], [120.52229749818045, 31.469271168000002], [120.52229749818045, 31.469361632000002]]]}}, {"type": "Feature", "properties": {"area_ha": 0.0, "mean": null}, "geometry": {"type": "Polygon", "coordinates": [[[120.52250808817286, 31.46909024], [120.52240279317665, 31.468999776], [120.52250808817286, 31.468999776], [120.52250808817286, 31.46909024]]]}}, {"type": "Feature", "properties": {"area_ha": 0.02, "mean": 0.1318}, "geometry": {"type": "Polygon", "coordinates": [[[120.51313683351025, 31.466738176], [120.5127156535254, 31.466647712], [120.51313683351025, 31.466647712], [120.51313683351025, 31.466738176]]]}}, {"type": "Feature", "properties": {"area_ha": 0.0, "mean": null}, "geometry": {"type": "Polygon", "coordinates": [[[120.51250506353298, 31.466557248], [120.51239976853678, 31.466466784], [120.51250506353298, 31.466466784], [120.51250506353298, 31.466557248]]]}}, {"type": "Feature", "properties": {"area_ha": 0.0, "mean": null}, "geometry": {"type": "Polygon", "coordinates": [[[120.5114521135709, 31.465924], [120.51134681857468, 31.465833536], [120.5114521135709, 31.465833536], [120.5114521135709, 31.465924]]]}}, {"type": "Feature", "properties": {"area_ha": 0.01, "mean": 0.121}, "geometry": {"type": "Polygon", "coordinates": [[[120.52577223305535, 31.464928896], [120.52566693805915, 31.464657504], [120.52577223305535, 31.464657504], [120.52577223305535, 31.464928896]]]}}, {"type": "Feature", "properties": {"area_ha": 0.0, "mean": null}, "geometry": {"type": "Polygon", "coordinates": [[[120.52587752805155, 31.464476576], [120.52577223305535, 31.464386112], [120.52587752805155, 31.464386112], [120.52587752805155, 31.464476576]]]}}, {"type": "Feature", "properties": {"area_ha": 0.0, "mean": null}, "geometry": {"type": "Polygon", "coordinates": [[[120.52619341304019, 31.464205184], [120.52608811804397, 31.46411472], [120.52619341304019, 31.46411472], [120.52619341304019, 31.464205184]]]}}, {"type": "Feature", "properties": {"area_ha": 0.0, "mean": null}, "geometry": {"type": "Polygon", "coordinates": [[[120.50323910386658, 31.45959152], [120.50313380887036, 31.459501056], [120.50323910386658, 31.459501056], [120.50323910386658, 31.45959152]]]}}, {"type": "Feature", "properties": {"area_ha": 0.01, "mean": 0.1306}, "geometry": {"type": "Polygon", "coordinates": [[[120.5036602838514, 31.45959152], [120.50344969385898, 31.459501056], [120.5036602838514, 31.459501056], [120.5036602838514, 31.45959152]]]}}, {"type": "Feature", "properties": {"area_ha": 0.0, "mean": null}, "geometry": {"type": "Polygon", "coordinates": [[[120.50376557884762, 31.459501056], [120.5036602838514, 31.459410592], [120.50376557884762, 31.459410592], [120.50376557884762, 31.459501056]]]}}, {"type": "Feature", "properties": {"area_ha": 0.0, "mean": null}, "geometry": {"type": "Polygon", "coordinates": [[[120.50387087384382, 31.459410592], [120.50376557884762, 31.459320128], [120.50387087384382, 31.459320128], [120.50387087384382, 31.459410592]]]}}, {"type": "Feature", "properties": {"area_ha": 0.0, "mean": null}, "geometry": {"type": "Polygon", "coordinates": [[[120.50429205382866, 31.458325024], [120.50418675883246, 31.45823456], [120.50429205382866, 31.45823456], [120.50429205382866, 31.458325024]]]}}, {"type": "Feature", "properties": {"area_ha": 0.0, "mean": null}, "geometry": {"type": "Polygon", "coordinates": [[[120.5354593727066, 31.456244352000002], [120.5353540777104, 31.456153888], [120.5354593727066, 31.456153888], [120.5354593727066, 31.456244352000002]]]}}, {"type": "Feature", "properties": {"area_ha": 0.0, "mean": null}, "geometry": {"type": "Polygon", "coordinates": [[[120.53609114268386, 31.453168576], [120.53598584768764, 31.453078112], [120.53609114268386, 31.453078112], [120.53609114268386, 31.453168576]]]}}, {"type": "Feature", "properties": {"area_ha": 0.0, "mean": null}, "geometry": {"type": "Polygon", "coordinates": [[[120.53619643768006, 31.452535328], [120.53609114268386, 31.452444864], [120.53619643768006, 31.452444864], [120.53619643768006, 31.452535328]]]}}, {"type": "Feature", "properties": {"area_ha": 0.0, "mean": null}, "geometry": {"type": "Polygon", "coordinates": [[[120.53630173267628, 31.452083008], [120.53619643768006, 31.451992544], [120.53630173267628, 31.451992544], [120.53630173267628, 31.452083008]]]}}, {"type": "Feature", "properties": {"area_ha": 0.0, "mean": null}, "geometry": {"type": "Polygon", "coordinates": [[[120.5366176176649, 31.450454656], [120.5365123226687, 31.450364192000002], [120.5366176176649, 31.450364192000002], [120.5366176176649, 31.450454656]]]}}, {"type": "Feature", "properties": {"area_ha": 0.0, "mean": null}, "geometry": {"type": "Polygon", "coordinates": [[[120.53946058256255, 31.446836096000002], [120.53935528756634, 31.446745632], [120.53946058256255, 31.446745632], [120.53946058256255, 31.446836096000002]]]}}, {"type": "Feature", "properties": {"area_ha": 0.0, "mean": null}, "geometry": {"type": "Polygon", "coordinates": [[[120.51776981334345, 31.431457216000002], [120.51766451834723, 31.431366752], [120.51776981334345, 31.431366752], [120.51776981334345, 31.431457216000002]]]}}, {"type": "Feature", "properties": {"area_ha": 0.0, "mean": null}, "geometry": {"type": "Polygon", "coordinates": [[[120.51787510833965, 31.43109536], [120.51776981334345, 31.431004896], [120.51787510833965, 31.431004896], [120.51787510833965, 31.43109536]]]}}, {"type": "Feature", "properties": {"area_ha": 0.07, "mean": 0.1416}, "geometry": {"type": "Polygon", "coordinates": [[[120.59853107543594, 31.431276288], [120.59832048544352, 31.431004896], [120.59863637043215, 31.430823968000002], [120.59853107543594, 31.431276288]]]}}, {"type": "Feature", "properties": {"area_ha": 0.0, "mean": null}, "geometry": {"type": "Polygon", "coordinates": [[[120.59884696042457, 31.430914432], [120.59874166542836, 31.430823968000002], [120.59884696042457, 31.430823968000002], [120.59884696042457, 31.430914432]]]}}, {"type": "Feature", "properties": {"area_ha": 0.0, "mean": null}, "geometry": {"type": "Polygon", "coordinates": [[[120.51798040333587, 31.430823968000002], [120.51787510833965, 31.430733504], [120.51798040333587, 31.430733504], [120.51798040333587, 31.430823968000002]]]}}, {"type": "Feature", "properties": {"area_ha": 0.0, "mean": null}, "geometry": {"type": "Polygon", "coordinates": [[[120.52019159825626, 31.43064304], [120.52008630326004, 31.430552576], [120.52019159825626, 31.430552576], [120.52019159825626, 31.43064304]]]}}, {"type": "Feature", "properties": {"area_ha": 0.0, "mean": null}, "geometry": {"type": "Polygon", "coordinates": [[[120.51808569833207, 31.430552576], [120.51798040333587, 31.430462112], [120.51808569833207, 31.430462112], [120.51808569833207, 31.430552576]]]}}, {"type": "Feature", "properties": {"area_ha": 0.01, "mean": 0.2208}, "geometry": {"type": "Polygon", "coordinates": [[[120.51819099332829, 31.430371648], [120.51808569833207, 31.43019072], [120.51819099332829, 31.43019072], [120.51819099332829, 31.430371648]]]}}, {"type": "Feature", "properties": {"area_ha": 0.01, "mean": 0.1879}, "geometry": {"type": "Polygon", "coordinates": [[[120.51829628832449, 31.43019072], [120.51819099332829, 31.429919328], [120.51829628832449, 31.429919328], [120.51829628832449, 31.43019072]]]}}, {"type": "Feature", "properties": {"area_ha": 0.01, "mean": 0.2222}, "geometry": {"type": "Polygon", "coordinates": [[[120.5184015833207, 31.429919328], [120.51829628832449, 31.4297384], [120.5184015833207, 31.4297384], [120.5184015833207, 31.429919328]]]}}, {"type": "Feature", "properties": {"area_ha": 0.0, "mean": null}, "geometry": {"type": "Polygon", "coordinates": [[[120.51850687831691, 31.429647936000002], [120.5184015833207, 31.429557472], [120.51850687831691, 31.429557472], [120.51850687831691, 31.429647936000002]]]}}, {"type": "Feature", "properties": {"area_ha": 0.0, "mean": null}, "geometry": {"type": "Polygon", "coordinates": [[[120.51861217331312, 31.429467008], [120.51850687831691, 31.429376544], [120.51861217331312, 31.429376544], [120.51861217331312, 31.429467008]]]}}, {"type": "Feature", "properties": {"area_ha": 0.0, "mean": null}, "geometry": {"type": "Polygon", "coordinates": [[[120.51871746830933, 31.429376544], [120.51861217331312, 31.42928608], [120.51871746830933, 31.42928608], [120.51871746830933, 31.429376544]]]}}, {"type": "Feature", "properties": {"area_ha": 0.0, "mean": null}, "geometry": {"type": "Polygon", "coordinates": [[[120.51882276330554, 31.42928608], [120.51871746830933, 31.429195616], [120.51882276330554, 31.429195616], [120.51882276330554, 31.42928608]]]}}, {"type": "Feature", "properties": {"area_ha": 0.01, "mean": 0.2403}, "geometry": {"type": "Polygon", "coordinates": [[[120.51892805830175, 31.429195616], [120.51882276330554, 31.429014688], [120.51892805830175, 31.429014688], [120.51892805830175, 31.429195616]]]}}, {"type": "Feature", "properties": {"area_ha": 0.0, "mean": null}, "geometry": {"type": "Polygon", "coordinates": [[[120.57199673639121, 31.42883376], [120.571891441395, 31.428743296], [120.57199673639121, 31.428743296], [120.57199673639121, 31.42883376]]]}}, {"type": "Feature", "properties": {"area_ha": 0.01, "mean": 0.1847}, "geometry": {"type": "Polygon", "coordinates": [[[120.51892805830175, 31.428924224], [120.51882276330554, 31.428652832], [120.51892805830175, 31.428652832], [120.51892805830175, 31.428924224]]]}}, {"type": "Feature", "properties": {"area_ha": 0.0, "mean": null}, "geometry": {"type": "Polygon", "coordinates": [[[120.51903335329796, 31.428562368], [120.51892805830175, 31.428471904000002], [120.51903335329796, 31.428471904000002], [120.51903335329796, 31.428562368]]]}}, {"type": "Feature", "properties": {"area_ha": 0.0, "mean": null}, "geometry": {"type": "Polygon", "coordinates": [[[120.57220732638363, 31.428562368], [120.57210203138742, 31.428471904000002], [120.57220732638363, 31.428471904000002], [120.57220732638363, 31.428562368]]]}}, {"type": "Feature", "properties": {"area_ha": 0.0, "mean": null}, "geometry": {"type": "Polygon", "coordinates": [[[120.57231262137984, 31.42838144], [120.57220732638363, 31.428290976], [120.57231262137984, 31.428290976], [120.57231262137984, 31.42838144]]]}}, {"type": "Feature", "properties": {"area_ha": 0.0, "mean": null}, "geometry": {"type": "Polygon", "coordinates": [[[120.5206127782411, 31.428110048], [120.52050748324488, 31.428019584], [120.5206127782411, 31.428019584], [120.5206127782411, 31.428110048]]]}}, {"type": "Feature", "properties": {"area_ha": 0.0, "mean": null}, "geometry": {"type": "Polygon", "coordinates": [[[120.51924394329038, 31.428019584], [120.51913864829417, 31.42792912], [120.51924394329038, 31.42792912], [120.51924394329038, 31.428019584]]]}}, {"type": "Feature", "properties": {"area_ha": 0.0, "mean": null}, "geometry": {"type": "Polygon", "coordinates": [[[120.51934923828658, 31.427838656], [120.51924394329038, 31.427748192], [120.51934923828658, 31.427748192], [120.51934923828658, 31.427838656]]]}}, {"type": "Feature", "properties": {"area_ha": 0.0, "mean": null}, "geometry": {"type": "Polygon", "coordinates": [[[120.52103395822593, 31.427748192], [120.52092866322972, 31.427657728], [120.52103395822593, 31.427657728], [120.52103395822593, 31.427748192]]]}}, {"type": "Feature", "properties": {"area_ha": 0.01, "mean": 0.1324}, "geometry": {"type": "Polygon", "coordinates": [[[120.52145513821077, 31.427657728], [120.52113925322215, 31.427567264], [120.52145513821077, 31.427567264], [120.52145513821077, 31.427657728]]]}}, {"type": "Feature", "properties": {"area_ha": 0.02, "mean": 0.1163}, "geometry": {"type": "Polygon", "coordinates": [[[120.52156043320699, 31.427386336], [120.52134984321457, 31.4274768], [120.52134984321457, 31.427295872000002], [120.52156043320699, 31.427386336]]]}}, {"type": "Feature", "properties": {"area_ha": 0.0, "mean": null}, "geometry": {"type": "Polygon", "coordinates": [[[120.52134984321457, 31.427295872000002], [120.52124454821835, 31.427205408], [120.52134984321457, 31.427205408], [120.52134984321457, 31.427295872000002]]]}}, {"type": "Feature", "properties": {"area_ha": 0.0, "mean": null}, "geometry": {"type": "Polygon", "coordinates": [[[120.52113925322215, 31.427205408], [120.52103395822593, 31.427114944], [120.52113925322215, 31.427114944], [120.52113925322215, 31.427205408]]]}}, {"type": "Feature", "properties": {"area_ha": 0.0, "mean": null}, "geometry": {"type": "Polygon", "coordinates": [[[120.51776981334345, 31.427114944], [120.51766451834723, 31.42702448], [120.51776981334345, 31.42702448], [120.51776981334345, 31.427114944]]]}}, {"type": "Feature", "properties": {"area_ha": 0.0, "mean": null}, "geometry": {"type": "Polygon", "coordinates": [[[120.52019159825626, 31.427114944], [120.52008630326004, 31.42702448], [120.52019159825626, 31.42702448], [120.52019159825626, 31.427114944]]]}}, {"type": "Feature", "properties": {"area_ha": 0.01, "mean": 0.178}, "geometry": {"type": "Polygon", "coordinates": [[[120.52092866322972, 31.427114944], [120.5207180732373, 31.42702448], [120.52092866322972, 31.42702448], [120.52092866322972, 31.427114944]]]}}, {"type": "Feature", "properties": {"area_ha": 0.0, "mean": null}, "geometry": {"type": "Polygon", "coordinates": [[[120.5934769156179, 31.422410816], [120.59337162062168, 31.422320352], [120.5934769156179, 31.422320352], [120.5934769156179, 31.422410816]]]}}, {"type": "Feature", "properties": {"area_ha": 0.02, "mean": 0.1168}, "geometry": {"type": "Polygon", "coordinates": [[[120.58610626588325, 31.420692], [120.58589567589082, 31.420601536], [120.58610626588325, 31.420511072], [120.58610626588325, 31.420692]]]}}, {"type": "Feature", "properties": {"area_ha": 0.0, "mean": null}, "geometry": {"type": "Polygon", "coordinates": [[[120.5491477222138, 31.420058752], [120.5490424272176, 31.419968288], [120.5491477222138, 31.419968288], [120.5491477222138, 31.420058752]]]}}]}