{"type": "FeatureCollection", "features": [{"type": "Feature", "properties": {"name": "黄埭镇水体边界 (JRC参考+S2 10m细化)"}, "geometry": {"type": "MultiPolygon", "coordinates": [[[[120.52903637793784, 31.414630912], [120.52935226292647, 31.41481184], [120.52935226292647, 31.414721376], [120.52903637793784, 31.414630912]]], [[[120.52956285291889, 31.415083232], [120.52987873790751, 31.415083232], [120.52956285291889, 31.414902304], [120.52956285291889, 31.415083232]]], [[[120.52987873790751, 31.415173696], [120.53019462289613, 31.415354624], [120.53019462289613, 31.41526416], [120.52987873790751, 31.415173696]]], [[[120.53029991789235, 31.415354624], [120.53019462289613, 31.415354624], [120.53029991789235, 31.415445088000002], [120.53029991789235, 31.415354624]]], [[[120.53029991789235, 31.415445088000002], [120.53040521288855, 31.415535552], [120.53040521288855, 31.415445088000002], [120.53029991789235, 31.415445088000002]]], [[[120.51755922335103, 31.427114944], [120.51808569833207, 31.428019584], [120.51829628832449, 31.42657216], [120.51755922335103, 31.427114944]]], [[[120.5194545332828, 31.427386336], [120.51934923828658, 31.432090464], [120.52134984321457, 31.427205408], [120.5194545332828, 31.427386336]]], [[[120.5365123226687, 31.4523544], [120.53640702767248, 31.45190208], [120.53619643768006, 31.451992544], [120.5365123226687, 31.4523544]]], [[[120.53630173267628, 31.453439968], [120.53619643768006, 31.452987648], [120.53598584768764, 31.453078112], [120.53630173267628, 31.453439968]]], [[[120.5353540777104, 31.456153888], [120.53556466770281, 31.456334816000002], [120.53556466770281, 31.456063424], [120.5353540777104, 31.456153888]]], [[[120.53524878271418, 31.456787136], [120.5353540777104, 31.457510848000002], [120.5354593727066, 31.456696672], [120.53524878271418, 31.456787136]]], [[[120.53514348771797, 31.457510848000002], [120.53524878271418, 31.457963168], [120.53524878271418, 31.457510848000002], [120.53514348771797, 31.457510848000002]]], [[[120.51071504859743, 31.45823456], [120.51082034359364, 31.458053632000002], [120.50997798362397, 31.457963168], [120.51071504859743, 31.45823456]]], [[[120.50460793881729, 31.457963168], [120.49628963411676, 31.458867808], [120.49871141902958, 31.460134304], [120.50460793881729, 31.457963168]]], [[[120.52566693805915, 31.464476576], [120.52629870803639, 31.464567040000002], [120.52619341304019, 31.46411472], [120.52566693805915, 31.464476576]]], [[[120.51250506353298, 31.467190496], [120.5172433383624, 31.468728384000002], [120.51134681857468, 31.465833536], [120.51250506353298, 31.467190496]]], [[[120.52461398809704, 31.466104928], [120.52545634806673, 31.46909024], [120.5287204929492, 31.469180704], [120.52461398809704, 31.466104928]]], [[[120.52914167293405, 31.469361632000002], [120.52914167293405, 31.469271168000002], [120.5287204929492, 31.469271168000002], [120.52914167293405, 31.469361632000002]]], [[[120.52914167293405, 31.469361632000002], [120.52945755792267, 31.46954256], [120.53187934283548, 31.469361632000002], [120.52914167293405, 31.469361632000002]]], [[[120.54956890219864, 31.416711584], [120.55178009711904, 31.416349728], [120.55851897687643, 31.414902304], [120.54956890219864, 31.416711584]]], [[[120.54040823752844, 31.417163904], [120.54051353252464, 31.417254368000002], [120.54051353252464, 31.417163904], [120.54040823752844, 31.417163904]]], [[[120.54104000750569, 31.417887616], [120.54167177748295, 31.417435296], [120.54051353252464, 31.417254368000002], [120.54104000750569, 31.417887616]]], [[[120.54146118749053, 31.418249472], [120.54167177748295, 31.418792256], [120.54167177748295, 31.418159008], [120.54146118749053, 31.418249472]]], [[[120.5822103510235, 31.422320352], [120.58652744586809, 31.420511072], [120.58631685587567, 31.41978736], [120.5822103510235, 31.422320352]]], [[[120.54314590742987, 31.42204896], [120.54419885739196, 31.422682208], [120.54556769234269, 31.42114432], [120.54314590742987, 31.42204896]]], [[[120.59316103062928, 31.422320352], [120.5934769156179, 31.422410816], [120.59337162062168, 31.422229888], [120.59316103062928, 31.422320352]]], [[[120.54230354746021, 31.42250128], [120.54230354746021, 31.422410816], [120.54198766247157, 31.422410816], [120.54230354746021, 31.42250128]]], [[[120.57918249806166, 31.42643610784252], [120.57894620614103, 31.426300768], [120.57884091114481, 31.426481696], [120.57915339952066, 31.426481696], [120.57799855117514, 31.428290976], [120.58242094101593, 31.423134528000002], [120.58157858104624, 31.422682208], [120.57918249806166, 31.42643610784252]]], [[[120.57936738612585, 31.427657728], [120.58010445109932, 31.428019584], [120.57936738612585, 31.427114944], [120.57936738612585, 31.427657728]]], [[[120.57799855117514, 31.428652832], [120.57831443616377, 31.428743296], [120.57820914116755, 31.428562368], [120.57799855117514, 31.428652832]]], [[[120.57926209112965, 31.430281184000002], [120.57831443616377, 31.428924224], [120.57820914116755, 31.429376544], [120.57926209112965, 31.430281184000002]]], [[[120.59926814040941, 31.431638144], [120.59916284541319, 31.430823968000002], [120.59832048544352, 31.431004896], [120.59926814040941, 31.431638144]]], [[[120.56220430174375, 31.439508512], [120.56283607172101, 31.439598976], [120.56230959673996, 31.439327584], [120.56220430174375, 31.439508512]]], [[[120.56357313669447, 31.440684544], [120.56431020166794, 31.440865472], [120.56367843169068, 31.440413152], [120.56357313669447, 31.440684544]]], [[[120.53924999257013, 31.446564704], [120.53967117255497, 31.446655168], [120.53956587755876, 31.446383776], [120.53924999257013, 31.446564704]]], [[[120.53682820765732, 31.450454656], [120.5367229126611, 31.450273728], [120.5365123226687, 31.450364192000002], [120.53682820765732, 31.450454656]]], [[[120.5366176176649, 31.451630688], [120.5365123226687, 31.451359296], [120.53630173267628, 31.45144976], [120.5366176176649, 31.451630688]]]]}}]}