{"type": "FeatureCollection", "features": [{"type": "Feature", "properties": {"area_ha": 0.0, "mean": null}, "geometry": {"type": "Polygon", "coordinates": [[[120.55546542198636, 31.475603648], [120.55536012699015, 31.475513184], [120.55546542198636, 31.475513184], [120.55546542198636, 31.475603648]]]}}, {"type": "Feature", "properties": {"area_ha": 0.0, "mean": null}, "geometry": {"type": "Polygon", "coordinates": [[[120.54314590742987, 31.475332256], [120.54304061243367, 31.475241792000002], [120.54314590742987, 31.475241792000002], [120.54314590742987, 31.475332256]]]}}, {"type": "Feature", "properties": {"area_ha": 0.0, "mean": null}, "geometry": {"type": "Polygon", "coordinates": [[[120.54293531743745, 31.475241792000002], [120.54283002244125, 31.475151328], [120.54293531743745, 31.475151328], [120.54293531743745, 31.475241792000002]]]}}, {"type": "Feature", "properties": {"area_ha": 0.0, "mean": null}, "geometry": {"type": "Polygon", "coordinates": [[[120.54283002244125, 31.475151328], [120.54272472744503, 31.475060864], [120.54283002244125, 31.475060864], [120.54283002244125, 31.475151328]]]}}, {"type": "Feature", "properties": {"area_ha": 0.0, "mean": null}, "geometry": {"type": "Polygon", "coordinates": [[[120.54272472744503, 31.475060864], [120.54261943244883, 31.4749704], [120.54272472744503, 31.4749704], [120.54272472744503, 31.475060864]]]}}, {"type": "Feature", "properties": {"area_ha": 0.0, "mean": null}, "geometry": {"type": "Polygon", "coordinates": [[[120.54261943244883, 31.4749704], [120.54251413745261, 31.474879936], [120.54261943244883, 31.474879936], [120.54261943244883, 31.4749704]]]}}, {"type": "Feature", "properties": {"area_ha": 0.0, "mean": null}, "geometry": {"type": "Polygon", "coordinates": [[[120.54251413745261, 31.474879936], [120.54240884245641, 31.474789472], [120.54251413745261, 31.474789472], [120.54251413745261, 31.474879936]]]}}, {"type": "Feature", "properties": {"area_ha": 0.0, "mean": null}, "geometry": {"type": "Polygon", "coordinates": [[[120.54240884245641, 31.474789472], [120.54230354746021, 31.474699008], [120.54240884245641, 31.474699008], [120.54240884245641, 31.474789472]]]}}, {"type": "Feature", "properties": {"area_ha": 0.0, "mean": null}, "geometry": {"type": "Polygon", "coordinates": [[[120.54230354746021, 31.474699008], [120.54219825246399, 31.474608544000002], [120.54230354746021, 31.474608544000002], [120.54230354746021, 31.474699008]]]}}, {"type": "Feature", "properties": {"area_ha": 0.0, "mean": null}, "geometry": {"type": "Polygon", "coordinates": [[[120.54209295746779, 31.474608544000002], [120.54198766247157, 31.47451808], [120.54209295746779, 31.47451808], [120.54209295746779, 31.474608544000002]]]}}, {"type": "Feature", "properties": {"area_ha": 0.0, "mean": null}, "geometry": {"type": "Polygon", "coordinates": [[[120.54177707247915, 31.474246688], [120.54167177748295, 31.474156224], [120.54177707247915, 31.474156224], [120.54177707247915, 31.474246688]]]}}, {"type": "Feature", "properties": {"area_ha": 0.0, "mean": null}, "geometry": {"type": "Polygon", "coordinates": [[[120.54156648248674, 31.473975296], [120.54146118749053, 31.473884832], [120.54156648248674, 31.473884832], [120.54156648248674, 31.473975296]]]}}, {"type": "Feature", "properties": {"area_ha": 0.0, "mean": null}, "geometry": {"type": "Polygon", "coordinates": [[[120.54146118749053, 31.473884832], [120.54135589249432, 31.473794368], [120.54146118749053, 31.473794368], [120.54146118749053, 31.473884832]]]}}, {"type": "Feature", "properties": {"area_ha": 0.0, "mean": null}, "geometry": {"type": "Polygon", "coordinates": [[[120.53946058256255, 31.473703904], [120.53935528756634, 31.47361344], [120.53946058256255, 31.47361344], [120.53946058256255, 31.473703904]]]}}, {"type": "Feature", "properties": {"area_ha": 0.0, "mean": null}, "geometry": {"type": "Polygon", "coordinates": [[[120.53924999257013, 31.473070656], [120.53914469757392, 31.472980192], [120.53924999257013, 31.472980192], [120.53924999257013, 31.473070656]]]}}, {"type": "Feature", "properties": {"area_ha": 0.04, "mean": 0.361}, "geometry": {"type": "Polygon", "coordinates": [[[120.5775773711903, 31.473070656], [120.57726148620168, 31.472889728000002], [120.5775773711903, 31.472799264000002], [120.5775773711903, 31.473070656]]]}}, {"type": "Feature", "properties": {"area_ha": 0.0, "mean": null}, "geometry": {"type": "Polygon", "coordinates": [[[120.57726148620168, 31.472799264000002], [120.57715619120546, 31.4727088], [120.57726148620168, 31.4727088], [120.57726148620168, 31.472799264000002]]]}}, {"type": "Feature", "properties": {"area_ha": 0.0, "mean": null}, "geometry": {"type": "Polygon", "coordinates": [[[120.58084151607278, 31.472799264000002], [120.58073622107658, 31.4727088], [120.58084151607278, 31.4727088], [120.58084151607278, 31.472799264000002]]]}}, {"type": "Feature", "properties": {"area_ha": 0.0, "mean": null}, "geometry": {"type": "Polygon", "coordinates": [[[120.57736678119788, 31.4727088], [120.57726148620168, 31.472618336], [120.57736678119788, 31.472618336], [120.57736678119788, 31.4727088]]]}}, {"type": "Feature", "properties": {"area_ha": 0.0, "mean": null}, "geometry": {"type": "Polygon", "coordinates": [[[120.5775773711903, 31.472618336], [120.57747207619408, 31.472527872], [120.5775773711903, 31.472527872], [120.5775773711903, 31.472618336]]]}}, {"type": "Feature", "properties": {"area_ha": 0.0, "mean": null}, "geometry": {"type": "Polygon", "coordinates": [[[120.5776826661865, 31.472527872], [120.5775773711903, 31.472437408], [120.5776826661865, 31.472437408], [120.5776826661865, 31.472527872]]]}}, {"type": "Feature", "properties": {"area_ha": 0.0, "mean": null}, "geometry": {"type": "Polygon", "coordinates": [[[120.57778796118272, 31.472437408], [120.5776826661865, 31.472346944], [120.57778796118272, 31.472346944], [120.57778796118272, 31.472437408]]]}}, {"type": "Feature", "properties": {"area_ha": 0.01, "mean": 0.3186}, "geometry": {"type": "Polygon", "coordinates": [[[120.57799855117514, 31.472346944], [120.57778796118272, 31.472256480000002], [120.57799855117514, 31.472256480000002], [120.57799855117514, 31.472346944]]]}}, {"type": "Feature", "properties": {"area_ha": 0.01, "mean": 0.3649}, "geometry": {"type": "Polygon", "coordinates": [[[120.54040823752844, 31.472346944], [120.54030294253222, 31.472166016], [120.54040823752844, 31.472166016], [120.54040823752844, 31.472346944]]]}}, {"type": "Feature", "properties": {"area_ha": 0.0, "mean": null}, "geometry": {"type": "Polygon", "coordinates": [[[120.57810384617135, 31.472256480000002], [120.57799855117514, 31.472166016], [120.57810384617135, 31.472166016], [120.57810384617135, 31.472256480000002]]]}}, {"type": "Feature", "properties": {"area_ha": 0.0, "mean": null}, "geometry": {"type": "Polygon", "coordinates": [[[120.54019764753602, 31.472075552], [120.5400923525398, 31.471985088], [120.54019764753602, 31.471985088], [120.54019764753602, 31.472075552]]]}}, {"type": "Feature", "properties": {"area_ha": 0.0, "mean": null}, "geometry": {"type": "Polygon", "coordinates": [[[120.57841973115997, 31.472075552], [120.57831443616377, 31.471985088], [120.57841973115997, 31.471985088], [120.57841973115997, 31.472075552]]]}}, {"type": "Feature", "properties": {"area_ha": 0.0, "mean": null}, "geometry": {"type": "Polygon", "coordinates": [[[120.5400923525398, 31.471985088], [120.5399870575436, 31.471894624], [120.5400923525398, 31.471894624], [120.5400923525398, 31.471985088]]]}}, {"type": "Feature", "properties": {"area_ha": 0.0, "mean": null}, "geometry": {"type": "Polygon", "coordinates": [[[120.5399870575436, 31.471894624], [120.5398817625474, 31.47180416], [120.5399870575436, 31.47180416], [120.5399870575436, 31.471894624]]]}}, {"type": "Feature", "properties": {"area_ha": 0.0, "mean": null}, "geometry": {"type": "Polygon", "coordinates": [[[120.5398817625474, 31.47180416], [120.53977646755118, 31.471713696000002], [120.5398817625474, 31.471713696000002], [120.5398817625474, 31.47180416]]]}}, {"type": "Feature", "properties": {"area_ha": 0.0, "mean": null}, "geometry": {"type": "Polygon", "coordinates": [[[120.53977646755118, 31.471713696000002], [120.53967117255497, 31.471623232000002], [120.53977646755118, 31.471623232000002], [120.53977646755118, 31.471713696000002]]]}}, {"type": "Feature", "properties": {"area_ha": 0.0, "mean": null}, "geometry": {"type": "Polygon", "coordinates": [[[120.53967117255497, 31.471623232000002], [120.53956587755876, 31.471532768], [120.53967117255497, 31.471532768], [120.53967117255497, 31.471623232000002]]]}}, {"type": "Feature", "properties": {"area_ha": 0.0, "mean": null}, "geometry": {"type": "Polygon", "coordinates": [[[120.54082941751327, 31.471623232000002], [120.54072412251706, 31.471532768], [120.54082941751327, 31.471532768], [120.54082941751327, 31.471623232000002]]]}}, {"type": "Feature", "properties": {"area_ha": 0.0, "mean": null}, "geometry": {"type": "Polygon", "coordinates": [[[120.53956587755876, 31.471532768], [120.53946058256255, 31.471442304], [120.53956587755876, 31.471442304], [120.53956587755876, 31.471532768]]]}}, {"type": "Feature", "properties": {"area_ha": 0.02, "mean": 0.1685}, "geometry": {"type": "Polygon", "coordinates": [[[120.58189446603488, 31.471532768], [120.58157858104624, 31.471442304], [120.58178917103866, 31.47135184], [120.58189446603488, 31.471532768]]]}}, {"type": "Feature", "properties": {"area_ha": 0.0, "mean": null}, "geometry": {"type": "Polygon", "coordinates": [[[120.53946058256255, 31.471442304], [120.53935528756634, 31.47135184], [120.53946058256255, 31.47135184], [120.53946058256255, 31.471442304]]]}}, {"type": "Feature", "properties": {"area_ha": 0.0, "mean": null}, "geometry": {"type": "Polygon", "coordinates": [[[120.53935528756634, 31.47135184], [120.53924999257013, 31.471261376], [120.53935528756634, 31.471261376], [120.53935528756634, 31.47135184]]]}}, {"type": "Feature", "properties": {"area_ha": 0.02, "mean": 0.4035}, "geometry": {"type": "Polygon", "coordinates": [[[120.58115740106142, 31.471442304], [120.580946811069, 31.471261376], [120.58126269605762, 31.471261376], [120.58115740106142, 31.471442304]]]}}, {"type": "Feature", "properties": {"area_ha": 0.0, "mean": null}, "geometry": {"type": "Polygon", "coordinates": [[[120.53272170280516, 31.471261376], [120.53261640780894, 31.471170912], [120.53272170280516, 31.471170912], [120.53272170280516, 31.471261376]]]}}, {"type": "Feature", "properties": {"area_ha": 0.0, "mean": null}, "geometry": {"type": "Polygon", "coordinates": [[[120.53924999257013, 31.471261376], [120.53914469757392, 31.471170912], [120.53924999257013, 31.471170912], [120.53924999257013, 31.471261376]]]}}, {"type": "Feature", "properties": {"area_ha": 0.01, "mean": 0.3632}, "geometry": {"type": "Polygon", "coordinates": [[[120.58020974609553, 31.471261376], [120.57999915610311, 31.471170912], [120.58020974609553, 31.471170912], [120.58020974609553, 31.471261376]]]}}, {"type": "Feature", "properties": {"area_ha": 0.01, "mean": 0.3461}, "geometry": {"type": "Polygon", "coordinates": [[[120.53914469757392, 31.471170912], [120.53893410758151, 31.471080448000002], [120.53914469757392, 31.471080448000002], [120.53914469757392, 31.471170912]]]}}, {"type": "Feature", "properties": {"area_ha": 0.01, "mean": 0.3267}, "geometry": {"type": "Polygon", "coordinates": [[[120.5388288125853, 31.471080448000002], [120.53851292759667, 31.470989984], [120.5388288125853, 31.470989984], [120.5388288125853, 31.471080448000002]]]}}, {"type": "Feature", "properties": {"area_ha": 0.01, "mean": 0.2758}, "geometry": {"type": "Polygon", "coordinates": [[[120.53830233760425, 31.470989984], [120.53798645261563, 31.47089952], [120.53830233760425, 31.47089952], [120.53830233760425, 31.470989984]]]}}, {"type": "Feature", "properties": {"area_ha": 0.0, "mean": null}, "geometry": {"type": "Polygon", "coordinates": [[[120.5377758626232, 31.47089952], [120.53767056762699, 31.470809056], [120.5377758626232, 31.470809056], [120.5377758626232, 31.47089952]]]}}, {"type": "Feature", "properties": {"area_ha": 0.0, "mean": null}, "geometry": {"type": "Polygon", "coordinates": [[[120.53745997763457, 31.470809056], [120.53735468263837, 31.470718592], [120.53745997763457, 31.470718592], [120.53745997763457, 31.470809056]]]}}, {"type": "Feature", "properties": {"area_ha": 0.01, "mean": 0.3806}, "geometry": {"type": "Polygon", "coordinates": [[[120.53387994776347, 31.470085344], [120.53366935777105, 31.46999488], [120.53387994776347, 31.46999488], [120.53387994776347, 31.470085344]]]}}, {"type": "Feature", "properties": {"area_ha": 0.0, "mean": null}, "geometry": {"type": "Polygon", "coordinates": [[[120.53335347278241, 31.46999488], [120.5332481777862, 31.469904416000002], [120.53335347278241, 31.469904416000002], [120.53335347278241, 31.46999488]]]}}, {"type": "Feature", "properties": {"area_ha": 0.0, "mean": null}, "geometry": {"type": "Polygon", "coordinates": [[[120.53103698286581, 31.468999776], [120.5309316878696, 31.468909312], [120.53103698286581, 31.468909312], [120.53103698286581, 31.468999776]]]}}, {"type": "Feature", "properties": {"area_ha": 0.0, "mean": null}, "geometry": {"type": "Polygon", "coordinates": [[[120.53177404783928, 31.468728384000002], [120.53166875284306, 31.46863792], [120.53177404783928, 31.46863792], [120.53177404783928, 31.468728384000002]]]}}, {"type": "Feature", "properties": {"area_ha": 0.0, "mean": null}, "geometry": {"type": "Polygon", "coordinates": [[[120.528615197953, 31.468547456], [120.52850990295678, 31.468456992], [120.528615197953, 31.468456992], [120.528615197953, 31.468547456]]]}}, {"type": "Feature", "properties": {"area_ha": 0.0, "mean": null}, "geometry": {"type": "Polygon", "coordinates": [[[120.52840460796058, 31.468276064], [120.52829931296438, 31.4681856], [120.52840460796058, 31.4681856], [120.52840460796058, 31.468276064]]]}}, {"type": "Feature", "properties": {"area_ha": 0.0, "mean": null}, "geometry": {"type": "Polygon", "coordinates": [[[120.52829931296438, 31.468095136000002], [120.52819401796816, 31.468004672], [120.52829931296438, 31.468004672], [120.52829931296438, 31.468095136000002]]]}}, {"type": "Feature", "properties": {"area_ha": 0.0, "mean": null}, "geometry": {"type": "Polygon", "coordinates": [[[120.52819401796816, 31.468004672], [120.52808872297196, 31.467914208], [120.52819401796816, 31.467914208], [120.52819401796816, 31.468004672]]]}}, {"type": "Feature", "properties": {"area_ha": 0.01, "mean": 0.3596}, "geometry": {"type": "Polygon", "coordinates": [[[120.52787813297954, 31.46773328], [120.52766754298712, 31.467642816], [120.52787813297954, 31.467642816], [120.52787813297954, 31.46773328]]]}}, {"type": "Feature", "properties": {"area_ha": 0.0, "mean": null}, "geometry": {"type": "Polygon", "coordinates": [[[120.5273516579985, 31.467642816], [120.52724636300228, 31.467552352000002], [120.5273516579985, 31.467552352000002], [120.5273516579985, 31.467642816]]]}}, {"type": "Feature", "properties": {"area_ha": 0.01, "mean": 0.2837}, "geometry": {"type": "Polygon", "coordinates": [[[120.52714106800607, 31.467552352000002], [120.52693047801365, 31.467461888], [120.52714106800607, 31.467461888], [120.52714106800607, 31.467552352000002]]]}}, {"type": "Feature", "properties": {"area_ha": 0.0, "mean": null}, "geometry": {"type": "Polygon", "coordinates": [[[120.53272170280516, 31.46682864], [120.53261640780894, 31.466738176], [120.53272170280516, 31.466738176], [120.53272170280516, 31.46682864]]]}}, {"type": "Feature", "properties": {"area_ha": 0.0, "mean": null}, "geometry": {"type": "Polygon", "coordinates": [[[120.53314288279, 31.465924], [120.53303758779379, 31.465833536], [120.53314288279, 31.465833536], [120.53314288279, 31.465924]]]}}, {"type": "Feature", "properties": {"area_ha": 0.0, "mean": null}, "geometry": {"type": "Polygon", "coordinates": [[[120.53345876777863, 31.465562144], [120.53335347278241, 31.46547168], [120.53345876777863, 31.46547168], [120.53345876777863, 31.465562144]]]}}, {"type": "Feature", "properties": {"area_ha": 0.0, "mean": null}, "geometry": {"type": "Polygon", "coordinates": [[[120.53377465276725, 31.464928896], [120.53366935777105, 31.464838432], [120.53377465276725, 31.464838432], [120.53377465276725, 31.464928896]]]}}, {"type": "Feature", "properties": {"area_ha": 0.0, "mean": null}, "geometry": {"type": "Polygon", "coordinates": [[[120.52577223305535, 31.464747968], [120.52566693805915, 31.464657504], [120.52577223305535, 31.464657504], [120.52577223305535, 31.464747968]]]}}, {"type": "Feature", "properties": {"area_ha": 0.0, "mean": null}, "geometry": {"type": "Polygon", "coordinates": [[[120.53387994776347, 31.464386112], [120.53377465276725, 31.464295648], [120.53387994776347, 31.464295648], [120.53387994776347, 31.464386112]]]}}, {"type": "Feature", "properties": {"area_ha": 0.0, "mean": null}, "geometry": {"type": "Polygon", "coordinates": [[[120.52619341304019, 31.464205184], [120.52608811804397, 31.46411472], [120.52619341304019, 31.46411472], [120.52619341304019, 31.464205184]]]}}, {"type": "Feature", "properties": {"area_ha": 0.01, "mean": 0.237}, "geometry": {"type": "Polygon", "coordinates": [[[120.5343011277483, 31.46230544], [120.53419583275209, 31.462034048], [120.5343011277483, 31.462034048], [120.5343011277483, 31.46230544]]]}}, {"type": "Feature", "properties": {"area_ha": 0.0, "mean": null}, "geometry": {"type": "Polygon", "coordinates": [[[120.53461701273693, 31.460586624], [120.53451171774071, 31.46049616], [120.53461701273693, 31.46049616], [120.53461701273693, 31.460586624]]]}}, {"type": "Feature", "properties": {"area_ha": 0.01, "mean": 0.2062}, "geometry": {"type": "Polygon", "coordinates": [[[120.53472230773313, 31.460134304], [120.53461701273693, 31.459953376], [120.53472230773313, 31.459953376], [120.53472230773313, 31.460134304]]]}}, {"type": "Feature", "properties": {"area_ha": 0.0, "mean": null}, "geometry": {"type": "Polygon", "coordinates": [[[120.5353540777104, 31.456877600000002], [120.53524878271418, 31.456787136], [120.5353540777104, 31.456787136], [120.5353540777104, 31.456877600000002]]]}}, {"type": "Feature", "properties": {"area_ha": 0.01, "mean": 0.1695}, "geometry": {"type": "Polygon", "coordinates": [[[120.5354593727066, 31.456334816000002], [120.5353540777104, 31.456153888], [120.5354593727066, 31.456153888], [120.5354593727066, 31.456334816000002]]]}}, {"type": "Feature", "properties": {"area_ha": 0.01, "mean": 0.1351}, "geometry": {"type": "Polygon", "coordinates": [[[120.59789930545868, 31.45597296], [120.59768871546626, 31.455882496], [120.59789930545868, 31.455882496], [120.59789930545868, 31.45597296]]]}}, {"type": "Feature", "properties": {"area_ha": 0.0, "mean": null}, "geometry": {"type": "Polygon", "coordinates": [[[120.53556466770281, 31.455701568000002], [120.5354593727066, 31.455611104], [120.53556466770281, 31.455611104], [120.53556466770281, 31.455701568000002]]]}}, {"type": "Feature", "properties": {"area_ha": 0.0, "mean": null}, "geometry": {"type": "Polygon", "coordinates": [[[120.53609114268386, 31.453168576], [120.53598584768764, 31.453078112], [120.53609114268386, 31.453078112], [120.53609114268386, 31.453168576]]]}}, {"type": "Feature", "properties": {"area_ha": 0.0, "mean": null}, "geometry": {"type": "Polygon", "coordinates": [[[120.53619643768006, 31.452535328], [120.53609114268386, 31.452444864], [120.53619643768006, 31.452444864], [120.53619643768006, 31.452535328]]]}}, {"type": "Feature", "properties": {"area_ha": 0.0, "mean": null}, "geometry": {"type": "Polygon", "coordinates": [[[120.53630173267628, 31.451992544], [120.53619643768006, 31.45190208], [120.53630173267628, 31.45190208], [120.53630173267628, 31.451992544]]]}}, {"type": "Feature", "properties": {"area_ha": 0.0, "mean": null}, "geometry": {"type": "Polygon", "coordinates": [[[120.53640702767248, 31.45144976], [120.53630173267628, 31.451359296], [120.53640702767248, 31.451359296], [120.53640702767248, 31.45144976]]]}}, {"type": "Feature", "properties": {"area_ha": 0.01, "mean": 0.1603}, "geometry": {"type": "Polygon", "coordinates": [[[120.5366176176649, 31.450454656], [120.5365123226687, 31.450273728], [120.5366176176649, 31.450273728], [120.5366176176649, 31.450454656]]]}}, {"type": "Feature", "properties": {"area_ha": 0.01, "mean": 0.1776}, "geometry": {"type": "Polygon", "coordinates": [[[120.53714409264595, 31.447740736], [120.53703879764974, 31.447559808], [120.53714409264595, 31.447559808], [120.53714409264595, 31.447740736]]]}}, {"type": "Feature", "properties": {"area_ha": 0.0, "mean": null}, "geometry": {"type": "Polygon", "coordinates": [[[120.53724938764216, 31.447107488], [120.53714409264595, 31.447017024], [120.53724938764216, 31.447017024], [120.53724938764216, 31.447107488]]]}}, {"type": "Feature", "properties": {"area_ha": 0.0, "mean": null}, "geometry": {"type": "Polygon", "coordinates": [[[120.53735468263837, 31.446655168], [120.53724938764216, 31.446564704], [120.53735468263837, 31.446564704], [120.53735468263837, 31.446655168]]]}}, {"type": "Feature", "properties": {"area_ha": 0.0, "mean": null}, "geometry": {"type": "Polygon", "coordinates": [[[120.53946058256255, 31.44647424], [120.53935528756634, 31.446383776], [120.53946058256255, 31.446383776], [120.53946058256255, 31.44647424]]]}}, {"type": "Feature", "properties": {"area_ha": 0.0, "mean": null}, "geometry": {"type": "Polygon", "coordinates": [[[120.53840763260045, 31.446383776], [120.53830233760425, 31.446293312], [120.53840763260045, 31.446293312], [120.53840763260045, 31.446383776]]]}}, {"type": "Feature", "properties": {"area_ha": 0.0, "mean": null}, "geometry": {"type": "Polygon", "coordinates": [[[120.53956587755876, 31.446383776], [120.53946058256255, 31.446293312], [120.53956587755876, 31.446293312], [120.53956587755876, 31.446383776]]]}}, {"type": "Feature", "properties": {"area_ha": 0.01, "mean": 0.1512}, "geometry": {"type": "Polygon", "coordinates": [[[120.5398817625474, 31.446202848000002], [120.53967117255497, 31.446112384], [120.5398817625474, 31.446112384], [120.5398817625474, 31.446202848000002]]]}}, {"type": "Feature", "properties": {"area_ha": 0.0, "mean": null}, "geometry": {"type": "Polygon", "coordinates": [[[120.5399870575436, 31.446112384], [120.5398817625474, 31.44602192], [120.5399870575436, 31.44602192], [120.5399870575436, 31.446112384]]]}}, {"type": "Feature", "properties": {"area_ha": 0.0, "mean": null}, "geometry": {"type": "Polygon", "coordinates": [[[120.53924999257013, 31.44602192], [120.53914469757392, 31.445931456], [120.53924999257013, 31.445931456], [120.53924999257013, 31.44602192]]]}}, {"type": "Feature", "properties": {"area_ha": 0.0, "mean": null}, "geometry": {"type": "Polygon", "coordinates": [[[120.53935528756634, 31.445660064000002], [120.53924999257013, 31.4455696], [120.53935528756634, 31.4455696], [120.53935528756634, 31.445660064000002]]]}}, {"type": "Feature", "properties": {"area_ha": 0.0, "mean": null}, "geometry": {"type": "Polygon", "coordinates": [[[120.60211110530706, 31.445660064000002], [120.60200581031084, 31.4455696], [120.60211110530706, 31.4455696], [120.60211110530706, 31.445660064000002]]]}}, {"type": "Feature", "properties": {"area_ha": 0.0, "mean": null}, "geometry": {"type": "Polygon", "coordinates": [[[120.53924999257013, 31.4455696], [120.53914469757392, 31.445479136], [120.53924999257013, 31.445479136], [120.53924999257013, 31.4455696]]]}}, {"type": "Feature", "properties": {"area_ha": 0.02, "mean": 0.2219}, "geometry": {"type": "Polygon", "coordinates": [[[120.53756527263079, 31.445750528], [120.53745997763457, 31.445388672], [120.53756527263079, 31.445388672], [120.53756527263079, 31.445750528]]]}}, {"type": "Feature", "properties": {"area_ha": 0.01, "mean": 0.2278}, "geometry": {"type": "Polygon", "coordinates": [[[120.53767056762699, 31.44511728], [120.53756527263079, 31.444845888], [120.53767056762699, 31.444845888], [120.53767056762699, 31.44511728]]]}}, {"type": "Feature", "properties": {"area_ha": 0.01, "mean": 0.1314}, "geometry": {"type": "Polygon", "coordinates": [[[120.60190051531464, 31.444936352], [120.60179522031842, 31.444755424], [120.60190051531464, 31.444755424], [120.60190051531464, 31.444936352]]]}}, {"type": "Feature", "properties": {"area_ha": 0.0, "mean": null}, "geometry": {"type": "Polygon", "coordinates": [[[120.53809174761183, 31.444845888], [120.53798645261563, 31.444755424], [120.53809174761183, 31.444755424], [120.53809174761183, 31.444845888]]]}}, {"type": "Feature", "properties": {"area_ha": 0.01, "mean": 0.1861}, "geometry": {"type": "Polygon", "coordinates": [[[120.5377758626232, 31.44466496], [120.53767056762699, 31.444393568], [120.5377758626232, 31.444393568], [120.5377758626232, 31.44466496]]]}}, {"type": "Feature", "properties": {"area_ha": 0.01, "mean": 0.2066}, "geometry": {"type": "Polygon", "coordinates": [[[120.53788115761941, 31.444031712], [120.5377758626232, 31.44376032], [120.53788115761941, 31.44376032], [120.53788115761941, 31.444031712]]]}}, {"type": "Feature", "properties": {"area_ha": 0.01, "mean": 0.2155}, "geometry": {"type": "Polygon", "coordinates": [[[120.53798645261563, 31.443398464], [120.53788115761941, 31.443217536], [120.53798645261563, 31.443217536], [120.53798645261563, 31.443398464]]]}}, {"type": "Feature", "properties": {"area_ha": 0.0, "mean": null}, "geometry": {"type": "Polygon", "coordinates": [[[120.53840763260045, 31.443217536], [120.53830233760425, 31.443127072], [120.53840763260045, 31.443127072], [120.53840763260045, 31.443217536]]]}}, {"type": "Feature", "properties": {"area_ha": 0.01, "mean": 0.1525}, "geometry": {"type": "Polygon", "coordinates": [[[120.53809174761183, 31.44285568], [120.53798645261563, 31.442674752000002], [120.53809174761183, 31.442674752000002], [120.53809174761183, 31.44285568]]]}}, {"type": "Feature", "properties": {"area_ha": 0.0, "mean": null}, "geometry": {"type": "Polygon", "coordinates": [[[120.54956890219864, 31.440775008], [120.54946360720243, 31.440684544], [120.54956890219864, 31.440684544], [120.54956890219864, 31.440775008]]]}}, {"type": "Feature", "properties": {"area_ha": 0.01, "mean": 0.2019}, "geometry": {"type": "Polygon", "coordinates": [[[120.53851292759667, 31.440865472], [120.53840763260045, 31.44059408], [120.53851292759667, 31.44059408], [120.53851292759667, 31.440865472]]]}}, {"type": "Feature", "properties": {"area_ha": 0.01, "mean": 0.2036}, "geometry": {"type": "Polygon", "coordinates": [[[120.53861822259287, 31.440232224], [120.53851292759667, 31.440051296], [120.53861822259287, 31.440051296], [120.53861822259287, 31.440232224]]]}}, {"type": "Feature", "properties": {"area_ha": 0.01, "mean": 0.1789}, "geometry": {"type": "Polygon", "coordinates": [[[120.53872351758909, 31.439689440000002], [120.53861822259287, 31.439508512], [120.53872351758909, 31.439508512], [120.53872351758909, 31.439689440000002]]]}}, {"type": "Feature", "properties": {"area_ha": 0.0, "mean": null}, "geometry": {"type": "Polygon", "coordinates": [[[120.53914469757392, 31.438061088], [120.53903940257771, 31.437970624000002], [120.53914469757392, 31.437970624000002], [120.53914469757392, 31.438061088]]]}}, {"type": "Feature", "properties": {"area_ha": 0.0, "mean": null}, "geometry": {"type": "Polygon", "coordinates": [[[120.53956587755876, 31.434985312000002], [120.53946058256255, 31.434894848], [120.53956587755876, 31.434894848], [120.53956587755876, 31.434985312000002]]]}}, {"type": "Feature", "properties": {"area_ha": 0.0, "mean": null}, "geometry": {"type": "Polygon", "coordinates": [[[120.60811292009099, 31.433085568], [120.60800762509477, 31.432995104], [120.60811292009099, 31.432995104], [120.60811292009099, 31.433085568]]]}}, {"type": "Feature", "properties": {"area_ha": 0.01, "mean": 0.165}, "geometry": {"type": "Polygon", "coordinates": [[[120.5398817625474, 31.43290464], [120.53977646755118, 31.432723712], [120.5398817625474, 31.432723712], [120.5398817625474, 31.43290464]]]}}, {"type": "Feature", "properties": {"area_ha": 0.0, "mean": null}, "geometry": {"type": "Polygon", "coordinates": [[[120.59916284541319, 31.432633248000002], [120.59905755041699, 31.432542784], [120.59916284541319, 31.432542784], [120.59916284541319, 31.432633248000002]]]}}, {"type": "Feature", "properties": {"area_ha": 0.0, "mean": null}, "geometry": {"type": "Polygon", "coordinates": [[[120.59905755041699, 31.432542784], [120.59895225542078, 31.43245232], [120.59905755041699, 31.43245232], [120.59905755041699, 31.432542784]]]}}, {"type": "Feature", "properties": {"area_ha": 0.0, "mean": null}, "geometry": {"type": "Polygon", "coordinates": [[[120.59926814040941, 31.432542784], [120.59916284541319, 31.43245232], [120.59926814040941, 31.43245232], [120.59926814040941, 31.432542784]]]}}, {"type": "Feature", "properties": {"area_ha": 0.0, "mean": null}, "geometry": {"type": "Polygon", "coordinates": [[[120.5194545332828, 31.432180928], [120.51934923828658, 31.432090464], [120.5194545332828, 31.432090464], [120.5194545332828, 31.432180928]]]}}, {"type": "Feature", "properties": {"area_ha": 0.0, "mean": null}, "geometry": {"type": "Polygon", "coordinates": [[[120.5399870575436, 31.432180928], [120.5398817625474, 31.432090464], [120.5399870575436, 31.432090464], [120.5399870575436, 31.432180928]]]}}, {"type": "Feature", "properties": {"area_ha": 0.0, "mean": null}, "geometry": {"type": "Polygon", "coordinates": [[[120.54093471250948, 31.432180928], [120.54082941751327, 31.432090464], [120.54093471250948, 31.432090464], [120.54093471250948, 31.432180928]]]}}, {"type": "Feature", "properties": {"area_ha": 0.0, "mean": null}, "geometry": {"type": "Polygon", "coordinates": [[[120.59895225542078, 31.432090464], [120.59884696042457, 31.432000000000002], [120.59895225542078, 31.432000000000002], [120.59895225542078, 31.432090464]]]}}, {"type": "Feature", "properties": {"area_ha": 0.0, "mean": null}, "geometry": {"type": "Polygon", "coordinates": [[[120.5400923525398, 31.432000000000002], [120.5399870575436, 31.431909536], [120.5400923525398, 31.431909536], [120.5400923525398, 31.432000000000002]]]}}, {"type": "Feature", "properties": {"area_ha": 0.0, "mean": null}, "geometry": {"type": "Polygon", "coordinates": [[[120.59853107543594, 31.431185824], [120.59842578043973, 31.43109536], [120.59853107543594, 31.43109536], [120.59853107543594, 31.431185824]]]}}, {"type": "Feature", "properties": {"area_ha": 0.0, "mean": null}, "geometry": {"type": "Polygon", "coordinates": [[[120.51787510833965, 31.43109536], [120.51776981334345, 31.431004896], [120.51787510833965, 31.431004896], [120.51787510833965, 31.43109536]]]}}, {"type": "Feature", "properties": {"area_ha": 0.0, "mean": null}, "geometry": {"type": "Polygon", "coordinates": [[[120.51798040333587, 31.430733504], [120.51787510833965, 31.43064304], [120.51798040333587, 31.43064304], [120.51798040333587, 31.430733504]]]}}, {"type": "Feature", "properties": {"area_ha": 0.0, "mean": null}, "geometry": {"type": "Polygon", "coordinates": [[[120.52019159825626, 31.43064304], [120.52008630326004, 31.430552576], [120.52019159825626, 31.430552576], [120.52019159825626, 31.43064304]]]}}, {"type": "Feature", "properties": {"area_ha": 0.0, "mean": null}, "geometry": {"type": "Polygon", "coordinates": [[[120.51808569833207, 31.430552576], [120.51798040333587, 31.430462112], [120.51808569833207, 31.430462112], [120.51808569833207, 31.430552576]]]}}, {"type": "Feature", "properties": {"area_ha": 0.0, "mean": null}, "geometry": {"type": "Polygon", "coordinates": [[[120.54030294253222, 31.430552576], [120.54019764753602, 31.430462112], [120.54030294253222, 31.430462112], [120.54030294253222, 31.430552576]]]}}, {"type": "Feature", "properties": {"area_ha": 0.01, "mean": 0.282}, "geometry": {"type": "Polygon", "coordinates": [[[120.51819099332829, 31.430371648], [120.51808569833207, 31.430100256], [120.51819099332829, 31.430100256], [120.51819099332829, 31.430371648]]]}}, {"type": "Feature", "properties": {"area_ha": 0.0, "mean": null}, "geometry": {"type": "Polygon", "coordinates": [[[120.54040823752844, 31.430100256], [120.54030294253222, 31.430009792], [120.54040823752844, 31.430009792], [120.54040823752844, 31.430100256]]]}}, {"type": "Feature", "properties": {"area_ha": 0.0, "mean": null}, "geometry": {"type": "Polygon", "coordinates": [[[120.51829628832449, 31.430009792], [120.51819099332829, 31.429919328], [120.51829628832449, 31.429919328], [120.51829628832449, 31.430009792]]]}}, {"type": "Feature", "properties": {"area_ha": 0.0, "mean": null}, "geometry": {"type": "Polygon", "coordinates": [[[120.5184015833207, 31.429828864], [120.51829628832449, 31.4297384], [120.5184015833207, 31.4297384], [120.5184015833207, 31.429828864]]]}}, {"type": "Feature", "properties": {"area_ha": 0.01, "mean": 0.2863}, "geometry": {"type": "Polygon", "coordinates": [[[120.51850687831691, 31.429647936000002], [120.5184015833207, 31.429467008], [120.51850687831691, 31.429467008], [120.51850687831691, 31.429647936000002]]]}}, {"type": "Feature", "properties": {"area_ha": 0.0, "mean": null}, "geometry": {"type": "Polygon", "coordinates": [[[120.51861217331312, 31.429467008], [120.51850687831691, 31.429376544], [120.51861217331312, 31.429376544], [120.51861217331312, 31.429467008]]]}}, {"type": "Feature", "properties": {"area_ha": 0.0, "mean": null}, "geometry": {"type": "Polygon", "coordinates": [[[120.51871746830933, 31.429376544], [120.51861217331312, 31.42928608], [120.51871746830933, 31.42928608], [120.51871746830933, 31.429376544]]]}}, {"type": "Feature", "properties": {"area_ha": 0.0, "mean": null}, "geometry": {"type": "Polygon", "coordinates": [[[120.51892805830175, 31.42928608], [120.51882276330554, 31.429195616], [120.51892805830175, 31.429195616], [120.51892805830175, 31.42928608]]]}}, {"type": "Feature", "properties": {"area_ha": 0.0, "mean": null}, "geometry": {"type": "Polygon", "coordinates": [[[120.51903335329796, 31.429195616], [120.51892805830175, 31.429105152], [120.51903335329796, 31.429105152], [120.51903335329796, 31.429195616]]]}}, {"type": "Feature", "properties": {"area_ha": 0.0, "mean": null}, "geometry": {"type": "Polygon", "coordinates": [[[120.51892805830175, 31.428924224], [120.51882276330554, 31.42883376], [120.51892805830175, 31.42883376], [120.51892805830175, 31.428924224]]]}}, {"type": "Feature", "properties": {"area_ha": 0.0, "mean": null}, "geometry": {"type": "Polygon", "coordinates": [[[120.52082336823351, 31.42883376], [120.5207180732373, 31.428743296], [120.52082336823351, 31.428743296], [120.52082336823351, 31.42883376]]]}}, {"type": "Feature", "properties": {"area_ha": 0.01, "mean": 0.2444}, "geometry": {"type": "Polygon", "coordinates": [[[120.51892805830175, 31.428743296], [120.51882276330554, 31.428562368], [120.51892805830175, 31.428562368], [120.51892805830175, 31.428743296]]]}}, {"type": "Feature", "properties": {"area_ha": 0.0, "mean": null}, "geometry": {"type": "Polygon", "coordinates": [[[120.51903335329796, 31.428471904000002], [120.51892805830175, 31.42838144], [120.51903335329796, 31.42838144], [120.51903335329796, 31.428471904000002]]]}}, {"type": "Feature", "properties": {"area_ha": 0.0, "mean": null}, "geometry": {"type": "Polygon", "coordinates": [[[120.51913864829417, 31.428200512], [120.51903335329796, 31.428110048], [120.51913864829417, 31.428110048], [120.51913864829417, 31.428200512]]]}}, {"type": "Feature", "properties": {"area_ha": 0.0, "mean": null}, "geometry": {"type": "Polygon", "coordinates": [[[120.5206127782411, 31.428110048], [120.52050748324488, 31.428019584], [120.5206127782411, 31.428019584], [120.5206127782411, 31.428110048]]]}}, {"type": "Feature", "properties": {"area_ha": 0.0, "mean": null}, "geometry": {"type": "Polygon", "coordinates": [[[120.51924394329038, 31.428019584], [120.51913864829417, 31.42792912], [120.51924394329038, 31.42792912], [120.51924394329038, 31.428019584]]]}}, {"type": "Feature", "properties": {"area_ha": 0.0, "mean": null}, "geometry": {"type": "Polygon", "coordinates": [[[120.5207180732373, 31.428019584], [120.5206127782411, 31.42792912], [120.5207180732373, 31.42792912], [120.5207180732373, 31.428019584]]]}}, {"type": "Feature", "properties": {"area_ha": 0.02, "mean": 0.2117}, "geometry": {"type": "Polygon", "coordinates": [[[120.52198161319181, 31.427838656], [120.52156043320699, 31.427748192], [120.52198161319181, 31.427748192], [120.52198161319181, 31.427838656]]]}}, {"type": "Feature", "properties": {"area_ha": 0.01, "mean": 0.2519}, "geometry": {"type": "Polygon", "coordinates": [[[120.51934923828658, 31.427838656], [120.51924394329038, 31.427657728], [120.51934923828658, 31.427657728], [120.51934923828658, 31.427838656]]]}}, {"type": "Feature", "properties": {"area_ha": 0.01, "mean": 0.2104}, "geometry": {"type": "Polygon", "coordinates": [[[120.54051353252464, 31.427838656], [120.54040823752844, 31.427567264], [120.54051353252464, 31.427567264], [120.54051353252464, 31.427838656]]]}}, {"type": "Feature", "properties": {"area_ha": 0.4, "mean": 0.1708}, "geometry": {"type": "Polygon", "coordinates": [[[120.60874469006824, 31.428200512], [120.60779703510235, 31.428290976], [120.60800762509477, 31.4274768], [120.60874469006824, 31.428200512]], [[120.60800762509477, 31.42792912], [120.60821821508719, 31.428110048], [120.60811292009099, 31.42792912], [120.60800762509477, 31.42792912]]]}}, {"type": "Feature", "properties": {"area_ha": 0.0, "mean": null}, "geometry": {"type": "Polygon", "coordinates": [[[120.5194545332828, 31.427567264], [120.51934923828658, 31.4274768], [120.5194545332828, 31.4274768], [120.5194545332828, 31.427567264]]]}}, {"type": "Feature", "properties": {"area_ha": 0.01, "mean": 0.1849}, "geometry": {"type": "Polygon", "coordinates": [[[120.51987571326764, 31.427386336], [120.51966512327522, 31.427295872000002], [120.51987571326764, 31.427295872000002], [120.51987571326764, 31.427386336]]]}}, {"type": "Feature", "properties": {"area_ha": 0.0, "mean": null}, "geometry": {"type": "Polygon", "coordinates": [[[120.52008630326004, 31.427295872000002], [120.51998100826384, 31.427205408], [120.52008630326004, 31.427205408], [120.52008630326004, 31.427295872000002]]]}}, {"type": "Feature", "properties": {"area_ha": 0.0, "mean": null}, "geometry": {"type": "Polygon", "coordinates": [[[120.52324515314633, 31.427295872000002], [120.52313985815012, 31.427205408], [120.52324515314633, 31.427205408], [120.52324515314633, 31.427295872000002]]]}}, {"type": "Feature", "properties": {"area_ha": 0.01, "mean": 0.1368}, "geometry": {"type": "Polygon", "coordinates": [[[120.576419126232, 31.427295872000002], [120.57610324124337, 31.427205408], [120.576419126232, 31.427205408], [120.576419126232, 31.427295872000002]]]}}, {"type": "Feature", "properties": {"area_ha": 0.0, "mean": null}, "geometry": {"type": "Polygon", "coordinates": [[[120.57684030621684, 31.427295872000002], [120.57673501122062, 31.427205408], [120.57684030621684, 31.427205408], [120.57684030621684, 31.427295872000002]]]}}, {"type": "Feature", "properties": {"area_ha": 0.0, "mean": null}, "geometry": {"type": "Polygon", "coordinates": [[[120.52019159825626, 31.427205408], [120.52008630326004, 31.427114944], [120.52019159825626, 31.427114944], [120.52019159825626, 31.427205408]]]}}, {"type": "Feature", "properties": {"area_ha": 0.0, "mean": null}, "geometry": {"type": "Polygon", "coordinates": [[[120.57578735625474, 31.427205408], [120.57568206125853, 31.427114944], [120.57578735625474, 31.427114944], [120.57578735625474, 31.427205408]]]}}, {"type": "Feature", "properties": {"area_ha": 0.01, "mean": 0.1864}, "geometry": {"type": "Polygon", "coordinates": [[[120.52050748324488, 31.427114944], [120.52029689325246, 31.42702448], [120.52050748324488, 31.42702448], [120.52050748324488, 31.427114944]]]}}, {"type": "Feature", "properties": {"area_ha": 0.0, "mean": null}, "geometry": {"type": "Polygon", "coordinates": [[[120.57547147126611, 31.427114944], [120.57536617626991, 31.42702448], [120.57547147126611, 31.42702448], [120.57547147126611, 31.427114944]]]}}, {"type": "Feature", "properties": {"area_ha": 0.01, "mean": 0.1555}, "geometry": {"type": "Polygon", "coordinates": [[[120.51829628832449, 31.427114944], [120.51819099332829, 31.426934016], [120.51829628832449, 31.426934016], [120.51829628832449, 31.427114944]]]}}, {"type": "Feature", "properties": {"area_ha": 0.0, "mean": null}, "geometry": {"type": "Polygon", "coordinates": [[[120.54072412251706, 31.42702448], [120.54061882752086, 31.426934016], [120.54072412251706, 31.426934016], [120.54072412251706, 31.42702448]]]}}, {"type": "Feature", "properties": {"area_ha": 0.0, "mean": null}, "geometry": {"type": "Polygon", "coordinates": [[[120.57526088127369, 31.42702448], [120.57515558627749, 31.426934016], [120.57526088127369, 31.426934016], [120.57526088127369, 31.42702448]]]}}, {"type": "Feature", "properties": {"area_ha": 0.0, "mean": null}, "geometry": {"type": "Polygon", "coordinates": [[[120.52935226292647, 31.42657216], [120.52924696793025, 31.426481696], [120.52935226292647, 31.426481696], [120.52935226292647, 31.42657216]]]}}, {"type": "Feature", "properties": {"area_ha": 0.0, "mean": null}, "geometry": {"type": "Polygon", "coordinates": [[[120.54072412251706, 31.425124736], [120.54061882752086, 31.425034272], [120.54072412251706, 31.425034272], [120.54072412251706, 31.425124736]]]}}, {"type": "Feature", "properties": {"area_ha": 0.0, "mean": null}, "geometry": {"type": "Polygon", "coordinates": [[[120.60884998506445, 31.424853344], [120.60874469006824, 31.42476288], [120.60884998506445, 31.42476288], [120.60884998506445, 31.424853344]]]}}, {"type": "Feature", "properties": {"area_ha": 0.0, "mean": null}, "geometry": {"type": "Polygon", "coordinates": [[[120.60705997012889, 31.42476288], [120.60695467513268, 31.424672416], [120.60705997012889, 31.424672416], [120.60705997012889, 31.42476288]]]}}, {"type": "Feature", "properties": {"area_ha": 0.0, "mean": null}, "geometry": {"type": "Polygon", "coordinates": [[[120.6083235100834, 31.42476288], [120.60821821508719, 31.424672416], [120.6083235100834, 31.424672416], [120.6083235100834, 31.42476288]]]}}, {"type": "Feature", "properties": {"area_ha": 0.0, "mean": null}, "geometry": {"type": "Polygon", "coordinates": [[[120.60695467513268, 31.424672416], [120.60684938013647, 31.424581952], [120.60695467513268, 31.424581952], [120.60695467513268, 31.424672416]]]}}, {"type": "Feature", "properties": {"area_ha": 0.14, "mean": 0.1827}, "geometry": {"type": "Polygon", "coordinates": [[[120.60874469006824, 31.424853344], [120.60779703510235, 31.424853344], [120.60758644510993, 31.424581952], [120.60874469006824, 31.424853344]]]}}, {"type": "Feature", "properties": {"area_ha": 0.0, "mean": null}, "geometry": {"type": "Polygon", "coordinates": [[[120.53566996269902, 31.424581952], [120.53556466770281, 31.424491488], [120.53566996269902, 31.424491488], [120.53566996269902, 31.424581952]]]}}, {"type": "Feature", "properties": {"area_ha": 0.01, "mean": 0.2003}, "geometry": {"type": "Polygon", "coordinates": [[[120.60684938013647, 31.424581952], [120.60663879014405, 31.424491488], [120.60684938013647, 31.424491488], [120.60684938013647, 31.424581952]]]}}, {"type": "Feature", "properties": {"area_ha": 0.04, "mean": 0.2315}, "geometry": {"type": "Polygon", "coordinates": [[[120.60884998506445, 31.424401024], [120.60842880507961, 31.424491488], [120.60853410007581, 31.42431056], [120.60884998506445, 31.424401024]]]}}, {"type": "Feature", "properties": {"area_ha": 0.0, "mean": null}, "geometry": {"type": "Polygon", "coordinates": [[[120.54040823752844, 31.424039168], [120.54030294253222, 31.423948704], [120.54040823752844, 31.423948704], [120.54040823752844, 31.424039168]]]}}, {"type": "Feature", "properties": {"area_ha": 0.0, "mean": null}, "geometry": {"type": "Polygon", "coordinates": [[[120.58157858104624, 31.424039168], [120.58147328605004, 31.423948704], [120.58157858104624, 31.423948704], [120.58157858104624, 31.424039168]]]}}, {"type": "Feature", "properties": {"area_ha": 0.26, "mean": 0.1897}, "geometry": {"type": "Polygon", "coordinates": [[[120.60758644510993, 31.423496384], [120.60695467513268, 31.423586848], [120.6071652651251, 31.422772672], [120.60758644510993, 31.423496384]]]}}, {"type": "Feature", "properties": {"area_ha": 0.01, "mean": 0.4074}, "geometry": {"type": "Polygon", "coordinates": [[[120.54272472744503, 31.4229536], [120.54261943244883, 31.422772672], [120.54272472744503, 31.422772672], [120.54272472744503, 31.4229536]]]}}, {"type": "Feature", "properties": {"area_ha": 0.0, "mean": null}, "geometry": {"type": "Polygon", "coordinates": [[[120.54051353252464, 31.422682208], [120.54040823752844, 31.422591744], [120.54051353252464, 31.422591744], [120.54051353252464, 31.422682208]]]}}, {"type": "Feature", "properties": {"area_ha": 0.0, "mean": null}, "geometry": {"type": "Polygon", "coordinates": [[[120.57999915610311, 31.422591744], [120.5798938611069, 31.42250128], [120.57999915610311, 31.42250128], [120.57999915610311, 31.422591744]]]}}, {"type": "Feature", "properties": {"area_ha": 0.0, "mean": null}, "geometry": {"type": "Polygon", "coordinates": [[[120.54061882752086, 31.42250128], [120.54051353252464, 31.422410816], [120.54061882752086, 31.422410816], [120.54061882752086, 31.42250128]]]}}, {"type": "Feature", "properties": {"area_ha": 0.0, "mean": null}, "geometry": {"type": "Polygon", "coordinates": [[[120.54293531743745, 31.42250128], [120.54283002244125, 31.422410816], [120.54293531743745, 31.422410816], [120.54293531743745, 31.42250128]]]}}, {"type": "Feature", "properties": {"area_ha": 0.0, "mean": null}, "geometry": {"type": "Polygon", "coordinates": [[[120.57968327111449, 31.42250128], [120.57957797611827, 31.422410816], [120.57968327111449, 31.422410816], [120.57968327111449, 31.42250128]]]}}, {"type": "Feature", "properties": {"area_ha": 0.0, "mean": null}, "geometry": {"type": "Polygon", "coordinates": [[[120.58073622107658, 31.422320352], [120.58063092608037, 31.422229888], [120.58073622107658, 31.422229888], [120.58073622107658, 31.422320352]]]}}, {"type": "Feature", "properties": {"area_ha": 0.08, "mean": 0.1672}, "geometry": {"type": "Polygon", "coordinates": [[[120.60758644510993, 31.422682208], [120.60737585511751, 31.422229888], [120.60769174010615, 31.422139424], [120.60758644510993, 31.422682208]]]}}, {"type": "Feature", "properties": {"area_ha": 0.0, "mean": null}, "geometry": {"type": "Polygon", "coordinates": [[[120.5810521060652, 31.422139424], [120.580946811069, 31.42204896], [120.5810521060652, 31.42204896], [120.5810521060652, 31.422139424]]]}}, {"type": "Feature", "properties": {"area_ha": 0.01, "mean": 0.1726}, "geometry": {"type": "Polygon", "coordinates": [[[120.60790233009857, 31.422139424], [120.60769174010615, 31.42204896], [120.60790233009857, 31.42204896], [120.60790233009857, 31.422139424]]]}}, {"type": "Feature", "properties": {"area_ha": 0.0, "mean": null}, "geometry": {"type": "Polygon", "coordinates": [[[120.58400036595907, 31.42204896], [120.58389507096285, 31.421958496000002], [120.58400036595907, 31.421958496000002], [120.58400036595907, 31.42204896]]]}}, {"type": "Feature", "properties": {"area_ha": 0.0, "mean": null}, "geometry": {"type": "Polygon", "coordinates": [[[120.54093471250948, 31.421868032], [120.54082941751327, 31.421777568], [120.54093471250948, 31.421777568], [120.54093471250948, 31.421868032]]]}}, {"type": "Feature", "properties": {"area_ha": 0.01, "mean": 0.2271}, "geometry": {"type": "Polygon", "coordinates": [[[120.5844215459439, 31.421868032], [120.58421095595148, 31.421777568], [120.5844215459439, 31.421777568], [120.5844215459439, 31.421868032]]]}}, {"type": "Feature", "properties": {"area_ha": 0.0, "mean": null}, "geometry": {"type": "Polygon", "coordinates": [[[120.58199976103108, 31.421415712], [120.58189446603488, 31.421325248], [120.58199976103108, 31.421325248], [120.58199976103108, 31.421415712]]]}}, {"type": "Feature", "properties": {"area_ha": 0.0, "mean": null}, "geometry": {"type": "Polygon", "coordinates": [[[120.58273682600455, 31.421053856], [120.58263153100835, 31.420963392], [120.58273682600455, 31.420963392], [120.58273682600455, 31.421053856]]]}}, {"type": "Feature", "properties": {"area_ha": 0.0, "mean": null}, "geometry": {"type": "Polygon", "coordinates": [[[120.58315800598939, 31.420782464000002], [120.58305271099319, 31.420692], [120.58315800598939, 31.420692], [120.58315800598939, 31.420782464000002]]]}}, {"type": "Feature", "properties": {"area_ha": 0.0, "mean": null}, "geometry": {"type": "Polygon", "coordinates": [[[120.58326330098559, 31.420511072], [120.58315800598939, 31.420420608], [120.58326330098559, 31.420420608], [120.58326330098559, 31.420511072]]]}}, {"type": "Feature", "properties": {"area_ha": 0.0, "mean": null}, "geometry": {"type": "Polygon", "coordinates": [[[120.5411453025019, 31.420420608], [120.54104000750569, 31.420330144], [120.5411453025019, 31.420330144], [120.5411453025019, 31.420420608]]]}}, {"type": "Feature", "properties": {"area_ha": 0.0, "mean": null}, "geometry": {"type": "Polygon", "coordinates": [[[120.58336859598181, 31.420330144], [120.58326330098559, 31.42023968], [120.58336859598181, 31.42023968], [120.58336859598181, 31.420330144]]]}}, {"type": "Feature", "properties": {"area_ha": 0.1, "mean": 0.313}, "geometry": {"type": "Polygon", "coordinates": [[[120.54398826739956, 31.420330144], [120.5434617924185, 31.420511072], [120.5434617924185, 31.420149216], [120.54398826739956, 31.420330144]]]}}, {"type": "Feature", "properties": {"area_ha": 0.0, "mean": null}, "geometry": {"type": "Polygon", "coordinates": [[[120.5434617924185, 31.420149216], [120.5433564974223, 31.420058752], [120.5434617924185, 31.420058752], [120.5434617924185, 31.420149216]]]}}, {"type": "Feature", "properties": {"area_ha": 0.01, "mean": 0.1445}, "geometry": {"type": "Polygon", "coordinates": [[[120.58705392084913, 31.420330144], [120.58694862585293, 31.42023968], [120.58705392084913, 31.419968288], [120.58705392084913, 31.420330144]]]}}, {"type": "Feature", "properties": {"area_ha": 0.0, "mean": null}, "geometry": {"type": "Polygon", "coordinates": [[[120.5433564974223, 31.420058752], [120.54325120242609, 31.419968288], [120.5433564974223, 31.419968288], [120.5433564974223, 31.420058752]]]}}, {"type": "Feature", "properties": {"area_ha": 0.0, "mean": null}, "geometry": {"type": "Polygon", "coordinates": [[[120.54325120242609, 31.419968288], [120.54314590742987, 31.419877824], [120.54325120242609, 31.419877824], [120.54325120242609, 31.419968288]]]}}, {"type": "Feature", "properties": {"area_ha": 0.0, "mean": null}, "geometry": {"type": "Polygon", "coordinates": [[[120.58378977596665, 31.419968288], [120.58368448097043, 31.419877824], [120.58378977596665, 31.419877824], [120.58378977596665, 31.419968288]]]}}, {"type": "Feature", "properties": {"area_ha": 0.0, "mean": null}, "geometry": {"type": "Polygon", "coordinates": [[[120.5877909858226, 31.419968288], [120.58768569082639, 31.419877824], [120.5877909858226, 31.419877824], [120.5877909858226, 31.419968288]]]}}, {"type": "Feature", "properties": {"area_ha": 0.04, "mean": 0.1155}, "geometry": {"type": "Polygon", "coordinates": [[[120.58768569082639, 31.420149216], [120.58726451084155, 31.41978736], [120.58747510083397, 31.419696896], [120.58768569082639, 31.420149216]]]}}, {"type": "Feature", "properties": {"area_ha": 0.01, "mean": 0.1444}, "geometry": {"type": "Polygon", "coordinates": [[[120.58421095595148, 31.419696896], [120.58389507096285, 31.419606432000002], [120.58421095595148, 31.419606432000002], [120.58421095595148, 31.419696896]]]}}, {"type": "Feature", "properties": {"area_ha": 0.0, "mean": null}, "geometry": {"type": "Polygon", "coordinates": [[[120.54304061243367, 31.419606432000002], [120.54293531743745, 31.419515968], [120.54304061243367, 31.419515968], [120.54304061243367, 31.419606432000002]]]}}, {"type": "Feature", "properties": {"area_ha": 0.0, "mean": null}, "geometry": {"type": "Polygon", "coordinates": [[[120.58473743093253, 31.419515968], [120.58463213593632, 31.419425504], [120.58473743093253, 31.419425504], [120.58473743093253, 31.419515968]]]}}, {"type": "Feature", "properties": {"area_ha": 0.0, "mean": null}, "geometry": {"type": "Polygon", "coordinates": [[[120.54440944738438, 31.419425504], [120.54430415238818, 31.41933504], [120.54440944738438, 31.41933504], [120.54440944738438, 31.419425504]]]}}, {"type": "Feature", "properties": {"area_ha": 0.01, "mean": 0.133}, "geometry": {"type": "Polygon", "coordinates": [[[120.58694862585293, 31.419425504], [120.5867380358605, 31.41933504], [120.58694862585293, 31.41933504], [120.58694862585293, 31.419425504]]]}}, {"type": "Feature", "properties": {"area_ha": 0.0, "mean": null}, "geometry": {"type": "Polygon", "coordinates": [[[120.54051353252464, 31.41933504], [120.54040823752844, 31.419244576], [120.54051353252464, 31.419244576], [120.54051353252464, 31.41933504]]]}}, {"type": "Feature", "properties": {"area_ha": 0.0, "mean": null}, "geometry": {"type": "Polygon", "coordinates": [[[120.54430415238818, 31.41933504], [120.54419885739196, 31.419244576], [120.54430415238818, 31.419244576], [120.54430415238818, 31.41933504]]]}}, {"type": "Feature", "properties": {"area_ha": 0.0, "mean": null}, "geometry": {"type": "Polygon", "coordinates": [[[120.5877909858226, 31.41933504], [120.58768569082639, 31.419244576], [120.5877909858226, 31.419244576], [120.5877909858226, 31.41933504]]]}}, {"type": "Feature", "properties": {"area_ha": 0.0, "mean": null}, "geometry": {"type": "Polygon", "coordinates": [[[120.58915982077332, 31.419154112], [120.5890545257771, 31.419063648], [120.58915982077332, 31.419063648], [120.58915982077332, 31.419154112]]]}}, {"type": "Feature", "properties": {"area_ha": 0.0, "mean": null}, "geometry": {"type": "Polygon", "coordinates": [[[120.54251413745261, 31.419063648], [120.54240884245641, 31.418973184], [120.54251413745261, 31.418973184], [120.54251413745261, 31.419063648]]]}}, {"type": "Feature", "properties": {"area_ha": 0.0, "mean": null}, "geometry": {"type": "Polygon", "coordinates": [[[120.5855797909022, 31.419063648], [120.585474495906, 31.418973184], [120.5855797909022, 31.418973184], [120.5855797909022, 31.419063648]]]}}, {"type": "Feature", "properties": {"area_ha": 0.0, "mean": null}, "geometry": {"type": "Polygon", "coordinates": [[[120.58926511576952, 31.419063648], [120.58915982077332, 31.418973184], [120.58926511576952, 31.418973184], [120.58926511576952, 31.419063648]]]}}, {"type": "Feature", "properties": {"area_ha": 0.0, "mean": null}, "geometry": {"type": "Polygon", "coordinates": [[[120.54325120242609, 31.418973184], [120.54314590742987, 31.41888272], [120.54325120242609, 31.41888272], [120.54325120242609, 31.418973184]]]}}, {"type": "Feature", "properties": {"area_ha": 0.0, "mean": null}, "geometry": {"type": "Polygon", "coordinates": [[[120.58600097088704, 31.418973184], [120.58589567589082, 31.41888272], [120.58600097088704, 31.41888272], [120.58600097088704, 31.418973184]]]}}, {"type": "Feature", "properties": {"area_ha": 0.0, "mean": null}, "geometry": {"type": "Polygon", "coordinates": [[[120.58852805079606, 31.41888272], [120.58842275579985, 31.418792256], [120.58852805079606, 31.418792256], [120.58852805079606, 31.41888272]]]}}, {"type": "Feature", "properties": {"area_ha": 0.01, "mean": 0.1525}, "geometry": {"type": "Polygon", "coordinates": [[[120.5888439357847, 31.41888272], [120.58863334579227, 31.418792256], [120.5888439357847, 31.418792256], [120.5888439357847, 31.41888272]]]}}, {"type": "Feature", "properties": {"area_ha": 0.0, "mean": null}, "geometry": {"type": "Polygon", "coordinates": [[[120.58631685587567, 31.418792256], [120.58621156087946, 31.418701792], [120.58631685587567, 31.418701792], [120.58631685587567, 31.418792256]]]}}, {"type": "Feature", "properties": {"area_ha": 0.04, "mean": 0.1406}, "geometry": {"type": "Polygon", "coordinates": [[[120.58958100075816, 31.418792256], [120.58926511576952, 31.418611328], [120.58968629575436, 31.418611328], [120.58958100075816, 31.418792256]]]}}, {"type": "Feature", "properties": {"area_ha": 0.0, "mean": null}, "geometry": {"type": "Polygon", "coordinates": [[[120.58642215087188, 31.418611328], [120.58631685587567, 31.418520864], [120.58642215087188, 31.418520864], [120.58642215087188, 31.418611328]]]}}, {"type": "Feature", "properties": {"area_ha": 0.0, "mean": null}, "geometry": {"type": "Polygon", "coordinates": [[[120.58663274086429, 31.418430400000002], [120.58652744586809, 31.418339936], [120.58663274086429, 31.418339936], [120.58663274086429, 31.418430400000002]]]}}, {"type": "Feature", "properties": {"area_ha": 0.0, "mean": null}, "geometry": {"type": "Polygon", "coordinates": [[[120.5867380358605, 31.418339936], [120.58663274086429, 31.418249472], [120.5867380358605, 31.418249472], [120.5867380358605, 31.418339936]]]}}, {"type": "Feature", "properties": {"area_ha": 0.0, "mean": null}, "geometry": {"type": "Polygon", "coordinates": [[[120.5901074757392, 31.418339936], [120.59000218074299, 31.418249472], [120.5901074757392, 31.418249472], [120.5901074757392, 31.418339936]]]}}, {"type": "Feature", "properties": {"area_ha": 0.0, "mean": null}, "geometry": {"type": "Polygon", "coordinates": [[[120.58715921584535, 31.418068544], [120.58705392084913, 31.41797808], [120.58715921584535, 31.41797808], [120.58715921584535, 31.418068544]]]}}, {"type": "Feature", "properties": {"area_ha": 0.0, "mean": null}, "geometry": {"type": "Polygon", "coordinates": [[[120.58979159075058, 31.418068544], [120.58968629575436, 31.41797808], [120.58979159075058, 31.41797808], [120.58979159075058, 31.418068544]]]}}, {"type": "Feature", "properties": {"area_ha": 0.0, "mean": null}, "geometry": {"type": "Polygon", "coordinates": [[[120.59063395072025, 31.418068544], [120.59052865572404, 31.41797808], [120.59063395072025, 31.41797808], [120.59063395072025, 31.418068544]]]}}, {"type": "Feature", "properties": {"area_ha": 0.0, "mean": null}, "geometry": {"type": "Polygon", "coordinates": [[[120.59073924571645, 31.41797808], [120.59063395072025, 31.417887616], [120.59073924571645, 31.417887616], [120.59073924571645, 31.41797808]]]}}, {"type": "Feature", "properties": {"area_ha": 0.0, "mean": null}, "geometry": {"type": "Polygon", "coordinates": [[[120.59105513070509, 31.417797152], [120.59094983570887, 31.417706688], [120.59105513070509, 31.417706688], [120.59105513070509, 31.417797152]]]}}, {"type": "Feature", "properties": {"area_ha": 0.0, "mean": null}, "geometry": {"type": "Polygon", "coordinates": [[[120.59116042570129, 31.417706688], [120.59105513070509, 31.417616224], [120.59116042570129, 31.417616224], [120.59116042570129, 31.417706688]]]}}, {"type": "Feature", "properties": {"area_ha": 0.01, "mean": 0.1421}, "geometry": {"type": "Polygon", "coordinates": [[[120.59147631068993, 31.417616224], [120.5912657206975, 31.417435296], [120.59147631068993, 31.417435296], [120.59147631068993, 31.417616224]]]}}, {"type": "Feature", "properties": {"area_ha": 0.0, "mean": null}, "geometry": {"type": "Polygon", "coordinates": [[[120.54293531743745, 31.417344832], [120.54283002244125, 31.417254368000002], [120.54293531743745, 31.417254368000002], [120.54293531743745, 31.417344832]]]}}, {"type": "Feature", "properties": {"area_ha": 0.0, "mean": null}, "geometry": {"type": "Polygon", "coordinates": [[[120.53977646755118, 31.416982976], [120.53967117255497, 31.416892512], [120.53977646755118, 31.416892512], [120.53977646755118, 31.416982976]]]}}, {"type": "Feature", "properties": {"area_ha": 0.01, "mean": 0.145}, "geometry": {"type": "Polygon", "coordinates": [[[120.59147631068993, 31.416982976], [120.5912657206975, 31.416892512], [120.59147631068993, 31.416892512], [120.59147631068993, 31.416982976]]]}}, {"type": "Feature", "properties": {"area_ha": 0.01, "mean": 0.1257}, "geometry": {"type": "Polygon", "coordinates": [[[120.59105513070509, 31.416982976], [120.59094983570887, 31.416802048], [120.59105513070509, 31.416802048], [120.59105513070509, 31.416982976]]]}}, {"type": "Feature", "properties": {"area_ha": 0.0, "mean": null}, "geometry": {"type": "Polygon", "coordinates": [[[120.5901074757392, 31.416892512], [120.59000218074299, 31.416802048], [120.5901074757392, 31.416802048], [120.5901074757392, 31.416892512]]]}}, {"type": "Feature", "properties": {"area_ha": 0.0, "mean": null}, "geometry": {"type": "Polygon", "coordinates": [[[120.59042336072783, 31.41662112], [120.59031806573162, 31.416530656], [120.59042336072783, 31.416530656], [120.59042336072783, 31.41662112]]]}}, {"type": "Feature", "properties": {"area_ha": 0.01, "mean": 0.1502}, "geometry": {"type": "Polygon", "coordinates": [[[120.59189749067475, 31.416530656], [120.59179219567855, 31.416440192], [120.59210808066717, 31.416440192], [120.59189749067475, 31.416530656]]]}}, {"type": "Feature", "properties": {"area_ha": 0.0, "mean": null}, "geometry": {"type": "Polygon", "coordinates": [[[120.5923186706596, 31.416530656], [120.59221337566339, 31.416440192], [120.5923186706596, 31.416440192], [120.5923186706596, 31.416530656]]]}}, {"type": "Feature", "properties": {"area_ha": 0.01, "mean": 0.1481}, "geometry": {"type": "Polygon", "coordinates": [[[120.59094983570887, 31.416530656], [120.59084454071267, 31.416349728], [120.59094983570887, 31.416349728], [120.59094983570887, 31.416530656]]]}}, {"type": "Feature", "properties": {"area_ha": 0.0, "mean": null}, "geometry": {"type": "Polygon", "coordinates": [[[120.59221337566339, 31.416440192], [120.59210808066717, 31.416349728], [120.59221337566339, 31.416349728], [120.59221337566339, 31.416440192]]]}}, {"type": "Feature", "properties": {"area_ha": 0.0, "mean": null}, "geometry": {"type": "Polygon", "coordinates": [[[120.54167177748295, 31.416349728], [120.54156648248674, 31.416259264], [120.54167177748295, 31.416259264], [120.54167177748295, 31.416349728]]]}}, {"type": "Feature", "properties": {"area_ha": 0.0, "mean": null}, "geometry": {"type": "Polygon", "coordinates": [[[120.59221337566339, 31.415897408], [120.59210808066717, 31.415806944], [120.59221337566339, 31.415806944], [120.59221337566339, 31.415897408]]]}}, {"type": "Feature", "properties": {"area_ha": 0.03, "mean": 0.1306}, "geometry": {"type": "Polygon", "coordinates": [[[120.59252926065201, 31.415897408], [120.5924239656558, 31.415626016], [120.59263455564822, 31.415626016], [120.59252926065201, 31.415897408]]]}}, {"type": "Feature", "properties": {"area_ha": 0.05, "mean": 0.1441}, "geometry": {"type": "Polygon", "coordinates": [[[120.59200278567097, 31.415987872], [120.59179219567855, 31.415626016], [120.59200278567097, 31.415535552], [120.59200278567097, 31.415987872]]]}}, {"type": "Feature", "properties": {"area_ha": 0.0, "mean": null}, "geometry": {"type": "Polygon", "coordinates": [[[120.59252926065201, 31.415535552], [120.5924239656558, 31.415445088000002], [120.59252926065201, 31.415445088000002], [120.59252926065201, 31.415535552]]]}}, {"type": "Feature", "properties": {"area_ha": 0.0, "mean": null}, "geometry": {"type": "Polygon", "coordinates": [[[120.59221337566339, 31.415083232], [120.59210808066717, 31.414992768], [120.59221337566339, 31.414992768], [120.59221337566339, 31.415083232]]]}}, {"type": "Feature", "properties": {"area_ha": 0.01, "mean": 0.3214}, "geometry": {"type": "Polygon", "coordinates": [[[120.52945755792267, 31.414540448], [120.52924696793025, 31.414449984], [120.52945755792267, 31.414449984], [120.52945755792267, 31.414540448]]]}}, {"type": "Feature", "properties": {"area_ha": 0.01, "mean": 0.1564}, "geometry": {"type": "Polygon", "coordinates": [[[120.54219825246399, 31.414088128], [120.54209295746779, 31.4139072], [120.54219825246399, 31.4139072], [120.54219825246399, 31.414088128]]]}}, {"type": "Feature", "properties": {"area_ha": 0.0, "mean": null}, "geometry": {"type": "Polygon", "coordinates": [[[120.54230354746021, 31.413545344], [120.54219825246399, 31.41345488], [120.54230354746021, 31.41345488], [120.54230354746021, 31.413545344]]]}}, {"type": "Feature", "properties": {"area_ha": 0.01, "mean": 0.1397}, "geometry": {"type": "Polygon", "coordinates": [[[120.54240884245641, 31.413183488], [120.54230354746021, 31.41300256], [120.54240884245641, 31.41300256], [120.54240884245641, 31.413183488]]]}}, {"type": "Feature", "properties": {"area_ha": 0.0, "mean": null}, "geometry": {"type": "Polygon", "coordinates": [[[120.54251413745261, 31.412821632], [120.54240884245641, 31.412731168], [120.54251413745261, 31.412731168], [120.54251413745261, 31.412821632]]]}}, {"type": "Feature", "properties": {"area_ha": 0.0, "mean": null}, "geometry": {"type": "Polygon", "coordinates": [[[120.5947404555724, 31.412459776], [120.5946351605762, 31.412369312], [120.5947404555724, 31.412369312], [120.5947404555724, 31.412459776]]]}}, {"type": "Feature", "properties": {"area_ha": 0.01, "mean": 0.2679}, "geometry": {"type": "Polygon", "coordinates": [[[120.59537222554967, 31.412459776], [120.59526693055345, 31.412278848], [120.59537222554967, 31.412278848], [120.59537222554967, 31.412459776]]]}}, {"type": "Feature", "properties": {"area_ha": 0.0, "mean": null}, "geometry": {"type": "Polygon", "coordinates": [[[120.59600399552691, 31.412278848], [120.59589870053071, 31.412188384], [120.59600399552691, 31.412188384], [120.59600399552691, 31.412278848]]]}}, {"type": "Feature", "properties": {"area_ha": 0.04, "mean": 0.2255}, "geometry": {"type": "Polygon", "coordinates": [[[120.59505634056103, 31.412188384], [120.59484575056861, 31.412369312], [120.59484575056861, 31.41209792], [120.59505634056103, 31.412188384]]]}}, {"type": "Feature", "properties": {"area_ha": 0.04, "mean": 0.239}, "geometry": {"type": "Polygon", "coordinates": [[[120.5946351605762, 31.412188384], [120.59421398059136, 31.412188384], [120.59431927558757, 31.412007456], [120.5946351605762, 31.412188384]]]}}, {"type": "Feature", "properties": {"area_ha": 0.0, "mean": null}, "geometry": {"type": "Polygon", "coordinates": [[[120.59589870053071, 31.411826528], [120.5957934055345, 31.411736064], [120.59589870053071, 31.411736064], [120.59589870053071, 31.411826528]]]}}, {"type": "Feature", "properties": {"area_ha": 0.08, "mean": 0.2426}, "geometry": {"type": "Polygon", "coordinates": [[[120.59631988051555, 31.411826528], [120.59589870053071, 31.412007456], [120.59589870053071, 31.4116456], [120.59631988051555, 31.411826528]]]}}, {"type": "Feature", "properties": {"area_ha": 0.24, "mean": 0.2545}, "geometry": {"type": "Polygon", "coordinates": [[[120.59431927558757, 31.412007456], [120.59379280060652, 31.411916992000002], [120.59379280060652, 31.4116456], [120.59431927558757, 31.411464672], [120.59442457058378, 31.411736064], [120.59431927558757, 31.411736064], [120.59431927558757, 31.412007456]], [[120.59421398059136, 31.4116456], [120.59431927558757, 31.411736064], [120.59431927558757, 31.4116456], [120.59421398059136, 31.4116456]]]}}, {"type": "Feature", "properties": {"area_ha": 0.0, "mean": null}, "geometry": {"type": "Polygon", "coordinates": [[[120.60074227035633, 31.411555136], [120.60063697536013, 31.411464672], [120.60074227035633, 31.411464672], [120.60074227035633, 31.411555136]]]}}, {"type": "Feature", "properties": {"area_ha": 0.01, "mean": 0.1624}, "geometry": {"type": "Polygon", "coordinates": [[[120.60011050037907, 31.411555136], [120.59989991038665, 31.411374208], [120.60011050037907, 31.411374208], [120.60011050037907, 31.411555136]]]}}, {"type": "Feature", "properties": {"area_ha": 0.0, "mean": null}, "geometry": {"type": "Polygon", "coordinates": [[[120.59989991038665, 31.411374208], [120.59979461539045, 31.411283744], [120.59989991038665, 31.411283744], [120.59989991038665, 31.411374208]]]}}, {"type": "Feature", "properties": {"area_ha": 0.01, "mean": 0.1399}, "geometry": {"type": "Polygon", "coordinates": [[[120.59979461539045, 31.411283744], [120.59958402539803, 31.41119328], [120.59979461539045, 31.41119328], [120.59979461539045, 31.411283744]]]}}, {"type": "Feature", "properties": {"area_ha": 0.02, "mean": 0.1224}, "geometry": {"type": "Polygon", "coordinates": [[[120.55872956686885, 31.411374208], [120.55851897687643, 31.411102816], [120.55862427187263, 31.411102816], [120.55872956686885, 31.411374208]]]}}, {"type": "Feature", "properties": {"area_ha": 0.01, "mean": 0.2059}, "geometry": {"type": "Polygon", "coordinates": [[[120.60116345034118, 31.411283744], [120.60095286034876, 31.411102816], [120.60116345034118, 31.411102816], [120.60116345034118, 31.411283744]]]}}, {"type": "Feature", "properties": {"area_ha": 0.0, "mean": null}, "geometry": {"type": "Polygon", "coordinates": [[[120.59410868559515, 31.411012352], [120.59400339059894, 31.410921888], [120.59410868559515, 31.410921888], [120.59410868559515, 31.411012352]]]}}, {"type": "Feature", "properties": {"area_ha": 0.0, "mean": null}, "geometry": {"type": "Polygon", "coordinates": [[[120.60116345034118, 31.410921888], [120.60105815534496, 31.410831424], [120.60116345034118, 31.410831424], [120.60116345034118, 31.410921888]]]}}, {"type": "Feature", "properties": {"area_ha": 0.0, "mean": null}, "geometry": {"type": "Polygon", "coordinates": [[[120.59073924571645, 31.410650496], [120.59063395072025, 31.410560032], [120.59073924571645, 31.410560032], [120.59073924571645, 31.410650496]]]}}, {"type": "Feature", "properties": {"area_ha": 0.0, "mean": null}, "geometry": {"type": "Polygon", "coordinates": [[[120.52198161319181, 31.410017248], [120.52187631819561, 31.409926784], [120.52198161319181, 31.409926784], [120.52198161319181, 31.410017248]]]}}, {"type": "Feature", "properties": {"area_ha": 0.01, "mean": 0.1357}, "geometry": {"type": "Polygon", "coordinates": [[[120.60232169529948, 31.410017248], [120.60211110530706, 31.409926784], [120.60232169529948, 31.409926784], [120.60232169529948, 31.410017248]]]}}, {"type": "Feature", "properties": {"area_ha": 0.03, "mean": 0.1343}, "geometry": {"type": "Polygon", "coordinates": [[[120.60253228529189, 31.409926784], [120.60253228529189, 31.409655392], [120.6027428752843, 31.409655392], [120.60253228529189, 31.409926784]]]}}, {"type": "Feature", "properties": {"area_ha": 0.01, "mean": 0.1424}, "geometry": {"type": "Polygon", "coordinates": [[[120.60305876027294, 31.409655392], [120.60284817028052, 31.409564928], [120.60305876027294, 31.409564928], [120.60305876027294, 31.409655392]]]}}, {"type": "Feature", "properties": {"area_ha": 0.0, "mean": null}, "geometry": {"type": "Polygon", "coordinates": [[[120.60316405526915, 31.409564928], [120.60305876027294, 31.409474464], [120.60316405526915, 31.409474464], [120.60316405526915, 31.409564928]]]}}, {"type": "Feature", "properties": {"area_ha": 0.0, "mean": null}, "geometry": {"type": "Polygon", "coordinates": [[[120.5923186706596, 31.40893168], [120.59221337566339, 31.408841216], [120.5923186706596, 31.408841216], [120.5923186706596, 31.40893168]]]}}, {"type": "Feature", "properties": {"area_ha": 0.01, "mean": 0.1357}, "geometry": {"type": "Polygon", "coordinates": [[[120.54398826739956, 31.4071224], [120.54388297240334, 31.406941472], [120.54398826739956, 31.406941472], [120.54398826739956, 31.4071224]]]}}, {"type": "Feature", "properties": {"area_ha": 0.0, "mean": null}, "geometry": {"type": "Polygon", "coordinates": [[[120.56399431667931, 31.406127296], [120.5638890216831, 31.406036832], [120.56399431667931, 31.406036832], [120.56399431667931, 31.406127296]]]}}, {"type": "Feature", "properties": {"area_ha": 0.01, "mean": 0.1246}, "geometry": {"type": "Polygon", "coordinates": [[[120.56378372668689, 31.40576544], [120.56357313669447, 31.405674976], [120.56378372668689, 31.405674976], [120.56378372668689, 31.40576544]]]}}, {"type": "Feature", "properties": {"area_ha": 0.0, "mean": null}, "geometry": {"type": "Polygon", "coordinates": [[[120.56409961167552, 31.405403584000002], [120.56399431667931, 31.40531312], [120.56409961167552, 31.40531312], [120.56409961167552, 31.405403584000002]]]}}, {"type": "Feature", "properties": {"area_ha": 0.01, "mean": 0.1288}, "geometry": {"type": "Polygon", "coordinates": [[[120.57736678119788, 31.404318016], [120.57726148620168, 31.40440848], [120.57715619120546, 31.404318016], [120.57736678119788, 31.404318016]]]}}, {"type": "Feature", "properties": {"area_ha": 0.0, "mean": null}, "geometry": {"type": "Polygon", "coordinates": [[[120.54356708741471, 31.404046624], [120.5434617924185, 31.40395616], [120.54356708741471, 31.40395616], [120.54356708741471, 31.404046624]]]}}, {"type": "Feature", "properties": {"area_ha": 0.02, "mean": 0.1507}, "geometry": {"type": "Polygon", "coordinates": [[[120.57789325617892, 31.40395616], [120.5776826661865, 31.403865696], [120.57789325617892, 31.403775232], [120.57789325617892, 31.40395616]]]}}, {"type": "Feature", "properties": {"area_ha": 0.01, "mean": 0.1246}, "geometry": {"type": "Polygon", "coordinates": [[[120.57747207619408, 31.40350384], [120.57726148620168, 31.403413376], [120.57747207619408, 31.403413376], [120.57747207619408, 31.40350384]]]}}, {"type": "Feature", "properties": {"area_ha": 0.0, "mean": null}, "geometry": {"type": "Polygon", "coordinates": [[[120.57726148620168, 31.403413376], [120.57715619120546, 31.403322912], [120.57726148620168, 31.403322912], [120.57726148620168, 31.403413376]]]}}, {"type": "Feature", "properties": {"area_ha": 0.01, "mean": 0.1409}, "geometry": {"type": "Polygon", "coordinates": [[[120.54325120242609, 31.402780128], [120.54314590742987, 31.4025992], [120.54325120242609, 31.4025992], [120.54325120242609, 31.402780128]]]}}, {"type": "Feature", "properties": {"area_ha": 0.06, "mean": 0.1264}, "geometry": {"type": "Polygon", "coordinates": [[[120.57210203138742, 31.401965952], [120.57168085140258, 31.401785024], [120.57210203138742, 31.40169456], [120.57210203138742, 31.401965952]]]}}, {"type": "Feature", "properties": {"area_ha": 0.03, "mean": 0.1821}, "geometry": {"type": "Polygon", "coordinates": [[[120.57157555640637, 31.40169456], [120.57104908142533, 31.401785024], [120.57104908142533, 31.40169456], [120.57157555640637, 31.40169456]]]}}, {"type": "Feature", "properties": {"area_ha": 0.0, "mean": null}, "geometry": {"type": "Polygon", "coordinates": [[[120.56420490667172, 31.400156672], [120.56409961167552, 31.400066208], [120.56420490667172, 31.400066208], [120.56420490667172, 31.400156672]]]}}, {"type": "Feature", "properties": {"area_ha": 0.01, "mean": 0.1521}, "geometry": {"type": "Polygon", "coordinates": [[[120.56462608665656, 31.400156672], [120.56431020166794, 31.400066208], [120.56462608665656, 31.400066208], [120.56462608665656, 31.400156672]]]}}, {"type": "Feature", "properties": {"area_ha": 0.0, "mean": null}, "geometry": {"type": "Polygon", "coordinates": [[[120.56473138165278, 31.400066208], [120.56462608665656, 31.399975744], [120.56473138165278, 31.399975744], [120.56473138165278, 31.400066208]]]}}, {"type": "Feature", "properties": {"area_ha": 0.0, "mean": null}, "geometry": {"type": "Polygon", "coordinates": [[[120.56462608665656, 31.399975744], [120.56452079166036, 31.39988528], [120.56462608665656, 31.39988528], [120.56462608665656, 31.399975744]]]}}, {"type": "Feature", "properties": {"area_ha": 0.01, "mean": 0.1741}, "geometry": {"type": "Polygon", "coordinates": [[[120.54325120242609, 31.399523424], [120.54314590742987, 31.399342496], [120.54325120242609, 31.399342496], [120.54325120242609, 31.399523424]]]}}, {"type": "Feature", "properties": {"area_ha": 0.0, "mean": null}, "geometry": {"type": "Polygon", "coordinates": [[[120.5433564974223, 31.399342496], [120.54325120242609, 31.399252032], [120.5433564974223, 31.399252032], [120.5433564974223, 31.399342496]]]}}, {"type": "Feature", "properties": {"area_ha": 0.0, "mean": null}, "geometry": {"type": "Polygon", "coordinates": [[[120.5434617924185, 31.399252032], [120.5433564974223, 31.399161568], [120.5434617924185, 31.399161568], [120.5434617924185, 31.399252032]]]}}, {"type": "Feature", "properties": {"area_ha": 0.0, "mean": null}, "geometry": {"type": "Polygon", "coordinates": [[[120.54398826739956, 31.398709248], [120.54388297240334, 31.398618784], [120.54398826739956, 31.398618784], [120.54398826739956, 31.398709248]]]}}, {"type": "Feature", "properties": {"area_ha": 0.0, "mean": null}, "geometry": {"type": "Polygon", "coordinates": [[[120.54409356239576, 31.398437856], [120.54398826739956, 31.398347392], [120.54409356239576, 31.398347392], [120.54409356239576, 31.398437856]]]}}, {"type": "Feature", "properties": {"area_ha": 0.0, "mean": null}, "geometry": {"type": "Polygon", "coordinates": [[[120.54483062736922, 31.398437856], [120.54472533237302, 31.398347392], [120.54483062736922, 31.398347392], [120.54483062736922, 31.398437856]]]}}, {"type": "Feature", "properties": {"area_ha": 0.0, "mean": null}, "geometry": {"type": "Polygon", "coordinates": [[[120.5446200373768, 31.398256928], [120.5445147423806, 31.398166464], [120.5446200373768, 31.398166464], [120.5446200373768, 31.398256928]]]}}, {"type": "Feature", "properties": {"area_ha": 0.02, "mean": 0.1299}, "geometry": {"type": "Polygon", "coordinates": [[[120.54419885739196, 31.397985536], [120.54409356239576, 31.39762368], [120.54419885739196, 31.39762368], [120.54419885739196, 31.397985536]]]}}, {"type": "Feature", "properties": {"area_ha": 0.0, "mean": null}, "geometry": {"type": "Polygon", "coordinates": [[[120.54356708741471, 31.397261824], [120.5434617924185, 31.39717136], [120.54356708741471, 31.39717136], [120.54356708741471, 31.397261824]]]}}, {"type": "Feature", "properties": {"area_ha": 0.01, "mean": 0.1679}, "geometry": {"type": "Polygon", "coordinates": [[[120.54430415238818, 31.397352288], [120.54419885739196, 31.397080896], [120.54430415238818, 31.397080896], [120.54430415238818, 31.397352288]]]}}, {"type": "Feature", "properties": {"area_ha": 0.0, "mean": null}, "geometry": {"type": "Polygon", "coordinates": [[[120.5434617924185, 31.39717136], [120.5433564974223, 31.397080896], [120.5434617924185, 31.397080896], [120.5434617924185, 31.39717136]]]}}, {"type": "Feature", "properties": {"area_ha": 0.01, "mean": 0.1576}, "geometry": {"type": "Polygon", "coordinates": [[[120.54440944738438, 31.396628576], [120.54430415238818, 31.396447648], [120.54440944738438, 31.396447648], [120.54440944738438, 31.396628576]]]}}, {"type": "Feature", "properties": {"area_ha": 0.01, "mean": 0.1571}, "geometry": {"type": "Polygon", "coordinates": [[[120.5445147423806, 31.396085792], [120.54440944738438, 31.3958144], [120.5445147423806, 31.3958144], [120.5445147423806, 31.396085792]]]}}, {"type": "Feature", "properties": {"area_ha": 0.0, "mean": null}, "geometry": {"type": "Polygon", "coordinates": [[[120.5446200373768, 31.395452544], [120.5445147423806, 31.39536208], [120.5446200373768, 31.39536208], [120.5446200373768, 31.395452544]]]}}, {"type": "Feature", "properties": {"area_ha": 0.0, "mean": null}, "geometry": {"type": "Polygon", "coordinates": [[[120.54472533237302, 31.395181152], [120.5446200373768, 31.395090688], [120.54472533237302, 31.395090688], [120.54472533237302, 31.395181152]]]}}, {"type": "Feature", "properties": {"area_ha": 0.02, "mean": 0.2378}, "geometry": {"type": "Polygon", "coordinates": [[[120.54725241228203, 31.395271616], [120.54693652729341, 31.395000224], [120.54714711728583, 31.395000224], [120.54725241228203, 31.395271616]]]}}, {"type": "Feature", "properties": {"area_ha": 0.0, "mean": null}, "geometry": {"type": "Polygon", "coordinates": [[[120.54483062736922, 31.39490976], [120.54472533237302, 31.394819296], [120.54483062736922, 31.394819296], [120.54483062736922, 31.39490976]]]}}, {"type": "Feature", "properties": {"area_ha": 0.0, "mean": null}, "geometry": {"type": "Polygon", "coordinates": [[[120.54704182228961, 31.389300992], [120.54693652729341, 31.389210528], [120.54704182228961, 31.389210528], [120.54704182228961, 31.389300992]]]}}, {"type": "Feature", "properties": {"area_ha": 0.0, "mean": null}, "geometry": {"type": "Polygon", "coordinates": [[[120.54725241228203, 31.389210528], [120.54714711728583, 31.389120064], [120.54725241228203, 31.389120064], [120.54725241228203, 31.389210528]]]}}, {"type": "Feature", "properties": {"area_ha": 0.0, "mean": null}, "geometry": {"type": "Polygon", "coordinates": [[[120.54746300227445, 31.389120064], [120.54735770727825, 31.3890296], [120.54746300227445, 31.3890296], [120.54746300227445, 31.389120064]]]}}, {"type": "Feature", "properties": {"area_ha": 0.0, "mean": null}, "geometry": {"type": "Polygon", "coordinates": [[[120.54756829727066, 31.3890296], [120.54746300227445, 31.388939136], [120.54756829727066, 31.388939136], [120.54756829727066, 31.3890296]]]}}, {"type": "Feature", "properties": {"area_ha": 0.0, "mean": null}, "geometry": {"type": "Polygon", "coordinates": [[[120.54767359226688, 31.388939136], [120.54756829727066, 31.388848672], [120.54767359226688, 31.388848672], [120.54767359226688, 31.388939136]]]}}, {"type": "Feature", "properties": {"area_ha": 0.06, "mean": 0.189}, "geometry": {"type": "Polygon", "coordinates": [[[120.55430717702805, 31.38722032], [120.553780702047, 31.387039392], [120.55441247202427, 31.387039392], [120.55430717702805, 31.38722032]]]}}, {"type": "Feature", "properties": {"area_ha": 0.01, "mean": 0.1744}, "geometry": {"type": "Polygon", "coordinates": [[[120.55483365200911, 31.386948928], [120.55451776702047, 31.386858464], [120.55483365200911, 31.386858464], [120.55483365200911, 31.386948928]]]}}]}