{"type": "FeatureCollection", "features": [{"type": "Feature", "properties": {"name": "黄埭镇水体边界 (JRC参考+S2 10m细化)"}, "geometry": {"type": "MultiPolygon", "coordinates": [[[[120.52450869310084, 31.410650496], [120.52187631819561, 31.40893168], [120.52198161319181, 31.410107712], [120.52450869310084, 31.410650496]]], [[[120.5148215534496, 31.413545344], [120.51461096345717, 31.413635808], [120.5149268484458, 31.4139072], [120.5148215534496, 31.413545344]]], [[[120.53145816285065, 31.4161688], [120.53261640780894, 31.415987872], [120.5275622479909, 31.411464672], [120.52598282304777, 31.412278848], [120.53145816285065, 31.4161688]]], [[[120.51682215837756, 31.41933504], [120.51671686338135, 31.418973184], [120.51650627338894, 31.419063648], [120.51682215837756, 31.41933504]]], [[[120.5366176176649, 31.424581952], [120.53282699780137, 31.424943808000002], [120.53609114268386, 31.425124736], [120.5366176176649, 31.424581952]]], [[[120.52903637793784, 31.42566752], [120.5287204929492, 31.426210304], [120.53019462289613, 31.425757984], [120.52903637793784, 31.42566752]]], [[[120.51829628832449, 31.4274768], [120.51829628832449, 31.42657216], [120.51745392835483, 31.427205408], [120.51829628832449, 31.4274768]]], [[[120.52366633313116, 31.427295872000002], [120.5229292681577, 31.427386336], [120.52356103813496, 31.4274768], [120.52366633313116, 31.427295872000002]]], [[[120.52198161319181, 31.427386336], [120.51934923828658, 31.4274768], [120.52008630326004, 31.431909536], [120.52198161319181, 31.427386336]]], [[[120.51734863335861, 31.43290464], [120.51692745337377, 31.433085568], [120.51755922335103, 31.433176032], [120.51734863335861, 31.43290464]]], [[[120.51703274836999, 31.435075776], [120.51629568339652, 31.435256704], [120.51692745337377, 31.435709024], [120.51703274836999, 31.435075776]]], [[[120.5367229126611, 31.450183264], [120.5365123226687, 31.450273728], [120.53682820765732, 31.450454656], [120.5367229126611, 31.450183264]]], [[[120.5365123226687, 31.451268832], [120.53630173267628, 31.451359296], [120.5366176176649, 31.451630688], [120.5365123226687, 31.451268832]]], [[[120.5365123226687, 31.452444864], [120.53640702767248, 31.451811616], [120.53619643768006, 31.45190208], [120.5365123226687, 31.452444864]]], [[[120.53619643768006, 31.452987648], [120.53598584768764, 31.453078112], [120.53630173267628, 31.453439968], [120.53619643768006, 31.452987648]]], [[[120.53566996269902, 31.45552064], [120.5353540777104, 31.456153888], [120.53577525769524, 31.456244352000002], [120.53566996269902, 31.45552064]]], [[[120.53556466770281, 31.457510848000002], [120.5354593727066, 31.456696672], [120.53524878271418, 31.456787136], [120.53556466770281, 31.457510848000002]]], [[[120.53493289772555, 31.459410592], [120.53472230773313, 31.459501056], [120.53503819272176, 31.459772448], [120.53493289772555, 31.459410592]]], [[[120.53482760272935, 31.459862912000002], [120.53461701273693, 31.459953376], [120.53493289772555, 31.460315232], [120.53482760272935, 31.459862912000002]]], [[[120.53482760272935, 31.461129408], [120.53472230773313, 31.460405696000002], [120.53451171774071, 31.46049616], [120.53482760272935, 31.461129408]]], [[[120.53461701273693, 31.461219872], [120.53419583275209, 31.462034048], [120.53472230773313, 31.461762656], [120.53461701273693, 31.461219872]]], [[[120.52619341304019, 31.46411472], [120.52566693805915, 31.464476576], [120.52629870803639, 31.464567040000002], [120.52619341304019, 31.46411472]]], [[[120.53398524275967, 31.464205184], [120.53377465276725, 31.464295648], [120.53409053775589, 31.464657504], [120.53398524275967, 31.464205184]]], [[[120.53387994776347, 31.464747968], [120.53282699780137, 31.466195392], [120.53335347278241, 31.46728096], [120.53387994776347, 31.464747968]]], [[[120.53124757285823, 31.466647712], [120.53029991789235, 31.467100032], [120.53124757285823, 31.46773328], [120.53124757285823, 31.466647712]]], [[[120.53019462289613, 31.467190496], [120.52903637793784, 31.466919104000002], [120.53008932789993, 31.46773328], [120.53019462289613, 31.467190496]]], [[[120.53914469757392, 31.471080448000002], [120.5241928081122, 31.466466784], [120.53156345784686, 31.471170912], [120.53914469757392, 31.471080448000002]]], [[[120.54725241228203, 31.395090688], [120.54651534730857, 31.394819296], [120.54704182228961, 31.395452544], [120.54725241228203, 31.395090688]]], [[[120.54377767740714, 31.396447648], [120.54356708741471, 31.396538112], [120.54388297240334, 31.396628576], [120.54377767740714, 31.396447648]]], [[[120.54483062736922, 31.398890176000002], [120.54514651235785, 31.39445744], [120.54314590742987, 31.399342496], [120.54483062736922, 31.398890176000002]]], [[[120.54356708741471, 31.39717136], [120.54325120242609, 31.397080896], [120.5434617924185, 31.397352288], [120.54356708741471, 31.39717136]]], [[[120.54377767740714, 31.401151776], [120.54304061243367, 31.401785024], [120.5434617924185, 31.40214688], [120.54377767740714, 31.401151776]]], [[[120.54388297240334, 31.404589408], [120.54377767740714, 31.404318016], [120.54356708741471, 31.40440848], [120.54388297240334, 31.404589408]]], [[[120.54388297240334, 31.405041728], [120.54367238241092, 31.405132192], [120.54398826739956, 31.40531312], [120.54388297240334, 31.405041728]]], [[[120.54419885739196, 31.406851008], [120.54388297240334, 31.406941472], [120.54430415238818, 31.407393792], [120.54419885739196, 31.406851008]]], [[[120.54261943244883, 31.412640704], [120.54209295746779, 31.4139072], [120.54283002244125, 31.414449984], [120.54261943244883, 31.412640704]]], [[[120.54219825246399, 31.415173696], [120.53967117255497, 31.416892512], [120.54230354746021, 31.42340592], [120.54219825246399, 31.415173696]]], [[[120.53893410758151, 31.42431056], [120.53872351758909, 31.424401024], [120.53903940257771, 31.424491488], [120.53893410758151, 31.42431056]]], [[[120.53819704260805, 31.424581952], [120.5377758626232, 31.424491488], [120.53809174761183, 31.42476288], [120.53819704260805, 31.424581952]]], [[[120.53735468263837, 31.424943808000002], [120.53745997763457, 31.42476288], [120.53693350265353, 31.424672416], [120.53735468263837, 31.424943808000002]]], [[[120.54051353252464, 31.429919328], [120.54030294253222, 31.430009792], [120.54061882752086, 31.430281184000002], [120.54051353252464, 31.429919328]]], [[[120.54040823752844, 31.430371648], [120.54019764753602, 31.430462112], [120.54051353252464, 31.430733504], [120.54040823752844, 31.430371648]]], [[[120.5412505974981, 31.432361856], [120.54040823752844, 31.431457216000002], [120.5398817625474, 31.432090464], [120.5412505974981, 31.432361856]]], [[[120.53967117255497, 31.434804384], [120.53946058256255, 31.434894848], [120.53977646755118, 31.435709024], [120.53967117255497, 31.434804384]]], [[[120.53956587755876, 31.435799488], [120.53935528756634, 31.435889952], [120.53967117255497, 31.43607088], [120.53956587755876, 31.435799488]]], [[[120.53946058256255, 31.438061088], [120.53946058256255, 31.437518304], [120.53914469757392, 31.437699232], [120.53946058256255, 31.438061088]]], [[[120.53893410758151, 31.438965728], [120.53861822259287, 31.439508512], [120.53903940257771, 31.439689440000002], [120.53893410758151, 31.438965728]]], [[[120.53872351758909, 31.439960832], [120.53830233760425, 31.441136864], [120.5388288125853, 31.441227328], [120.53872351758909, 31.439960832]]], [[[120.53840763260045, 31.44195104], [120.53798645261563, 31.442674752000002], [120.5377758626232, 31.447559808], [120.53840763260045, 31.44195104]]], [[[120.53893410758151, 31.445207744], [120.53861822259287, 31.445298208], [120.53946058256255, 31.445931456], [120.53893410758151, 31.445207744]]], [[[120.54156648248674, 31.445931456], [120.5399870575436, 31.445931456], [120.54146118749053, 31.446112384], [120.54156648248674, 31.445931456]]], [[[120.54293531743745, 31.46954256], [120.54261943244883, 31.469452096], [120.54283002244125, 31.469723488], [120.54293531743745, 31.46954256]]], [[[120.54104000750569, 31.471894624], [120.5412505974981, 31.471532768], [120.54082941751327, 31.471442304], [120.54104000750569, 31.471894624]]], [[[120.54325120242609, 31.475332256], [120.54314590742987, 31.475332256], [120.54325120242609, 31.47542272], [120.54325120242609, 31.475332256]]], [[[120.55483365200911, 31.386858464], [120.55304363707354, 31.387582176], [120.55483365200911, 31.387491712], [120.55483365200911, 31.386858464]]], [[[120.54851595223654, 31.38993424], [120.5478841822593, 31.388667744], [120.54662064230477, 31.389391456], [120.54851595223654, 31.38993424]]], [[[120.57326027634572, 31.396809504], [120.5730496863533, 31.396899968], [120.57336557134192, 31.396990432], [120.57326027634572, 31.396809504]]], [[[120.571891441395, 31.397895072], [120.57157555640637, 31.398076], [120.57199673639121, 31.398618784], [120.571891441395, 31.397895072]]], [[[120.57147026141017, 31.39898064], [120.57157555640637, 31.398799712], [120.57115437642153, 31.398709248], [120.57147026141017, 31.39898064]]], [[[120.5729443913571, 31.398709248], [120.57283909636088, 31.39898064], [120.57326027634572, 31.398890176000002], [120.5729443913571, 31.398709248]]], [[[120.57199673639121, 31.399252032], [120.57210203138742, 31.39943296], [120.57315498134952, 31.399252032], [120.57199673639121, 31.399252032]]], [[[120.5651525616376, 31.399523424], [120.56462608665656, 31.399342496], [120.56494197164518, 31.399794816], [120.5651525616376, 31.399523424]]], [[[120.56473138165278, 31.399975744], [120.56409961167552, 31.39988528], [120.56462608665656, 31.4003376], [120.56473138165278, 31.399975744]]], [[[120.57957797611827, 31.40078992], [120.57936738612585, 31.400880384], [120.57968327111449, 31.401061312], [120.57957797611827, 31.40078992]]], [[[120.57094378642911, 31.401604096], [120.57104908142533, 31.401785024], [120.57231262137984, 31.401785024], [120.57094378642911, 31.401604096]]], [[[120.57799855117514, 31.403865696], [120.57662971622442, 31.403322912], [120.57673501122062, 31.404046624], [120.57799855117514, 31.403865696]]], [[[120.55915074685367, 31.405403584000002], [120.55894015686127, 31.405494048], [120.55925604184989, 31.405584512], [120.55915074685367, 31.405403584000002]]], [[[120.55894015686127, 31.405584512], [120.55862427187263, 31.405494048], [120.55883486186505, 31.40576544], [120.55894015686127, 31.405584512]]], [[[120.56452079166036, 31.40621776], [120.56399431667931, 31.405222656], [120.56346784169826, 31.405946368], [120.56452079166036, 31.40621776]]], [[[120.56020369681578, 31.405855904], [120.55999310682336, 31.405946368], [120.56030899181198, 31.406036832], [120.56020369681578, 31.405855904]]], [[[120.55862427187263, 31.411102816], [120.5582030918878, 31.41119328], [120.55872956686885, 31.411374208], [120.55862427187263, 31.411102816]]], [[[120.57557676626233, 31.411464672], [120.57515558627749, 31.411283744], [120.57505029128127, 31.411555136], [120.57557676626233, 31.411464672]]], [[[120.55051655716453, 31.416530656], [120.54293531743745, 31.41888272], [120.55125362213799, 31.418430400000002], [120.55051655716453, 31.416530656]]], [[[120.58010445109932, 31.422591744], [120.57936738612585, 31.422410816], [120.57968327111449, 31.423044064], [120.58010445109932, 31.422591744]]], [[[120.58042033608795, 31.42431056], [120.57599794624716, 31.425034272], [120.57968327111449, 31.425486592], [120.58042033608795, 31.42431056]]], [[[120.57936738612585, 31.426662624], [120.57926209112965, 31.427295872000002], [120.58042033608795, 31.42838144], [120.57936738612585, 31.426662624]]], [[[120.56230959673996, 31.439327584], [120.56220430174375, 31.439689440000002], [120.56294136671721, 31.439689440000002], [120.56230959673996, 31.439327584]]], [[[120.54988478718727, 31.440684544], [120.5491477222138, 31.440775008], [120.54967419719485, 31.441317792], [120.54988478718727, 31.440684544]]], [[[120.58031504109174, 31.453530432], [120.58020974609553, 31.453349504000002], [120.57999915610311, 31.453439968], [120.58031504109174, 31.453530432]]], [[[120.57557676626233, 31.470989984], [120.57526088127369, 31.471894624], [120.57726148620168, 31.47135184], [120.57557676626233, 31.470989984]]], [[[120.55536012699015, 31.47542272], [120.55504424200151, 31.475513184], [120.55546542198636, 31.475603648], [120.55536012699015, 31.47542272]]], [[[120.59263455564822, 31.408841216], [120.59252926065201, 31.408660288], [120.59221337566339, 31.408841216], [120.59263455564822, 31.408841216]]], [[[120.60358523525399, 31.409293536], [120.60063697536013, 31.410921888], [120.60358523525399, 31.410379104], [120.60358523525399, 31.409293536]]], [[[120.59116042570129, 31.410560032], [120.59084454071267, 31.410379104], [120.59105513070509, 31.410740960000002], [120.59116042570129, 31.410560032]]], [[[120.59431927558757, 31.410831424], [120.59421398059136, 31.410379104], [120.5934769156179, 31.410560032], [120.59431927558757, 31.410831424]]], [[[120.59947873040183, 31.411283744], [120.59968932039425, 31.4116456], [120.60084756535254, 31.411464672], [120.59947873040183, 31.411283744]]], [[[120.59631988051555, 31.411826528], [120.59400339059894, 31.411464672], [120.59600399552691, 31.412278848], [120.59631988051555, 31.411826528]]], [[[120.5923186706596, 31.415083232], [120.5890545257771, 31.417435296], [120.59179219567855, 31.417435296], [120.5923186706596, 31.415083232]]], [[[120.58736980583775, 31.418068544], [120.58189446603488, 31.421325248], [120.58789628081881, 31.420058752], [120.58736980583775, 31.418068544]]], [[[120.58136799105384, 31.421868032], [120.58052563108416, 31.422320352], [120.58242094101593, 31.42340592], [120.58136799105384, 31.421868032]]], [[[120.60769174010615, 31.42204896], [120.60695467513268, 31.423948704], [120.60884998506445, 31.424401024], [120.60769174010615, 31.42204896]]], [[[120.6071652651251, 31.424853344], [120.60642820015164, 31.424401024], [120.60642820015164, 31.424853344], [120.6071652651251, 31.424853344]]], [[[120.6083235100834, 31.427295872000002], [120.60800762509477, 31.427386336], [120.60874469006824, 31.428290976], [120.6083235100834, 31.427295872000002]]], [[[120.6105347050038, 31.430823968000002], [120.60979764003034, 31.430914432], [120.6105347050038, 31.431276288], [120.6105347050038, 31.430823968000002]]], [[[120.59853107543594, 31.43109536], [120.5982151904473, 31.431004896], [120.59842578043973, 31.431276288], [120.59853107543594, 31.43109536]]], [[[120.59926814040941, 31.431276288], [120.59905755041699, 31.431366752], [120.59937343540561, 31.43154768], [120.59926814040941, 31.431276288]]], [[[120.59905755041699, 31.431909536], [120.59874166542836, 31.432090464], [120.59937343540561, 31.43245232], [120.59905755041699, 31.431909536]]], [[[120.60842880507961, 31.433085568], [120.6071652651251, 31.433176032], [120.60811292009099, 31.433447424], [120.60842880507961, 31.433085568]]], [[[120.60221640030326, 31.44511728], [120.60168992532222, 31.44466496], [120.601584630326, 31.444845888], [120.60221640030326, 31.44511728]]], [[[120.58136799105384, 31.452716256000002], [120.58115740106142, 31.45280672], [120.58147328605004, 31.452897184], [120.58136799105384, 31.452716256000002]]], [[[120.58231564601972, 31.454435072], [120.58199976103108, 31.454344608], [120.5822103510235, 31.454616], [120.58231564601972, 31.454435072]]], [[[120.58157858104624, 31.454796928], [120.58115740106142, 31.454706464], [120.5810521060652, 31.455249248], [120.58157858104624, 31.454796928]]], [[[120.59905755041699, 31.456244352000002], [120.59653047050796, 31.456334816000002], [120.59895225542078, 31.456877600000002], [120.59905755041699, 31.456244352000002]]], [[[120.58621156087946, 31.469180704], [120.58589567589082, 31.469361632000002], [120.58631685587567, 31.46954256], [120.58621156087946, 31.469180704]]], [[[120.58357918597423, 31.471442304], [120.57947268112207, 31.471261376], [120.5798938611069, 31.47316112], [120.58357918597423, 31.471442304]]]]}}]}