{"type": "FeatureCollection", "features": [{"type": "Feature", "properties": {"area_ha": 0.09, "mean": 0.1238}, "geometry": {"type": "Polygon", "coordinates": [[[120.5367229126611, 31.471442304], [120.53619643768006, 31.471170912], [120.53682820765732, 31.471170912], [120.5367229126611, 31.471442304]]]}}, {"type": "Feature", "properties": {"area_ha": 0.1, "mean": 0.1276}, "geometry": {"type": "Polygon", "coordinates": [[[120.5354593727066, 31.471170912], [120.53493289772555, 31.471170912], [120.53493289772555, 31.470809056], [120.5354593727066, 31.471170912]]]}}, {"type": "Feature", "properties": {"area_ha": 0.01, "mean": 0.1066}, "geometry": {"type": "Polygon", "coordinates": [[[120.5353540777104, 31.47089952], [120.53514348771797, 31.470809056], [120.5353540777104, 31.470809056], [120.5353540777104, 31.47089952]]]}}, {"type": "Feature", "properties": {"area_ha": 0.02, "mean": 0.1117}, "geometry": {"type": "Polygon", "coordinates": [[[120.5343011277483, 31.47089952], [120.53398524275967, 31.470718592], [120.5343011277483, 31.470809056], [120.5343011277483, 31.47089952]]]}}, {"type": "Feature", "properties": {"area_ha": 0.02, "mean": 0.1882}, "geometry": {"type": "Polygon", "coordinates": [[[120.53482760272935, 31.47089952], [120.53461701273693, 31.470718592], [120.53482760272935, 31.470537664000002], [120.53482760272935, 31.47089952]]]}}, {"type": "Feature", "properties": {"area_ha": 0.06, "mean": 0.128}, "geometry": {"type": "Polygon", "coordinates": [[[120.53145816285065, 31.470809056], [120.53103698286581, 31.470537664000002], [120.53156345784686, 31.470628128], [120.53145816285065, 31.470809056]]]}}, {"type": "Feature", "properties": {"area_ha": 0.0, "mean": null}, "geometry": {"type": "Polygon", "coordinates": [[[120.5308263928734, 31.470356736], [120.53072109787719, 31.470266272], [120.5308263928734, 31.470266272], [120.5308263928734, 31.470356736]]]}}, {"type": "Feature", "properties": {"area_ha": 0.01, "mean": 0.1213}, "geometry": {"type": "Polygon", "coordinates": [[[120.53177404783928, 31.470266272], [120.53156345784686, 31.470175808], [120.53177404783928, 31.470175808], [120.53177404783928, 31.470266272]]]}}, {"type": "Feature", "properties": {"area_ha": 0.03, "mean": 0.1797}, "geometry": {"type": "Polygon", "coordinates": [[[120.53114227786202, 31.470085344], [120.5308263928734, 31.470266272], [120.5308263928734, 31.470085344], [120.53114227786202, 31.470085344]]]}}, {"type": "Feature", "properties": {"area_ha": 0.0, "mean": null}, "geometry": {"type": "Polygon", "coordinates": [[[120.59642517551175, 31.456696672], [120.59631988051555, 31.456606208], [120.59642517551175, 31.456606208], [120.59642517551175, 31.456696672]]]}}, {"type": "Feature", "properties": {"area_ha": 0.03, "mean": 0.1692}, "geometry": {"type": "Polygon", "coordinates": [[[120.60221640030326, 31.445388672], [120.60200581031084, 31.445660064000002], [120.60200581031084, 31.445388672], [120.60221640030326, 31.445388672]]]}}, {"type": "Feature", "properties": {"area_ha": 0.01, "mean": 0.1641}, "geometry": {"type": "Polygon", "coordinates": [[[120.60200581031084, 31.445388672], [120.60190051531464, 31.445207744], [120.60200581031084, 31.445207744], [120.60200581031084, 31.445388672]]]}}, {"type": "Feature", "properties": {"area_ha": 0.01, "mean": 0.1526}, "geometry": {"type": "Polygon", "coordinates": [[[120.60190051531464, 31.445207744], [120.60179522031842, 31.444936352], [120.60190051531464, 31.444936352], [120.60190051531464, 31.445207744]]]}}, {"type": "Feature", "properties": {"area_ha": 0.01, "mean": 0.1317}, "geometry": {"type": "Polygon", "coordinates": [[[120.59905755041699, 31.432723712], [120.59895225542078, 31.432814176], [120.59884696042457, 31.432723712], [120.59905755041699, 31.432723712]]]}}, {"type": "Feature", "properties": {"area_ha": 0.0, "mean": null}, "geometry": {"type": "Polygon", "coordinates": [[[120.59916284541319, 31.432361856], [120.59905755041699, 31.432271392], [120.59916284541319, 31.432271392], [120.59916284541319, 31.432361856]]]}}, {"type": "Feature", "properties": {"area_ha": 0.0, "mean": null}, "geometry": {"type": "Polygon", "coordinates": [[[120.59905755041699, 31.432180928], [120.59895225542078, 31.432090464], [120.59905755041699, 31.432090464], [120.59905755041699, 31.432180928]]]}}, {"type": "Feature", "properties": {"area_ha": 0.01, "mean": 0.1199}, "geometry": {"type": "Polygon", "coordinates": [[[120.59895225542078, 31.432000000000002], [120.59884696042457, 31.431728608], [120.59895225542078, 31.431728608], [120.59895225542078, 31.432000000000002]]]}}, {"type": "Feature", "properties": {"area_ha": 0.0, "mean": null}, "geometry": {"type": "Polygon", "coordinates": [[[120.59853107543594, 31.431366752], [120.59842578043973, 31.431276288], [120.59853107543594, 31.431276288], [120.59853107543594, 31.431366752]]]}}, {"type": "Feature", "properties": {"area_ha": 0.0, "mean": null}, "geometry": {"type": "Polygon", "coordinates": [[[120.59874166542836, 31.431366752], [120.59863637043215, 31.431276288], [120.59874166542836, 31.431276288], [120.59874166542836, 31.431366752]]]}}, {"type": "Feature", "properties": {"area_ha": 0.01, "mean": 0.2407}, "geometry": {"type": "Polygon", "coordinates": [[[120.59863637043215, 31.430914432], [120.59832048544352, 31.431004896], [120.59884696042457, 31.430823968000002], [120.59863637043215, 31.430914432]]]}}, {"type": "Feature", "properties": {"area_ha": 0.0, "mean": null}, "geometry": {"type": "Polygon", "coordinates": [[[120.51808569833207, 31.430552576], [120.51798040333587, 31.430462112], [120.51808569833207, 31.430462112], [120.51808569833207, 31.430552576]]]}}, {"type": "Feature", "properties": {"area_ha": 0.01, "mean": 0.1656}, "geometry": {"type": "Polygon", "coordinates": [[[120.51819099332829, 31.430371648], [120.51808569833207, 31.43019072], [120.51819099332829, 31.43019072], [120.51819099332829, 31.430371648]]]}}, {"type": "Feature", "properties": {"area_ha": 0.0, "mean": null}, "geometry": {"type": "Polygon", "coordinates": [[[120.51850687831691, 31.429647936000002], [120.5184015833207, 31.429557472], [120.51850687831691, 31.429557472], [120.51850687831691, 31.429647936000002]]]}}, {"type": "Feature", "properties": {"area_ha": 0.0, "mean": null}, "geometry": {"type": "Polygon", "coordinates": [[[120.52029689325246, 31.429376544], [120.52019159825626, 31.42928608], [120.52029689325246, 31.42928608], [120.52029689325246, 31.429376544]]]}}, {"type": "Feature", "properties": {"area_ha": 0.0, "mean": null}, "geometry": {"type": "Polygon", "coordinates": [[[120.51892805830175, 31.429195616], [120.51882276330554, 31.429105152], [120.51892805830175, 31.429105152], [120.51892805830175, 31.429195616]]]}}, {"type": "Feature", "properties": {"area_ha": 0.0, "mean": null}, "geometry": {"type": "Polygon", "coordinates": [[[120.57905150113723, 31.426029376], [120.57894620614103, 31.425938912], [120.57905150113723, 31.425938912], [120.57905150113723, 31.426029376]]]}}, {"type": "Feature", "properties": {"area_ha": 0.02, "mean": 0.1065}, "geometry": {"type": "Polygon", "coordinates": [[[120.54082941751327, 31.426029376], [120.54072412251706, 31.425577056], [120.54082941751327, 31.425577056], [120.54082941751327, 31.426029376]]]}}, {"type": "Feature", "properties": {"area_ha": 0.01, "mean": 0.125}, "geometry": {"type": "Polygon", "coordinates": [[[120.5479894772555, 31.424401024], [120.5478841822593, 31.424220096], [120.5479894772555, 31.424220096], [120.5479894772555, 31.424401024]]]}}, {"type": "Feature", "properties": {"area_ha": 0.01, "mean": 0.1178}, "geometry": {"type": "Polygon", "coordinates": [[[120.5478841822593, 31.424220096], [120.54767359226688, 31.424129632], [120.5478841822593, 31.424129632], [120.5478841822593, 31.424220096]]]}}, {"type": "Feature", "properties": {"area_ha": 0.01, "mean": 0.2212}, "geometry": {"type": "Polygon", "coordinates": [[[120.54820006724792, 31.424039168], [120.54809477225172, 31.42385824], [120.54820006724792, 31.42385824], [120.54820006724792, 31.424039168]]]}}, {"type": "Feature", "properties": {"area_ha": 0.02, "mean": 0.1581}, "geometry": {"type": "Polygon", "coordinates": [[[120.54883183722518, 31.423496384], [120.54872654222896, 31.423315456], [120.54893713222138, 31.423315456], [120.54883183722518, 31.423496384]]]}}, {"type": "Feature", "properties": {"area_ha": 0.02, "mean": 0.1159}, "geometry": {"type": "Polygon", "coordinates": [[[120.54556769234269, 31.4229536], [120.54525180735406, 31.422772672], [120.54556769234269, 31.422863136], [120.54556769234269, 31.4229536]]]}}, {"type": "Feature", "properties": {"area_ha": 0.0, "mean": null}, "geometry": {"type": "Polygon", "coordinates": [[[120.54556769234269, 31.422772672], [120.54546239734648, 31.422682208], [120.54556769234269, 31.422682208], [120.54556769234269, 31.422772672]]]}}, {"type": "Feature", "properties": {"area_ha": 0.0, "mean": null}, "geometry": {"type": "Polygon", "coordinates": [[[120.5457782823351, 31.422772672], [120.5456729873389, 31.422682208], [120.5457782823351, 31.422682208], [120.5457782823351, 31.422772672]]]}}, {"type": "Feature", "properties": {"area_ha": 0.01, "mean": 0.1693}, "geometry": {"type": "Polygon", "coordinates": [[[120.5490424272176, 31.422682208], [120.54883183722518, 31.422591744], [120.5490424272176, 31.422591744], [120.5490424272176, 31.422682208]]]}}, {"type": "Feature", "properties": {"area_ha": 0.01, "mean": 0.1042}, "geometry": {"type": "Polygon", "coordinates": [[[120.5491477222138, 31.422591744], [120.5490424272176, 31.422410816], [120.5491477222138, 31.422410816], [120.5491477222138, 31.422591744]]]}}, {"type": "Feature", "properties": {"area_ha": 0.0, "mean": null}, "geometry": {"type": "Polygon", "coordinates": [[[120.54672593730099, 31.421958496000002], [120.54651534730857, 31.421777568], [120.54662064230477, 31.421777568], [120.54672593730099, 31.421958496000002]]]}}, {"type": "Feature", "properties": {"area_ha": 0.01, "mean": 0.1165}, "geometry": {"type": "Polygon", "coordinates": [[[120.54956890219864, 31.421958496000002], [120.54946360720243, 31.421777568], [120.54956890219864, 31.421777568], [120.54956890219864, 31.421958496000002]]]}}, {"type": "Feature", "properties": {"area_ha": 0.01, "mean": 0.1262}, "geometry": {"type": "Polygon", "coordinates": [[[120.54956890219864, 31.42159664], [120.54946360720243, 31.421415712], [120.54956890219864, 31.421415712], [120.54956890219864, 31.42159664]]]}}, {"type": "Feature", "properties": {"area_ha": 0.0, "mean": null}, "geometry": {"type": "Polygon", "coordinates": [[[120.54325120242609, 31.419063648], [120.54314590742987, 31.418973184], [120.54325120242609, 31.418973184], [120.54325120242609, 31.419063648]]]}}, {"type": "Feature", "properties": {"area_ha": 0.01, "mean": 0.1891}, "geometry": {"type": "Polygon", "coordinates": [[[120.54093471250948, 31.418068544], [120.54061882752086, 31.41797808], [120.54093471250948, 31.41797808], [120.54093471250948, 31.418068544]]]}}, {"type": "Feature", "properties": {"area_ha": 0.02, "mean": 0.1614}, "geometry": {"type": "Polygon", "coordinates": [[[120.5412505974981, 31.41797808], [120.54093471250948, 31.417887616], [120.5412505974981, 31.417797152], [120.5412505974981, 31.41797808]]]}}, {"type": "Feature", "properties": {"area_ha": 0.0, "mean": null}, "geometry": {"type": "Polygon", "coordinates": [[[120.54156648248674, 31.417887616], [120.54146118749053, 31.417797152], [120.54156648248674, 31.417797152], [120.54156648248674, 31.417887616]]]}}, {"type": "Feature", "properties": {"area_ha": 0.01, "mean": 0.1039}, "geometry": {"type": "Polygon", "coordinates": [[[120.54177707247915, 31.417616224], [120.54156648248674, 31.41752576], [120.54177707247915, 31.41752576], [120.54177707247915, 31.417616224]]]}}, {"type": "Feature", "properties": {"area_ha": 0.0, "mean": null}, "geometry": {"type": "Polygon", "coordinates": [[[120.54146118749053, 31.417616224], [120.54135589249432, 31.41752576], [120.54146118749053, 31.41752576], [120.54146118749053, 31.417616224]]]}}, {"type": "Feature", "properties": {"area_ha": 0.04, "mean": 0.1125}, "geometry": {"type": "Polygon", "coordinates": [[[120.55009537717969, 31.417435296], [120.54967419719485, 31.417344832], [120.55009537717969, 31.417254368000002], [120.55009537717969, 31.417435296]]]}}, {"type": "Feature", "properties": {"area_ha": 0.0, "mean": null}, "geometry": {"type": "Polygon", "coordinates": [[[120.55030596717211, 31.417254368000002], [120.55020067217589, 31.417163904], [120.55030596717211, 31.417163904], [120.55030596717211, 31.417254368000002]]]}}, {"type": "Feature", "properties": {"area_ha": 0.0, "mean": null}, "geometry": {"type": "Polygon", "coordinates": [[[120.54209295746779, 31.417163904], [120.54198766247157, 31.41707344], [120.54209295746779, 31.41707344], [120.54209295746779, 31.417163904]]]}}, {"type": "Feature", "properties": {"area_ha": 0.0, "mean": null}, "geometry": {"type": "Polygon", "coordinates": [[[120.55030596717211, 31.41707344], [120.55020067217589, 31.416982976], [120.55030596717211, 31.416982976], [120.55030596717211, 31.41707344]]]}}, {"type": "Feature", "properties": {"area_ha": 0.0, "mean": null}, "geometry": {"type": "Polygon", "coordinates": [[[120.54872654222896, 31.416892512], [120.54862124723276, 31.416802048], [120.54872654222896, 31.416802048], [120.54872654222896, 31.416892512]]]}}, {"type": "Feature", "properties": {"area_ha": 0.0, "mean": null}, "geometry": {"type": "Polygon", "coordinates": [[[120.55030596717211, 31.416892512], [120.55020067217589, 31.416802048], [120.55030596717211, 31.416802048], [120.55030596717211, 31.416892512]]]}}, {"type": "Feature", "properties": {"area_ha": 0.0, "mean": null}, "geometry": {"type": "Polygon", "coordinates": [[[120.55093773714935, 31.41662112], [120.55072714715695, 31.416440192], [120.55093773714935, 31.416530656], [120.55093773714935, 31.41662112]]]}}, {"type": "Feature", "properties": {"area_ha": 0.0, "mean": null}, "geometry": {"type": "Polygon", "coordinates": [[[120.59452986557999, 31.414630912], [120.59442457058378, 31.414540448], [120.59452986557999, 31.414540448], [120.59452986557999, 31.414630912]]]}}, {"type": "Feature", "properties": {"area_ha": 0.01, "mean": 0.1004}, "geometry": {"type": "Polygon", "coordinates": [[[120.59431927558757, 31.41435952], [120.59410868559515, 31.414269056000002], [120.59431927558757, 31.414269056000002], [120.59431927558757, 31.41435952]]]}}, {"type": "Feature", "properties": {"area_ha": 0.0, "mean": null}, "geometry": {"type": "Polygon", "coordinates": [[[120.59874166542836, 31.412731168], [120.59863637043215, 31.412640704], [120.59874166542836, 31.412640704], [120.59874166542836, 31.412731168]]]}}, {"type": "Feature", "properties": {"area_ha": 0.0, "mean": null}, "geometry": {"type": "Polygon", "coordinates": [[[120.59516163555725, 31.412369312], [120.59505634056103, 31.412278848], [120.59516163555725, 31.412278848], [120.59516163555725, 31.412369312]]]}}, {"type": "Feature", "properties": {"area_ha": 0.0, "mean": null}, "geometry": {"type": "Polygon", "coordinates": [[[120.59526693055345, 31.412278848], [120.59516163555725, 31.412188384], [120.59526693055345, 31.412188384], [120.59526693055345, 31.412278848]]]}}, {"type": "Feature", "properties": {"area_ha": 0.0, "mean": null}, "geometry": {"type": "Polygon", "coordinates": [[[120.59853107543594, 31.412188384], [120.59842578043973, 31.41209792], [120.59853107543594, 31.41209792], [120.59853107543594, 31.412188384]]]}}, {"type": "Feature", "properties": {"area_ha": 0.0, "mean": null}, "geometry": {"type": "Polygon", "coordinates": [[[120.59863637043215, 31.41209792], [120.59853107543594, 31.412007456], [120.59863637043215, 31.412007456], [120.59863637043215, 31.41209792]]]}}, {"type": "Feature", "properties": {"area_ha": 0.22, "mean": 0.234}, "geometry": {"type": "Polygon", "coordinates": [[[120.59631988051555, 31.412007456], [120.59516163555725, 31.412007456], [120.59610929052313, 31.4116456], [120.59631988051555, 31.412007456]]]}}, {"type": "Feature", "properties": {"area_ha": 0.0, "mean": null}, "geometry": {"type": "Polygon", "coordinates": [[[120.59937343540561, 31.411555136], [120.59926814040941, 31.411464672], [120.59937343540561, 31.411464672], [120.59937343540561, 31.411555136]]]}}, {"type": "Feature", "properties": {"area_ha": 0.19, "mean": 0.1638}, "geometry": {"type": "Polygon", "coordinates": [[[120.55967722183473, 31.411736064], [120.55967722183473, 31.411374208], [120.5604142868082, 31.411464672], [120.56030899181198, 31.4116456], [120.55967722183473, 31.411736064]], [[120.55999310682336, 31.411464672], [120.56020369681578, 31.411555136], [120.56020369681578, 31.411464672], [120.55999310682336, 31.411464672]]]}}, {"type": "Feature", "properties": {"area_ha": 0.01, "mean": 0.1387}, "geometry": {"type": "Polygon", "coordinates": [[[120.55872956686885, 31.411374208], [120.55851897687643, 31.411283744], [120.55872956686885, 31.411283744], [120.55872956686885, 31.411374208]]]}}, {"type": "Feature", "properties": {"area_ha": 0.0, "mean": null}, "geometry": {"type": "Polygon", "coordinates": [[[120.55851897687643, 31.411283744], [120.55830838688401, 31.411102816], [120.55851897687643, 31.41119328], [120.55851897687643, 31.411283744]]]}}, {"type": "Feature", "properties": {"area_ha": 0.0, "mean": null}, "geometry": {"type": "Polygon", "coordinates": [[[120.60063697536013, 31.411102816], [120.60053168036391, 31.411012352], [120.60063697536013, 31.411012352], [120.60063697536013, 31.411102816]]]}}, {"type": "Feature", "properties": {"area_ha": 0.0, "mean": null}, "geometry": {"type": "Polygon", "coordinates": [[[120.55862427187263, 31.411012352], [120.55851897687643, 31.410921888], [120.55862427187263, 31.410921888], [120.55862427187263, 31.411012352]]]}}, {"type": "Feature", "properties": {"area_ha": 0.02, "mean": 0.2424}, "geometry": {"type": "Polygon", "coordinates": [[[120.56030899181198, 31.410831424], [120.55988781182715, 31.410831424], [120.55967722183473, 31.410740960000002], [120.56030899181198, 31.410831424]]]}}, {"type": "Feature", "properties": {"area_ha": 0.0, "mean": null}, "geometry": {"type": "Polygon", "coordinates": [[[120.5935822106141, 31.410740960000002], [120.5934769156179, 31.410650496], [120.5935822106141, 31.410650496], [120.5935822106141, 31.410740960000002]]]}}, {"type": "Feature", "properties": {"area_ha": 0.0, "mean": null}, "geometry": {"type": "Polygon", "coordinates": [[[120.59431927558757, 31.410740960000002], [120.59421398059136, 31.410650496], [120.59431927558757, 31.410650496], [120.59431927558757, 31.410740960000002]]]}}, {"type": "Feature", "properties": {"area_ha": 0.0, "mean": null}, "geometry": {"type": "Polygon", "coordinates": [[[120.54314590742987, 31.410650496], [120.54304061243367, 31.410560032], [120.54314590742987, 31.410560032], [120.54314590742987, 31.410650496]]]}}, {"type": "Feature", "properties": {"area_ha": 0.0, "mean": null}, "geometry": {"type": "Polygon", "coordinates": [[[120.5433564974223, 31.410650496], [120.54325120242609, 31.410560032], [120.5433564974223, 31.410560032], [120.5433564974223, 31.410650496]]]}}, {"type": "Feature", "properties": {"area_ha": 0.0, "mean": null}, "geometry": {"type": "Polygon", "coordinates": [[[120.5934769156179, 31.410650496], [120.59337162062168, 31.410560032], [120.5934769156179, 31.410560032], [120.5934769156179, 31.410650496]]]}}, {"type": "Feature", "properties": {"area_ha": 0.01, "mean": 0.1377}, "geometry": {"type": "Polygon", "coordinates": [[[120.55894015686127, 31.410560032], [120.55872956686885, 31.410469568], [120.55894015686127, 31.410469568], [120.55894015686127, 31.410560032]]]}}, {"type": "Feature", "properties": {"area_ha": 0.0, "mean": null}, "geometry": {"type": "Polygon", "coordinates": [[[120.59431927558757, 31.410469568], [120.59421398059136, 31.410379104], [120.59431927558757, 31.410379104], [120.59431927558757, 31.410469568]]]}}, {"type": "Feature", "properties": {"area_ha": 0.0, "mean": null}, "geometry": {"type": "Polygon", "coordinates": [[[120.55925604184989, 31.410379104], [120.55915074685367, 31.41028864], [120.55925604184989, 31.41028864], [120.55925604184989, 31.410379104]]]}}, {"type": "Feature", "properties": {"area_ha": 0.01, "mean": 0.1754}, "geometry": {"type": "Polygon", "coordinates": [[[120.60242699029568, 31.410017248], [120.60232169529948, 31.40983632], [120.60242699029568, 31.40983632], [120.60242699029568, 31.410017248]]]}}, {"type": "Feature", "properties": {"area_ha": 0.0, "mean": null}, "geometry": {"type": "Polygon", "coordinates": [[[120.6026375802881, 31.40983632], [120.60253228529189, 31.409745856], [120.6026375802881, 31.409745856], [120.6026375802881, 31.40983632]]]}}, {"type": "Feature", "properties": {"area_ha": 0.0, "mean": null}, "geometry": {"type": "Polygon", "coordinates": [[[120.60295346527673, 31.409655392], [120.60284817028052, 31.409564928], [120.60295346527673, 31.409564928], [120.60295346527673, 31.409655392]]]}}, {"type": "Feature", "properties": {"area_ha": 0.25, "mean": 0.2071}, "geometry": {"type": "Polygon", "coordinates": [[[120.59642517551175, 31.409564928], [120.5947404555724, 31.40983632], [120.5946351605762, 31.409564928], [120.59642517551175, 31.409564928]]]}}, {"type": "Feature", "properties": {"area_ha": 0.01, "mean": 0.1004}, "geometry": {"type": "Polygon", "coordinates": [[[120.60326935026535, 31.409564928], [120.60305876027294, 31.409474464], [120.60326935026535, 31.409474464], [120.60326935026535, 31.409564928]]]}}, {"type": "Feature", "properties": {"area_ha": 0.0, "mean": null}, "geometry": {"type": "Polygon", "coordinates": [[[120.59663576550417, 31.409474464], [120.59653047050796, 31.409384], [120.59663576550417, 31.409384], [120.59663576550417, 31.409474464]]]}}, {"type": "Feature", "properties": {"area_ha": 0.01, "mean": 0.2559}, "geometry": {"type": "Polygon", "coordinates": [[[120.5969516504928, 31.409022144], [120.59674106050038, 31.40893168], [120.5969516504928, 31.40893168], [120.5969516504928, 31.409022144]]]}}, {"type": "Feature", "properties": {"area_ha": 0.03, "mean": 0.2431}, "geometry": {"type": "Polygon", "coordinates": [[[120.59642517551175, 31.409022144], [120.59610929052313, 31.40893168], [120.59653047050796, 31.408841216], [120.59642517551175, 31.409022144]]]}}, {"type": "Feature", "properties": {"area_ha": 0.01, "mean": 0.1764}, "geometry": {"type": "Polygon", "coordinates": [[[120.57168085140258, 31.40169456], [120.57157555640637, 31.401785024], [120.57147026141017, 31.40169456], [120.57168085140258, 31.40169456]]]}}, {"type": "Feature", "properties": {"area_ha": 0.01, "mean": 0.1973}, "geometry": {"type": "Polygon", "coordinates": [[[120.54304061243367, 31.400247136], [120.54293531743745, 31.399975744], [120.54304061243367, 31.399975744], [120.54304061243367, 31.400247136]]]}}, {"type": "Feature", "properties": {"area_ha": 0.0, "mean": null}, "geometry": {"type": "Polygon", "coordinates": [[[120.54314590742987, 31.39988528], [120.54304061243367, 31.399794816], [120.54314590742987, 31.399794816], [120.54314590742987, 31.39988528]]]}}, {"type": "Feature", "properties": {"area_ha": 0.01, "mean": 0.197}, "geometry": {"type": "Polygon", "coordinates": [[[120.54325120242609, 31.399613888], [120.54314590742987, 31.39943296], [120.54325120242609, 31.39943296], [120.54325120242609, 31.399613888]]]}}, {"type": "Feature", "properties": {"area_ha": 0.01, "mean": 0.1502}, "geometry": {"type": "Polygon", "coordinates": [[[120.54409356239576, 31.39852832], [120.54398826739956, 31.398256928], [120.54409356239576, 31.398256928], [120.54409356239576, 31.39852832]]]}}, {"type": "Feature", "properties": {"area_ha": 0.0, "mean": null}, "geometry": {"type": "Polygon", "coordinates": [[[120.54419885739196, 31.397985536], [120.54409356239576, 31.397895072], [120.54419885739196, 31.397895072], [120.54419885739196, 31.397985536]]]}}, {"type": "Feature", "properties": {"area_ha": 0.01, "mean": 0.1775}, "geometry": {"type": "Polygon", "coordinates": [[[120.54430415238818, 31.397533216], [120.54419885739196, 31.397352288], [120.54430415238818, 31.397352288], [120.54430415238818, 31.397533216]]]}}, {"type": "Feature", "properties": {"area_ha": 0.01, "mean": 0.1951}, "geometry": {"type": "Polygon", "coordinates": [[[120.54440944738438, 31.39671904], [120.54430415238818, 31.396447648], [120.54440944738438, 31.396447648], [120.54440944738438, 31.39671904]]]}}, {"type": "Feature", "properties": {"area_ha": 0.01, "mean": 0.1691}, "geometry": {"type": "Polygon", "coordinates": [[[120.5445147423806, 31.396176256], [120.54440944738438, 31.395995328], [120.5445147423806, 31.395995328], [120.5445147423806, 31.396176256]]]}}, {"type": "Feature", "properties": {"area_ha": 0.0, "mean": null}, "geometry": {"type": "Polygon", "coordinates": [[[120.5446200373768, 31.395452544], [120.5445147423806, 31.39536208], [120.5446200373768, 31.39536208], [120.5446200373768, 31.395452544]]]}}]}