{"type": "FeatureCollection", "features": [{"type": "Feature", "properties": {"area_ha": 0.0, "mean": null}, "geometry": {"type": "Polygon", "coordinates": [[[120.53640702767248, 31.47135184], [120.53630173267628, 31.471261376], [120.53640702767248, 31.471261376], [120.53640702767248, 31.47135184]]]}}, {"type": "Feature", "properties": {"area_ha": 0.0, "mean": null}, "geometry": {"type": "Polygon", "coordinates": [[[120.5343011277483, 31.47089952], [120.53419583275209, 31.470809056], [120.5343011277483, 31.470809056], [120.5343011277483, 31.47089952]]]}}, {"type": "Feature", "properties": {"area_ha": 0.0, "mean": null}, "geometry": {"type": "Polygon", "coordinates": [[[120.53472230773313, 31.470809056], [120.53461701273693, 31.470718592], [120.53472230773313, 31.470718592], [120.53472230773313, 31.470809056]]]}}, {"type": "Feature", "properties": {"area_ha": 0.0, "mean": null}, "geometry": {"type": "Polygon", "coordinates": [[[120.53493289772555, 31.470809056], [120.53482760272935, 31.470718592], [120.53493289772555, 31.470718592], [120.53493289772555, 31.470809056]]]}}, {"type": "Feature", "properties": {"area_ha": 0.0, "mean": null}, "geometry": {"type": "Polygon", "coordinates": [[[120.53419583275209, 31.470809056], [120.53398524275967, 31.470628128], [120.53419583275209, 31.470718592], [120.53419583275209, 31.470809056]]]}}, {"type": "Feature", "properties": {"area_ha": 0.01, "mean": 0.0801}, "geometry": {"type": "Polygon", "coordinates": [[[120.5309316878696, 31.470356736], [120.53072109787719, 31.470266272], [120.5309316878696, 31.470266272], [120.5309316878696, 31.470356736]]]}}, {"type": "Feature", "properties": {"area_ha": 0.0, "mean": null}, "geometry": {"type": "Polygon", "coordinates": [[[120.53103698286581, 31.470266272], [120.5309316878696, 31.470175808], [120.53103698286581, 31.470175808], [120.53103698286581, 31.470266272]]]}}, {"type": "Feature", "properties": {"area_ha": 0.0, "mean": null}, "geometry": {"type": "Polygon", "coordinates": [[[120.53788115761941, 31.447559808], [120.5377758626232, 31.447469344], [120.53788115761941, 31.447469344], [120.53788115761941, 31.447559808]]]}}, {"type": "Feature", "properties": {"area_ha": 0.0, "mean": null}, "geometry": {"type": "Polygon", "coordinates": [[[120.60211110530706, 31.445750528], [120.60200581031084, 31.445660064000002], [120.60211110530706, 31.445660064000002], [120.60211110530706, 31.445750528]]]}}, {"type": "Feature", "properties": {"area_ha": 0.01, "mean": 0.1317}, "geometry": {"type": "Polygon", "coordinates": [[[120.59905755041699, 31.432723712], [120.59895225542078, 31.432814176], [120.59884696042457, 31.432723712], [120.59905755041699, 31.432723712]]]}}, {"type": "Feature", "properties": {"area_ha": 0.0, "mean": null}, "geometry": {"type": "Polygon", "coordinates": [[[120.59895225542078, 31.432090464], [120.59884696042457, 31.432000000000002], [120.59895225542078, 31.432000000000002], [120.59895225542078, 31.432090464]]]}}, {"type": "Feature", "properties": {"area_ha": 0.0, "mean": null}, "geometry": {"type": "Polygon", "coordinates": [[[120.59874166542836, 31.431909536], [120.59863637043215, 31.431819072], [120.59874166542836, 31.431819072], [120.59874166542836, 31.431909536]]]}}, {"type": "Feature", "properties": {"area_ha": 0.0, "mean": null}, "geometry": {"type": "Polygon", "coordinates": [[[120.59853107543594, 31.431366752], [120.59842578043973, 31.431276288], [120.59853107543594, 31.431276288], [120.59853107543594, 31.431366752]]]}}, {"type": "Feature", "properties": {"area_ha": 0.02, "mean": 0.2036}, "geometry": {"type": "Polygon", "coordinates": [[[120.59853107543594, 31.431185824], [120.59832048544352, 31.431004896], [120.59853107543594, 31.430914432], [120.59853107543594, 31.431185824]]]}}, {"type": "Feature", "properties": {"area_ha": 0.0, "mean": null}, "geometry": {"type": "Polygon", "coordinates": [[[120.59863637043215, 31.430914432], [120.59853107543594, 31.430823968000002], [120.59863637043215, 31.430823968000002], [120.59863637043215, 31.430914432]]]}}, {"type": "Feature", "properties": {"area_ha": 0.0, "mean": null}, "geometry": {"type": "Polygon", "coordinates": [[[120.51892805830175, 31.429195616], [120.51882276330554, 31.429105152], [120.51892805830175, 31.429105152], [120.51892805830175, 31.429195616]]]}}, {"type": "Feature", "properties": {"area_ha": 0.0, "mean": null}, "geometry": {"type": "Polygon", "coordinates": [[[120.54662064230477, 31.42204896], [120.54651534730857, 31.421958496000002], [120.54662064230477, 31.421958496000002], [120.54662064230477, 31.42204896]]]}}, {"type": "Feature", "properties": {"area_ha": 0.01, "mean": 0.0938}, "geometry": {"type": "Polygon", "coordinates": [[[120.54999008218347, 31.421777568], [120.54988478718727, 31.42159664], [120.54999008218347, 31.42159664], [120.54999008218347, 31.421777568]]]}}, {"type": "Feature", "properties": {"area_ha": 0.0, "mean": null}, "geometry": {"type": "Polygon", "coordinates": [[[120.5411453025019, 31.418068544], [120.54104000750569, 31.41797808], [120.5411453025019, 31.41797808], [120.5411453025019, 31.418068544]]]}}, {"type": "Feature", "properties": {"area_ha": 0.0, "mean": null}, "geometry": {"type": "Polygon", "coordinates": [[[120.5412505974981, 31.41797808], [120.5411453025019, 31.417887616], [120.5412505974981, 31.417887616], [120.5412505974981, 31.41797808]]]}}, {"type": "Feature", "properties": {"area_ha": 0.0, "mean": null}, "geometry": {"type": "Polygon", "coordinates": [[[120.54135589249432, 31.417887616], [120.5412505974981, 31.417797152], [120.54135589249432, 31.417797152], [120.54135589249432, 31.417887616]]]}}, {"type": "Feature", "properties": {"area_ha": 0.0, "mean": null}, "geometry": {"type": "Polygon", "coordinates": [[[120.54156648248674, 31.417797152], [120.54146118749053, 31.417706688], [120.54156648248674, 31.417706688], [120.54156648248674, 31.417797152]]]}}, {"type": "Feature", "properties": {"area_ha": 0.0, "mean": null}, "geometry": {"type": "Polygon", "coordinates": [[[120.54177707247915, 31.417616224], [120.54167177748295, 31.41752576], [120.54177707247915, 31.41752576], [120.54177707247915, 31.417616224]]]}}, {"type": "Feature", "properties": {"area_ha": 0.0, "mean": null}, "geometry": {"type": "Polygon", "coordinates": [[[120.54188236747537, 31.417435296], [120.54177707247915, 31.417344832], [120.54188236747537, 31.417344832], [120.54188236747537, 31.417435296]]]}}, {"type": "Feature", "properties": {"area_ha": 0.0, "mean": null}, "geometry": {"type": "Polygon", "coordinates": [[[120.55020067217589, 31.417254368000002], [120.55009537717969, 31.417163904], [120.55020067217589, 31.417163904], [120.55020067217589, 31.417254368000002]]]}}, {"type": "Feature", "properties": {"area_ha": 0.0, "mean": null}, "geometry": {"type": "Polygon", "coordinates": [[[120.54209295746779, 31.417163904], [120.54198766247157, 31.41707344], [120.54209295746779, 31.41707344], [120.54209295746779, 31.417163904]]]}}, {"type": "Feature", "properties": {"area_ha": 0.0, "mean": null}, "geometry": {"type": "Polygon", "coordinates": [[[120.55051655716453, 31.416892512], [120.55041126216831, 31.416802048], [120.55051655716453, 31.416802048], [120.55051655716453, 31.416892512]]]}}, {"type": "Feature", "properties": {"area_ha": 0.0, "mean": null}, "geometry": {"type": "Polygon", "coordinates": [[[120.59421398059136, 31.41435952], [120.59410868559515, 31.414269056000002], [120.59421398059136, 31.414269056000002], [120.59421398059136, 31.41435952]]]}}, {"type": "Feature", "properties": {"area_ha": 0.01, "mean": 0.0797}, "geometry": {"type": "Polygon", "coordinates": [[[120.59884696042457, 31.412731168], [120.59863637043215, 31.412640704], [120.59884696042457, 31.412640704], [120.59884696042457, 31.412731168]]]}}, {"type": "Feature", "properties": {"area_ha": 0.0, "mean": null}, "geometry": {"type": "Polygon", "coordinates": [[[120.5957934055345, 31.412278848], [120.59568811053829, 31.412188384], [120.5957934055345, 31.412188384], [120.5957934055345, 31.412278848]]]}}, {"type": "Feature", "properties": {"area_ha": 0.0, "mean": null}, "geometry": {"type": "Polygon", "coordinates": [[[120.59863637043215, 31.41209792], [120.59853107543594, 31.412007456], [120.59863637043215, 31.412007456], [120.59863637043215, 31.41209792]]]}}, {"type": "Feature", "properties": {"area_ha": 0.0, "mean": null}, "geometry": {"type": "Polygon", "coordinates": [[[120.55967722183473, 31.411555136], [120.55957192683852, 31.411464672], [120.55967722183473, 31.411464672], [120.55967722183473, 31.411555136]]]}}, {"type": "Feature", "properties": {"area_ha": 0.0, "mean": null}, "geometry": {"type": "Polygon", "coordinates": [[[120.59937343540561, 31.411555136], [120.59926814040941, 31.411464672], [120.59937343540561, 31.411464672], [120.59937343540561, 31.411555136]]]}}, {"type": "Feature", "properties": {"area_ha": 0.08, "mean": 0.1593}, "geometry": {"type": "Polygon", "coordinates": [[[120.55988781182715, 31.411736064], [120.55978251683094, 31.411374208], [120.56020369681578, 31.411374208], [120.55988781182715, 31.411736064]]]}}, {"type": "Feature", "properties": {"area_ha": 0.02, "mean": 0.1123}, "geometry": {"type": "Polygon", "coordinates": [[[120.55862427187263, 31.411283744], [120.55830838688401, 31.411283744], [120.55830838688401, 31.41119328], [120.55862427187263, 31.411283744]]]}}, {"type": "Feature", "properties": {"area_ha": 0.0, "mean": null}, "geometry": {"type": "Polygon", "coordinates": [[[120.5433564974223, 31.410650496], [120.54325120242609, 31.410560032], [120.5433564974223, 31.410560032], [120.5433564974223, 31.410650496]]]}}, {"type": "Feature", "properties": {"area_ha": 0.0, "mean": null}, "geometry": {"type": "Polygon", "coordinates": [[[120.59516163555725, 31.409926784], [120.59505634056103, 31.40983632], [120.59516163555725, 31.40983632], [120.59516163555725, 31.409926784]]]}}, {"type": "Feature", "properties": {"area_ha": 0.0, "mean": null}, "geometry": {"type": "Polygon", "coordinates": [[[120.60242699029568, 31.409926784], [120.60232169529948, 31.40983632], [120.60242699029568, 31.40983632], [120.60242699029568, 31.409926784]]]}}, {"type": "Feature", "properties": {"area_ha": 0.01, "mean": 0.0826}, "geometry": {"type": "Polygon", "coordinates": [[[120.6026375802881, 31.40983632], [120.60253228529189, 31.409655392], [120.6026375802881, 31.409655392], [120.6026375802881, 31.40983632]]]}}, {"type": "Feature", "properties": {"area_ha": 0.0, "mean": null}, "geometry": {"type": "Polygon", "coordinates": [[[120.60316405526915, 31.409564928], [120.60305876027294, 31.409474464], [120.60316405526915, 31.409474464], [120.60316405526915, 31.409564928]]]}}, {"type": "Feature", "properties": {"area_ha": 0.0, "mean": null}, "geometry": {"type": "Polygon", "coordinates": [[[120.60337464526157, 31.409474464], [120.60326935026535, 31.409384], [120.60337464526157, 31.409384], [120.60337464526157, 31.409474464]]]}}, {"type": "Feature", "properties": {"area_ha": 0.0, "mean": null}, "geometry": {"type": "Polygon", "coordinates": [[[120.57168085140258, 31.401875488], [120.57157555640637, 31.401785024], [120.57168085140258, 31.401785024], [120.57168085140258, 31.401875488]]]}}]}