{"type": "FeatureCollection", "features": [{"type": "Feature", "properties": {"name": "黄埭镇水体边界 (JRC参考+S2 10m细化)"}, "geometry": {"type": "MultiPolygon", "coordinates": [[[[120.54714711728583, 31.395633472], [120.54735770727825, 31.395090688], [120.54641005231237, 31.394638368], [120.54714711728583, 31.395633472]]], [[[120.54472533237302, 31.398618784], [120.54483062736922, 31.395090688], [120.54430415238818, 31.396447648], [120.54472533237302, 31.398618784]]], [[[120.54388297240334, 31.401332704], [120.5433564974223, 31.399342496], [120.54293531743745, 31.399975744], [120.54388297240334, 31.401332704]]], [[[120.5228239731615, 31.410017248], [120.52219220318423, 31.409655392], [120.52208690818803, 31.410017248], [120.5228239731615, 31.410017248]]], [[[120.52324515314633, 31.410560032], [120.52335044814254, 31.410379104], [120.52303456315391, 31.41028864], [120.52324515314633, 31.410560032]]], [[[120.52387692312358, 31.410740960000002], [120.5239822181198, 31.410560032], [120.52366633313116, 31.410379104], [120.52387692312358, 31.410740960000002]]], [[[120.5433564974223, 31.410650496], [120.54325120242609, 31.410469568], [120.54304061243367, 31.410560032], [120.5433564974223, 31.410650496]]], [[[120.5149268484458, 31.413726272], [120.5148215534496, 31.413545344], [120.51461096345717, 31.413635808], [120.5149268484458, 31.413726272]]], [[[120.54146118749053, 31.41797808], [120.54219825246399, 31.417163904], [120.54156648248674, 31.417163904], [120.54146118749053, 31.41797808]]], [[[120.54325120242609, 31.419063648], [120.54314590742987, 31.41888272], [120.54293531743745, 31.418973184], [120.54325120242609, 31.419063648]]], [[[120.54156648248674, 31.420872928], [120.54135589249432, 31.420601536], [120.5411453025019, 31.420692], [120.54156648248674, 31.420872928]]], [[[120.54672593730099, 31.42204896], [120.54651534730857, 31.421687104], [120.54619946231995, 31.421868032], [120.54672593730099, 31.42204896]]], [[[120.54841065724034, 31.426391232], [120.54967419719485, 31.421325248], [120.54493592236544, 31.422863136], [120.54841065724034, 31.426391232]]], [[[120.5411453025019, 31.426300768], [120.54104000750569, 31.425034272], [120.54072412251706, 31.4252152], [120.5411453025019, 31.426300768]]], [[[120.52008630326004, 31.431819072], [120.52103395822593, 31.42702448], [120.51798040333587, 31.430462112], [120.52008630326004, 31.431819072]]], [[[120.53788115761941, 31.447559808], [120.5377758626232, 31.447378880000002], [120.53756527263079, 31.447469344], [120.53788115761941, 31.447559808]]], [[[120.52598282304777, 31.46773328], [120.52545634806673, 31.46728096], [120.52535105307051, 31.467461888], [120.52598282304777, 31.46773328]]], [[[120.53177404783928, 31.470175808], [120.53103698286581, 31.469904416000002], [120.53072109787719, 31.470356736], [120.53177404783928, 31.470175808]]], [[[120.53419583275209, 31.470989984], [120.5343011277483, 31.470809056], [120.53398524275967, 31.470628128], [120.53419583275209, 31.470989984]]], [[[120.53893410758151, 31.471080448000002], [120.53440642274451, 31.470537664000002], [120.53577525769524, 31.471713696000002], [120.53893410758151, 31.471080448000002]]], [[[120.54104000750569, 31.474789472], [120.54251413745261, 31.475151328], [120.54283002244125, 31.475151328], [120.54177707247915, 31.474337152], [120.54104000750569, 31.474789472]]], [[[120.54293531743745, 31.475332256], [120.54293531743745, 31.475241792000002], [120.54283002244125, 31.475241792000002], [120.54293531743745, 31.475332256]]], [[[120.55114832714177, 31.400247136], [120.55093773714935, 31.399975744], [120.55030596717211, 31.400428064], [120.55114832714177, 31.400247136]]], [[[120.56378372668689, 31.401061312], [120.56473138165278, 31.400156672], [120.56325725170583, 31.400156672], [120.56378372668689, 31.401061312]]], [[[120.5717861463988, 31.401785024], [120.57168085140258, 31.401604096], [120.57147026141017, 31.40169456], [120.5717861463988, 31.401785024]]], [[[120.57273380136468, 31.401965952], [120.57262850636846, 31.401785024], [120.57241791637604, 31.401875488], [120.57273380136468, 31.401965952]]], [[[120.57315498134952, 31.402056416], [120.5730496863533, 31.401875488], [120.57283909636088, 31.401965952], [120.57315498134952, 31.402056416]]], [[[120.56799552653526, 31.403141984], [120.56767964154663, 31.4025992], [120.56725846156179, 31.402689664], [120.56799552653526, 31.403141984]]], [[[120.57104908142533, 31.40395616], [120.57094378642911, 31.403775232], [120.57073319643669, 31.403865696], [120.57104908142533, 31.40395616]]], [[[120.57799855117514, 31.404137088], [120.57715619120546, 31.403684768], [120.57705089620926, 31.40395616], [120.57799855117514, 31.404137088]]], [[[120.55883486186505, 31.410650496], [120.55925604184989, 31.41028864], [120.55872956686885, 31.410198176], [120.55883486186505, 31.410650496]]], [[[120.56020369681578, 31.411012352], [120.56030899181198, 31.410740960000002], [120.55967722183473, 31.410740960000002], [120.56020369681578, 31.411012352]]], [[[120.55904545185747, 31.411283744], [120.55915074685367, 31.411012352], [120.55851897687643, 31.410921888], [120.55904545185747, 31.411283744]]], [[[120.56030899181198, 31.4116456], [120.5604142868082, 31.411464672], [120.55967722183473, 31.411374208], [120.56030899181198, 31.4116456]]], [[[120.5490424272176, 31.416892512], [120.54883183722518, 31.41662112], [120.54862124723276, 31.416711584], [120.5490424272176, 31.416892512]]], [[[120.55009537717969, 31.417435296], [120.55093773714935, 31.416530656], [120.55009537717969, 31.416530656], [120.55009537717969, 31.417435296]]], [[[120.5479894772555, 31.427205408], [120.5478841822593, 31.42702448], [120.54767359226688, 31.427114944], [120.5479894772555, 31.427205408]]], [[[120.54830536224412, 31.427386336], [120.54841065724034, 31.427205408], [120.54809477225172, 31.427114944], [120.54830536224412, 31.427386336]]], [[[120.57010142645944, 31.429557472], [120.57052260644429, 31.42883376], [120.56873259150872, 31.4297384], [120.57010142645944, 31.429557472]]], [[[120.56725846156179, 31.431185824], [120.56746905155421, 31.430914432], [120.56715316656559, 31.430823968000002], [120.56725846156179, 31.431185824]]], [[[120.5662055115997, 31.431638144], [120.56610021660349, 31.431457216000002], [120.56588962661107, 31.43154768], [120.5662055115997, 31.431638144]]], [[[120.56262548172859, 31.439598976], [120.56252018673237, 31.439418048], [120.56230959673996, 31.439508512], [120.56262548172859, 31.439598976]]], [[[120.56409961167552, 31.440775008], [120.56399431667931, 31.44059408], [120.56378372668689, 31.440684544], [120.56409961167552, 31.440775008]]], [[[120.56262548172859, 31.448554912], [120.56252018673237, 31.448373984], [120.56220430174375, 31.448554912], [120.56262548172859, 31.448554912]]], [[[120.5798938611069, 31.401151776], [120.57968327111449, 31.400880384], [120.57905150113723, 31.40124224], [120.5798938611069, 31.401151776]]], [[[120.59610929052313, 31.410017248], [120.59705694548902, 31.409022144], [120.5946351605762, 31.409564928], [120.59610929052313, 31.410017248]]], [[[120.58968629575436, 31.410017248], [120.58958100075816, 31.409293536], [120.58926511576952, 31.409564928], [120.58968629575436, 31.410017248]]], [[[120.60390112024261, 31.40983632], [120.60347994025777, 31.409293536], [120.6013740403336, 31.41028864], [120.60390112024261, 31.40983632]]], [[[120.60400641523881, 31.410107712], [120.60400641523881, 31.410017248], [120.60390112024261, 31.410017248], [120.60400641523881, 31.410107712]]], [[[120.59431927558757, 31.410740960000002], [120.59421398059136, 31.410198176], [120.59337162062168, 31.410379104], [120.59431927558757, 31.410740960000002]]], [[[120.60053168036391, 31.41209792], [120.60095286034876, 31.410921888], [120.59958402539803, 31.411012352], [120.60053168036391, 31.41209792]]], [[[120.5957934055345, 31.412369312], [120.59631988051555, 31.411916992000002], [120.59410868559515, 31.411555136], [120.5957934055345, 31.412369312]]], [[[120.5946351605762, 31.414630912], [120.59484575056861, 31.41435952], [120.59421398059136, 31.414178592], [120.5946351605762, 31.414630912]]], [[[120.58494802092494, 31.421415712], [120.58400036595907, 31.420149216], [120.58231564601972, 31.421234784], [120.58494802092494, 31.421415712]]], [[[120.58252623601213, 31.423134528000002], [120.5821050560273, 31.422591744], [120.58115740106142, 31.423315456], [120.58252623601213, 31.423134528000002]]], [[[120.57905150113723, 31.42566752], [120.57799855117514, 31.425577056], [120.57810384617135, 31.426029376], [120.57905150113723, 31.42566752]]], [[[120.59958402539803, 31.431185824], [120.59853107543594, 31.430823968000002], [120.59832048544352, 31.431276288], [120.59958402539803, 31.431185824]]], [[[120.60811292009099, 31.43335696], [120.6083235100834, 31.433085568], [120.60790233009857, 31.433085568], [120.60811292009099, 31.43335696]]], [[[120.60790233009857, 31.44014176], [120.60779703510235, 31.439960832], [120.60758644510993, 31.440051296], [120.60790233009857, 31.44014176]]], [[[120.60221640030326, 31.445207744], [120.601584630326, 31.444574496], [120.60168992532222, 31.445388672], [120.60221640030326, 31.445207744]]], [[[120.59895225542078, 31.456787136], [120.59905755041699, 31.456244352000002], [120.59653047050796, 31.456153888], [120.59895225542078, 31.456787136]]], [[[120.5947404555724, 31.457601312], [120.5946351605762, 31.457420384], [120.59379280060652, 31.457691776], [120.5947404555724, 31.457601312]]], [[[120.59200278567097, 31.466557248], [120.59200278567097, 31.466376320000002], [120.59189749067475, 31.466376320000002], [120.59200278567097, 31.466557248]]], [[[120.58631685587567, 31.469452096], [120.58621156087946, 31.469180704], [120.58589567589082, 31.469452096], [120.58631685587567, 31.469452096]]]]}}]}