{"type": "FeatureCollection", "features": [{"type": "Feature", "properties": {"area_ha": 0.01, "mean": 0.2896}, "geometry": {"type": "Polygon", "coordinates": [[[120.58178917103866, 31.471532768], [120.58168387604246, 31.47135184], [120.58178917103866, 31.47135184], [120.58178917103866, 31.471532768]]]}}, {"type": "Feature", "properties": {"area_ha": 0.01, "mean": 0.3228}, "geometry": {"type": "Polygon", "coordinates": [[[120.58136799105384, 31.471442304], [120.58115740106142, 31.47135184], [120.58136799105384, 31.47135184], [120.58136799105384, 31.471442304]]]}}, {"type": "Feature", "properties": {"area_ha": 0.02, "mean": 0.2411}, "geometry": {"type": "Polygon", "coordinates": [[[120.54019764753602, 31.470628128], [120.5398817625474, 31.470537664000002], [120.54019764753602, 31.470447200000002], [120.54019764753602, 31.470628128]]]}}, {"type": "Feature", "properties": {"area_ha": 0.01, "mean": 0.2997}, "geometry": {"type": "Polygon", "coordinates": [[[120.5398817625474, 31.470537664000002], [120.53977646755118, 31.470356736], [120.5398817625474, 31.470356736], [120.5398817625474, 31.470537664000002]]]}}, {"type": "Feature", "properties": {"area_ha": 0.0, "mean": null}, "geometry": {"type": "Polygon", "coordinates": [[[120.53377465276725, 31.470085344], [120.53366935777105, 31.46999488], [120.53377465276725, 31.46999488], [120.53377465276725, 31.470085344]]]}}, {"type": "Feature", "properties": {"area_ha": 0.0, "mean": null}, "geometry": {"type": "Polygon", "coordinates": [[[120.53103698286581, 31.468999776], [120.5309316878696, 31.468909312], [120.53103698286581, 31.468909312], [120.53103698286581, 31.468999776]]]}}, {"type": "Feature", "properties": {"area_ha": 0.02, "mean": 0.1864}, "geometry": {"type": "Polygon", "coordinates": [[[120.60126874533738, 31.456515744], [120.60116345034118, 31.456696672], [120.60105815534496, 31.456515744], [120.60126874533738, 31.456515744]]]}}, {"type": "Feature", "properties": {"area_ha": 0.0, "mean": null}, "geometry": {"type": "Polygon", "coordinates": [[[120.60105815534496, 31.456515744], [120.60095286034876, 31.45642528], [120.60105815534496, 31.45642528], [120.60105815534496, 31.456515744]]]}}, {"type": "Feature", "properties": {"area_ha": 0.0, "mean": null}, "geometry": {"type": "Polygon", "coordinates": [[[120.60095286034876, 31.45642528], [120.60084756535254, 31.456334816000002], [120.60095286034876, 31.456334816000002], [120.60095286034876, 31.45642528]]]}}, {"type": "Feature", "properties": {"area_ha": 0.0, "mean": null}, "geometry": {"type": "Polygon", "coordinates": [[[120.60074227035633, 31.455430176], [120.60063697536013, 31.455339712], [120.60074227035633, 31.455339712], [120.60074227035633, 31.455430176]]]}}, {"type": "Feature", "properties": {"area_ha": 0.14, "mean": 0.3132}, "geometry": {"type": "Polygon", "coordinates": [[[120.58452684094011, 31.43335696], [120.5843162509477, 31.432995104], [120.58494802092494, 31.432995104], [120.58452684094011, 31.43335696]]]}}, {"type": "Feature", "properties": {"area_ha": 0.0, "mean": null}, "geometry": {"type": "Polygon", "coordinates": [[[120.51787510833965, 31.432000000000002], [120.51776981334345, 31.431909536], [120.51787510833965, 31.431909536], [120.51787510833965, 31.432000000000002]]]}}, {"type": "Feature", "properties": {"area_ha": 0.01, "mean": 0.2392}, "geometry": {"type": "Polygon", "coordinates": [[[120.52008630326004, 31.431728608], [120.51998100826384, 31.43154768], [120.52008630326004, 31.43154768], [120.52008630326004, 31.431728608]]]}}, {"type": "Feature", "properties": {"area_ha": 0.04, "mean": 0.3281}, "geometry": {"type": "Polygon", "coordinates": [[[120.51987571326764, 31.4297384], [120.5194545332828, 31.429376544], [120.51966512327522, 31.42928608], [120.51987571326764, 31.4297384]]]}}, {"type": "Feature", "properties": {"area_ha": 0.0, "mean": null}, "geometry": {"type": "Polygon", "coordinates": [[[120.52029689325246, 31.42928608], [120.52019159825626, 31.429195616], [120.52029689325246, 31.429195616], [120.52029689325246, 31.42928608]]]}}, {"type": "Feature", "properties": {"area_ha": 0.01, "mean": 0.2321}, "geometry": {"type": "Polygon", "coordinates": [[[120.51977041827142, 31.42928608], [120.51966512327522, 31.429105152], [120.51977041827142, 31.429105152], [120.51977041827142, 31.42928608]]]}}, {"type": "Feature", "properties": {"area_ha": 0.0, "mean": null}, "geometry": {"type": "Polygon", "coordinates": [[[120.57199673639121, 31.429014688], [120.571891441395, 31.428924224], [120.57199673639121, 31.428924224], [120.57199673639121, 31.429014688]]]}}, {"type": "Feature", "properties": {"area_ha": 0.03, "mean": 0.2543}, "geometry": {"type": "Polygon", "coordinates": [[[120.52019159825626, 31.429105152], [120.51998100826384, 31.42883376], [120.52019159825626, 31.42883376], [120.52019159825626, 31.429105152]]]}}, {"type": "Feature", "properties": {"area_ha": 0.0, "mean": null}, "geometry": {"type": "Polygon", "coordinates": [[[120.60621761015922, 31.42883376], [120.606112315163, 31.428743296], [120.60621761015922, 31.428743296], [120.60621761015922, 31.42883376]]]}}, {"type": "Feature", "properties": {"area_ha": 0.04, "mean": 0.2778}, "geometry": {"type": "Polygon", "coordinates": [[[120.51934923828658, 31.42883376], [120.51934923828658, 31.428652832], [120.51977041827142, 31.428743296], [120.51934923828658, 31.42883376]]]}}, {"type": "Feature", "properties": {"area_ha": 0.01, "mean": 0.2859}, "geometry": {"type": "Polygon", "coordinates": [[[120.51913864829417, 31.428743296], [120.51903335329796, 31.428562368], [120.51913864829417, 31.428562368], [120.51913864829417, 31.428743296]]]}}, {"type": "Feature", "properties": {"area_ha": 0.01, "mean": 0.2587}, "geometry": {"type": "Polygon", "coordinates": [[[120.606112315163, 31.428562368], [120.6060070201668, 31.428652832], [120.60590172517058, 31.428562368], [120.606112315163, 31.428562368]]]}}, {"type": "Feature", "properties": {"area_ha": 0.0, "mean": null}, "geometry": {"type": "Polygon", "coordinates": [[[120.57231262137984, 31.428562368], [120.57220732638363, 31.428471904000002], [120.57231262137984, 31.428471904000002], [120.57231262137984, 31.428562368]]]}}, {"type": "Feature", "properties": {"area_ha": 0.0, "mean": null}, "geometry": {"type": "Polygon", "coordinates": [[[120.51913864829417, 31.428471904000002], [120.51903335329796, 31.42838144], [120.51913864829417, 31.42838144], [120.51913864829417, 31.428471904000002]]]}}, {"type": "Feature", "properties": {"area_ha": 0.01, "mean": 0.2529}, "geometry": {"type": "Polygon", "coordinates": [[[120.5194545332828, 31.428019584], [120.51934923828658, 31.427748192], [120.5194545332828, 31.427748192], [120.5194545332828, 31.428019584]]]}}, {"type": "Feature", "properties": {"area_ha": 0.01, "mean": 0.2801}, "geometry": {"type": "Polygon", "coordinates": [[[120.52040218824868, 31.427838656], [120.52029689325246, 31.427657728], [120.52040218824868, 31.427657728], [120.52040218824868, 31.427838656]]]}}, {"type": "Feature", "properties": {"area_ha": 0.0, "mean": null}, "geometry": {"type": "Polygon", "coordinates": [[[120.52113925322215, 31.427657728], [120.52103395822593, 31.427567264], [120.52113925322215, 31.427567264], [120.52113925322215, 31.427657728]]]}}, {"type": "Feature", "properties": {"area_ha": 0.0, "mean": null}, "geometry": {"type": "Polygon", "coordinates": [[[120.51977041827142, 31.427567264], [120.51966512327522, 31.4274768], [120.51977041827142, 31.4274768], [120.51977041827142, 31.427567264]]]}}, {"type": "Feature", "properties": {"area_ha": 0.01, "mean": 0.2936}, "geometry": {"type": "Polygon", "coordinates": [[[120.52145513821077, 31.427567264], [120.52113925322215, 31.4274768], [120.52145513821077, 31.4274768], [120.52145513821077, 31.427567264]]]}}, {"type": "Feature", "properties": {"area_ha": 0.05, "mean": 0.3218}, "geometry": {"type": "Polygon", "coordinates": [[[120.52029689325246, 31.427567264], [120.51998100826384, 31.427295872000002], [120.52040218824868, 31.427295872000002], [120.52029689325246, 31.427567264]]]}}, {"type": "Feature", "properties": {"area_ha": 0.0, "mean": null}, "geometry": {"type": "Polygon", "coordinates": [[[120.57694560121304, 31.427386336], [120.57684030621684, 31.427295872000002], [120.57694560121304, 31.427295872000002], [120.57694560121304, 31.427386336]]]}}, {"type": "Feature", "properties": {"area_ha": 0.01, "mean": 0.1822}, "geometry": {"type": "Polygon", "coordinates": [[[120.57610324124337, 31.427295872000002], [120.57589265125095, 31.427205408], [120.57610324124337, 31.427205408], [120.57610324124337, 31.427295872000002]]]}}, {"type": "Feature", "properties": {"area_ha": 0.0, "mean": null}, "geometry": {"type": "Polygon", "coordinates": [[[120.57557676626233, 31.427205408], [120.57547147126611, 31.427114944], [120.57557676626233, 31.427114944], [120.57557676626233, 31.427205408]]]}}, {"type": "Feature", "properties": {"area_ha": 0.01, "mean": 0.2467}, "geometry": {"type": "Polygon", "coordinates": [[[120.57536617626991, 31.427114944], [120.57515558627749, 31.42702448], [120.57536617626991, 31.42702448], [120.57536617626991, 31.427114944]]]}}, {"type": "Feature", "properties": {"area_ha": 0.01, "mean": 0.2163}, "geometry": {"type": "Polygon", "coordinates": [[[120.60505936520092, 31.424943808000002], [120.6048487752085, 31.42476288], [120.60505936520092, 31.42476288], [120.60505936520092, 31.424943808000002]]]}}, {"type": "Feature", "properties": {"area_ha": 0.0, "mean": null}, "geometry": {"type": "Polygon", "coordinates": [[[120.60758644510993, 31.424581952], [120.60748115011373, 31.424491488], [120.60758644510993, 31.424491488], [120.60758644510993, 31.424581952]]]}}, {"type": "Feature", "properties": {"area_ha": 0.02, "mean": 0.2707}, "geometry": {"type": "Polygon", "coordinates": [[[120.6049540702047, 31.424581952], [120.60474348021229, 31.424491488], [120.6049540702047, 31.424401024], [120.6049540702047, 31.424581952]]]}}, {"type": "Feature", "properties": {"area_ha": 0.0, "mean": null}, "geometry": {"type": "Polygon", "coordinates": [[[120.60748115011373, 31.424401024], [120.60737585511751, 31.42431056], [120.60748115011373, 31.42431056], [120.60748115011373, 31.424401024]]]}}, {"type": "Feature", "properties": {"area_ha": 0.0, "mean": null}, "geometry": {"type": "Polygon", "coordinates": [[[120.60474348021229, 31.424039168], [120.60463818521607, 31.423948704], [120.60474348021229, 31.423948704], [120.60474348021229, 31.424039168]]]}}, {"type": "Feature", "properties": {"area_ha": 0.0, "mean": null}, "geometry": {"type": "Polygon", "coordinates": [[[120.6071652651251, 31.424039168], [120.60705997012889, 31.423948704], [120.6071652651251, 31.423948704], [120.6071652651251, 31.424039168]]]}}, {"type": "Feature", "properties": {"area_ha": 0.01, "mean": 0.1625}, "geometry": {"type": "Polygon", "coordinates": [[[120.6071652651251, 31.423586848], [120.60705997012889, 31.42340592], [120.6071652651251, 31.42340592], [120.6071652651251, 31.423586848]]]}}, {"type": "Feature", "properties": {"area_ha": 0.0, "mean": null}, "geometry": {"type": "Polygon", "coordinates": [[[120.6071652651251, 31.423315456], [120.60705997012889, 31.423224992], [120.6071652651251, 31.423224992], [120.6071652651251, 31.423315456]]]}}, {"type": "Feature", "properties": {"area_ha": 0.0, "mean": null}, "geometry": {"type": "Polygon", "coordinates": [[[120.60737585511751, 31.423044064], [120.60727056012131, 31.4229536], [120.60737585511751, 31.4229536], [120.60737585511751, 31.423044064]]]}}, {"type": "Feature", "properties": {"area_ha": 0.0, "mean": null}, "geometry": {"type": "Polygon", "coordinates": [[[120.60558584018196, 31.422682208], [120.60548054518576, 31.422591744], [120.60558584018196, 31.422591744], [120.60558584018196, 31.422682208]]]}}, {"type": "Feature", "properties": {"area_ha": 0.0, "mean": null}, "geometry": {"type": "Polygon", "coordinates": [[[120.58020974609553, 31.422591744], [120.58010445109932, 31.42250128], [120.58020974609553, 31.42250128], [120.58020974609553, 31.422591744]]]}}, {"type": "Feature", "properties": {"area_ha": 0.0, "mean": null}, "geometry": {"type": "Polygon", "coordinates": [[[120.60505936520092, 31.422320352], [120.6049540702047, 31.422229888], [120.60505936520092, 31.422229888], [120.60505936520092, 31.422320352]]]}}, {"type": "Feature", "properties": {"area_ha": 0.01, "mean": 0.2854}, "geometry": {"type": "Polygon", "coordinates": [[[120.54230354746021, 31.421053856], [120.54219825246399, 31.420872928], [120.54230354746021, 31.420872928], [120.54230354746021, 31.421053856]]]}}, {"type": "Feature", "properties": {"area_ha": 0.0, "mean": null}, "geometry": {"type": "Polygon", "coordinates": [[[120.58294741599697, 31.420872928], [120.58284212100077, 31.420782464000002], [120.58294741599697, 31.420782464000002], [120.58294741599697, 31.420872928]]]}}, {"type": "Feature", "properties": {"area_ha": 0.0, "mean": null}, "geometry": {"type": "Polygon", "coordinates": [[[120.58336859598181, 31.420330144], [120.58326330098559, 31.42023968], [120.58336859598181, 31.42023968], [120.58336859598181, 31.420330144]]]}}, {"type": "Feature", "properties": {"area_ha": 0.0, "mean": null}, "geometry": {"type": "Polygon", "coordinates": [[[120.58736980583775, 31.42023968], [120.58726451084155, 31.420149216], [120.58736980583775, 31.420149216], [120.58736980583775, 31.42023968]]]}}, {"type": "Feature", "properties": {"area_ha": 0.0, "mean": null}, "geometry": {"type": "Polygon", "coordinates": [[[120.54440944738438, 31.420149216], [120.54430415238818, 31.420058752], [120.54440944738438, 31.420058752], [120.54440944738438, 31.420149216]]]}}, {"type": "Feature", "properties": {"area_ha": 0.0, "mean": null}, "geometry": {"type": "Polygon", "coordinates": [[[120.58357918597423, 31.420149216], [120.58347389097801, 31.420058752], [120.58357918597423, 31.420058752], [120.58357918597423, 31.420149216]]]}}, {"type": "Feature", "properties": {"area_ha": 0.0, "mean": null}, "geometry": {"type": "Polygon", "coordinates": [[[120.58368448097043, 31.420058752], [120.58357918597423, 31.419968288], [120.58368448097043, 31.419968288], [120.58368448097043, 31.420058752]]]}}, {"type": "Feature", "properties": {"area_ha": 0.0, "mean": null}, "geometry": {"type": "Polygon", "coordinates": [[[120.58378977596665, 31.419968288], [120.58368448097043, 31.419877824], [120.58378977596665, 31.419877824], [120.58378977596665, 31.419968288]]]}}, {"type": "Feature", "properties": {"area_ha": 0.01, "mean": 0.2865}, "geometry": {"type": "Polygon", "coordinates": [[[120.58473743093253, 31.419696896], [120.58463213593632, 31.419515968], [120.58473743093253, 31.419515968], [120.58473743093253, 31.419696896]]]}}, {"type": "Feature", "properties": {"area_ha": 0.0, "mean": null}, "geometry": {"type": "Polygon", "coordinates": [[[120.54072412251706, 31.419606432000002], [120.54061882752086, 31.419515968], [120.54072412251706, 31.419515968], [120.54072412251706, 31.419606432000002]]]}}, {"type": "Feature", "properties": {"area_ha": 0.0, "mean": null}, "geometry": {"type": "Polygon", "coordinates": [[[120.58484272592874, 31.419515968], [120.58473743093253, 31.419425504], [120.58484272592874, 31.419425504], [120.58484272592874, 31.419515968]]]}}, {"type": "Feature", "properties": {"area_ha": 0.0, "mean": null}, "geometry": {"type": "Polygon", "coordinates": [[[120.58926511576952, 31.419154112], [120.58915982077332, 31.419063648], [120.58926511576952, 31.419063648], [120.58926511576952, 31.419154112]]]}}, {"type": "Feature", "properties": {"area_ha": 0.0, "mean": null}, "geometry": {"type": "Polygon", "coordinates": [[[120.58937041076574, 31.419063648], [120.58926511576952, 31.418973184], [120.58937041076574, 31.418973184], [120.58937041076574, 31.419063648]]]}}, {"type": "Feature", "properties": {"area_ha": 0.0, "mean": null}, "geometry": {"type": "Polygon", "coordinates": [[[120.58958100075816, 31.41888272], [120.58947570576194, 31.418792256], [120.58958100075816, 31.418792256], [120.58958100075816, 31.41888272]]]}}, {"type": "Feature", "properties": {"area_ha": 0.01, "mean": 0.2594}, "geometry": {"type": "Polygon", "coordinates": [[[120.58631685587567, 31.418701792], [120.58621156087946, 31.418520864], [120.58631685587567, 31.418520864], [120.58631685587567, 31.418701792]]]}}, {"type": "Feature", "properties": {"area_ha": 0.0, "mean": null}, "geometry": {"type": "Polygon", "coordinates": [[[120.58642215087188, 31.418430400000002], [120.58631685587567, 31.418339936], [120.58642215087188, 31.418339936], [120.58642215087188, 31.418430400000002]]]}}, {"type": "Feature", "properties": {"area_ha": 0.02, "mean": 0.3147}, "geometry": {"type": "Polygon", "coordinates": [[[120.5912657206975, 31.417797152], [120.59116042570129, 31.417616224], [120.59137101569371, 31.417616224], [120.5912657206975, 31.417797152]]]}}, {"type": "Feature", "properties": {"area_ha": 0.01, "mean": 0.2596}, "geometry": {"type": "Polygon", "coordinates": [[[120.59147631068993, 31.415987872], [120.5912657206975, 31.415897408], [120.59147631068993, 31.415897408], [120.59147631068993, 31.415987872]]]}}, {"type": "Feature", "properties": {"area_ha": 0.0, "mean": null}, "geometry": {"type": "Polygon", "coordinates": [[[120.59631988051555, 31.413816736], [120.59621458551933, 31.413726272], [120.59631988051555, 31.413726272], [120.59631988051555, 31.413816736]]]}}, {"type": "Feature", "properties": {"area_ha": 0.01, "mean": 0.1635}, "geometry": {"type": "Polygon", "coordinates": [[[120.59884696042457, 31.412731168], [120.59863637043215, 31.412640704], [120.59884696042457, 31.412640704], [120.59884696042457, 31.412731168]]]}}, {"type": "Feature", "properties": {"area_ha": 0.0, "mean": null}, "geometry": {"type": "Polygon", "coordinates": [[[120.5981098954511, 31.412369312], [120.5980046004549, 31.412278848], [120.5981098954511, 31.412278848], [120.5981098954511, 31.412369312]]]}}, {"type": "Feature", "properties": {"area_ha": 0.0, "mean": null}, "geometry": {"type": "Polygon", "coordinates": [[[120.5982151904473, 31.412278848], [120.5981098954511, 31.412188384], [120.5982151904473, 31.412188384], [120.5982151904473, 31.412278848]]]}}, {"type": "Feature", "properties": {"area_ha": 0.0, "mean": null}, "geometry": {"type": "Polygon", "coordinates": [[[120.59863637043215, 31.41209792], [120.59853107543594, 31.412007456], [120.59863637043215, 31.412007456], [120.59863637043215, 31.41209792]]]}}, {"type": "Feature", "properties": {"area_ha": 0.0, "mean": null}, "geometry": {"type": "Polygon", "coordinates": [[[120.59905755041699, 31.411826528], [120.59895225542078, 31.411736064], [120.59905755041699, 31.411736064], [120.59905755041699, 31.411826528]]]}}, {"type": "Feature", "properties": {"area_ha": 0.0, "mean": null}, "geometry": {"type": "Polygon", "coordinates": [[[120.59916284541319, 31.411736064], [120.59905755041699, 31.4116456], [120.59916284541319, 31.4116456], [120.59916284541319, 31.411736064]]]}}, {"type": "Feature", "properties": {"area_ha": 0.0, "mean": null}, "geometry": {"type": "Polygon", "coordinates": [[[120.59926814040941, 31.4116456], [120.59916284541319, 31.411555136], [120.59926814040941, 31.411555136], [120.59926814040941, 31.4116456]]]}}, {"type": "Feature", "properties": {"area_ha": 0.0, "mean": null}, "geometry": {"type": "Polygon", "coordinates": [[[120.59947873040183, 31.411555136], [120.59937343540561, 31.411464672], [120.59947873040183, 31.411464672], [120.59947873040183, 31.411555136]]]}}, {"type": "Feature", "properties": {"area_ha": 0.0, "mean": null}, "geometry": {"type": "Polygon", "coordinates": [[[120.55894015686127, 31.411464672], [120.55883486186505, 31.411374208], [120.55894015686127, 31.411374208], [120.55894015686127, 31.411464672]]]}}, {"type": "Feature", "properties": {"area_ha": 0.02, "mean": 0.1727}, "geometry": {"type": "Polygon", "coordinates": [[[120.59968932039425, 31.411374208], [120.59947873040183, 31.411283744], [120.59968932039425, 31.41119328], [120.59968932039425, 31.411374208]]]}}, {"type": "Feature", "properties": {"area_ha": 0.01, "mean": 0.1919}, "geometry": {"type": "Polygon", "coordinates": [[[120.60000520538287, 31.411102816], [120.59979461539045, 31.411012352], [120.60000520538287, 31.411012352], [120.60000520538287, 31.411102816]]]}}, {"type": "Feature", "properties": {"area_ha": 0.0, "mean": null}, "geometry": {"type": "Polygon", "coordinates": [[[120.55851897687643, 31.409926784], [120.55841368188021, 31.40983632], [120.55851897687643, 31.40983632], [120.55851897687643, 31.409926784]]]}}, {"type": "Feature", "properties": {"area_ha": 0.0, "mean": null}, "geometry": {"type": "Polygon", "coordinates": [[[120.55767661690675, 31.409745856], [120.55757132191054, 31.409655392], [120.55767661690675, 31.409655392], [120.55767661690675, 31.409745856]]]}}, {"type": "Feature", "properties": {"area_ha": 0.0, "mean": null}, "geometry": {"type": "Polygon", "coordinates": [[[120.55778191190296, 31.409655392], [120.55767661690675, 31.409564928], [120.55778191190296, 31.409564928], [120.55778191190296, 31.409655392]]]}}, {"type": "Feature", "properties": {"area_ha": 0.16, "mean": 0.3908}, "geometry": {"type": "Polygon", "coordinates": [[[120.5957934055345, 31.409474464], [120.59495104556483, 31.409112608], [120.5957934055345, 31.409112608], [120.5957934055345, 31.409474464]]]}}]}