{"type": "FeatureCollection", "features": [{"type": "Feature", "properties": {"area_ha": 0.0, "mean": null}, "geometry": {"type": "Polygon", "coordinates": [[[120.54293531743745, 31.475241792000002], [120.54283002244125, 31.475151328], [120.54293531743745, 31.475151328], [120.54293531743745, 31.475241792000002]]]}}, {"type": "Feature", "properties": {"area_ha": 0.0, "mean": null}, "geometry": {"type": "Polygon", "coordinates": [[[120.54209295746779, 31.474608544000002], [120.54198766247157, 31.47451808], [120.54209295746779, 31.47451808], [120.54209295746779, 31.474608544000002]]]}}, {"type": "Feature", "properties": {"area_ha": 0.0, "mean": null}, "geometry": {"type": "Polygon", "coordinates": [[[120.54019764753602, 31.474337152], [120.5400923525398, 31.474246688], [120.54019764753602, 31.474246688], [120.54019764753602, 31.474337152]]]}}, {"type": "Feature", "properties": {"area_ha": 0.0, "mean": null}, "geometry": {"type": "Polygon", "coordinates": [[[120.5398817625474, 31.474156224], [120.53977646755118, 31.474065760000002], [120.5398817625474, 31.474065760000002], [120.5398817625474, 31.474156224]]]}}, {"type": "Feature", "properties": {"area_ha": 0.0, "mean": null}, "geometry": {"type": "Polygon", "coordinates": [[[120.53977646755118, 31.474065760000002], [120.53967117255497, 31.473975296], [120.53977646755118, 31.473975296], [120.53977646755118, 31.474065760000002]]]}}, {"type": "Feature", "properties": {"area_ha": 0.0, "mean": null}, "geometry": {"type": "Polygon", "coordinates": [[[120.53967117255497, 31.473975296], [120.53956587755876, 31.473884832], [120.53967117255497, 31.473884832], [120.53967117255497, 31.473975296]]]}}, {"type": "Feature", "properties": {"area_ha": 0.0, "mean": null}, "geometry": {"type": "Polygon", "coordinates": [[[120.53956587755876, 31.473884832], [120.53946058256255, 31.473794368], [120.53956587755876, 31.473794368], [120.53956587755876, 31.473884832]]]}}, {"type": "Feature", "properties": {"area_ha": 0.0, "mean": null}, "geometry": {"type": "Polygon", "coordinates": [[[120.53946058256255, 31.473703904], [120.53935528756634, 31.47361344], [120.53946058256255, 31.47361344], [120.53946058256255, 31.473703904]]]}}, {"type": "Feature", "properties": {"area_ha": 0.02, "mean": 0.3645}, "geometry": {"type": "Polygon", "coordinates": [[[120.57884091114481, 31.47316112], [120.57852502615619, 31.472980192], [120.57884091114481, 31.473070656], [120.57884091114481, 31.47316112]]]}}, {"type": "Feature", "properties": {"area_ha": 0.0, "mean": null}, "geometry": {"type": "Polygon", "coordinates": [[[120.53924999257013, 31.473070656], [120.53914469757392, 31.472980192], [120.53924999257013, 31.472980192], [120.53924999257013, 31.473070656]]]}}, {"type": "Feature", "properties": {"area_ha": 0.01, "mean": 0.3051}, "geometry": {"type": "Polygon", "coordinates": [[[120.57915679613343, 31.473070656], [120.57894620614103, 31.472980192], [120.57915679613343, 31.472980192], [120.57915679613343, 31.473070656]]]}}, {"type": "Feature", "properties": {"area_ha": 0.05, "mean": 0.3314}, "geometry": {"type": "Polygon", "coordinates": [[[120.57957797611827, 31.473070656], [120.57915679613343, 31.472889728000002], [120.57968327111449, 31.472889728000002], [120.57957797611827, 31.473070656]]]}}, {"type": "Feature", "properties": {"area_ha": 0.0, "mean": null}, "geometry": {"type": "Polygon", "coordinates": [[[120.54082941751327, 31.471623232000002], [120.54072412251706, 31.471532768], [120.54082941751327, 31.471532768], [120.54082941751327, 31.471623232000002]]]}}, {"type": "Feature", "properties": {"area_ha": 0.0, "mean": null}, "geometry": {"type": "Polygon", "coordinates": [[[120.53956587755876, 31.471532768], [120.53946058256255, 31.471442304], [120.53956587755876, 31.471442304], [120.53956587755876, 31.471532768]]]}}, {"type": "Feature", "properties": {"area_ha": 0.04, "mean": 0.1645}, "geometry": {"type": "Polygon", "coordinates": [[[120.58189446603488, 31.471623232000002], [120.58157858104624, 31.471442304], [120.58178917103866, 31.47135184], [120.58189446603488, 31.471623232000002]]]}}, {"type": "Feature", "properties": {"area_ha": 0.0, "mean": null}, "geometry": {"type": "Polygon", "coordinates": [[[120.53946058256255, 31.471442304], [120.53935528756634, 31.47135184], [120.53946058256255, 31.47135184], [120.53946058256255, 31.471442304]]]}}, {"type": "Feature", "properties": {"area_ha": 0.01, "mean": 0.3228}, "geometry": {"type": "Polygon", "coordinates": [[[120.58136799105384, 31.471532768], [120.58115740106142, 31.47135184], [120.58136799105384, 31.47135184], [120.58136799105384, 31.471532768]]]}}, {"type": "Feature", "properties": {"area_ha": 0.0, "mean": null}, "geometry": {"type": "Polygon", "coordinates": [[[120.53935528756634, 31.47135184], [120.53924999257013, 31.471261376], [120.53935528756634, 31.471261376], [120.53935528756634, 31.47135184]]]}}, {"type": "Feature", "properties": {"area_ha": 0.01, "mean": 0.4332}, "geometry": {"type": "Polygon", "coordinates": [[[120.53282699780137, 31.471261376], [120.53261640780894, 31.471170912], [120.53282699780137, 31.471170912], [120.53282699780137, 31.471261376]]]}}, {"type": "Feature", "properties": {"area_ha": 0.02, "mean": 0.3309}, "geometry": {"type": "Polygon", "coordinates": [[[120.5388288125853, 31.471080448000002], [120.53840763260045, 31.470989984], [120.5388288125853, 31.470989984], [120.5388288125853, 31.471080448000002]]]}}, {"type": "Feature", "properties": {"area_ha": 0.0, "mean": null}, "geometry": {"type": "Polygon", "coordinates": [[[120.53809174761183, 31.470989984], [120.53798645261563, 31.47089952], [120.53809174761183, 31.47089952], [120.53809174761183, 31.470989984]]]}}, {"type": "Feature", "properties": {"area_ha": 0.0, "mean": null}, "geometry": {"type": "Polygon", "coordinates": [[[120.53767056762699, 31.47089952], [120.53756527263079, 31.470809056], [120.53767056762699, 31.470809056], [120.53767056762699, 31.47089952]]]}}, {"type": "Feature", "properties": {"area_ha": 0.01, "mean": 0.394}, "geometry": {"type": "Polygon", "coordinates": [[[120.53745997763457, 31.470809056], [120.53724938764216, 31.470718592], [120.53745997763457, 31.470718592], [120.53745997763457, 31.470809056]]]}}, {"type": "Feature", "properties": {"area_ha": 0.0, "mean": null}, "geometry": {"type": "Polygon", "coordinates": [[[120.53072109787719, 31.470628128], [120.53061580288097, 31.470537664000002], [120.53072109787719, 31.470537664000002], [120.53072109787719, 31.470628128]]]}}, {"type": "Feature", "properties": {"area_ha": 0.1, "mean": 0.1994}, "geometry": {"type": "Polygon", "coordinates": [[[120.54019764753602, 31.470628128], [120.53977646755118, 31.470266272], [120.54019764753602, 31.470085344], [120.54019764753602, 31.470628128]]]}}, {"type": "Feature", "properties": {"area_ha": 0.01, "mean": 0.4281}, "geometry": {"type": "Polygon", "coordinates": [[[120.53419583275209, 31.470175808], [120.53398524275967, 31.470085344], [120.53419583275209, 31.470085344], [120.53419583275209, 31.470175808]]]}}, {"type": "Feature", "properties": {"area_ha": 0.01, "mean": 0.4482}, "geometry": {"type": "Polygon", "coordinates": [[[120.53377465276725, 31.470085344], [120.53345876777863, 31.46999488], [120.53377465276725, 31.46999488], [120.53377465276725, 31.470085344]]]}}, {"type": "Feature", "properties": {"area_ha": 0.0, "mean": null}, "geometry": {"type": "Polygon", "coordinates": [[[120.5332481777862, 31.46999488], [120.53314288279, 31.469904416000002], [120.5332481777862, 31.469904416000002], [120.5332481777862, 31.46999488]]]}}, {"type": "Feature", "properties": {"area_ha": 0.0, "mean": null}, "geometry": {"type": "Polygon", "coordinates": [[[120.53303758779379, 31.469904416000002], [120.53293229279758, 31.469813952], [120.53303758779379, 31.469813952], [120.53303758779379, 31.469904416000002]]]}}, {"type": "Feature", "properties": {"area_ha": 0.0, "mean": null}, "geometry": {"type": "Polygon", "coordinates": [[[120.53293229279758, 31.469813952], [120.53282699780137, 31.469723488], [120.53293229279758, 31.469723488], [120.53293229279758, 31.469813952]]]}}, {"type": "Feature", "properties": {"area_ha": 0.01, "mean": 0.3539}, "geometry": {"type": "Polygon", "coordinates": [[[120.53061580288097, 31.46909024], [120.53040521288855, 31.468999776], [120.53061580288097, 31.468999776], [120.53061580288097, 31.46909024]]]}}, {"type": "Feature", "properties": {"area_ha": 0.0, "mean": null}, "geometry": {"type": "Polygon", "coordinates": [[[120.52935226292647, 31.468999776], [120.52924696793025, 31.468909312], [120.52935226292647, 31.468909312], [120.52935226292647, 31.468999776]]]}}, {"type": "Feature", "properties": {"area_ha": 0.0, "mean": null}, "geometry": {"type": "Polygon", "coordinates": [[[120.53103698286581, 31.468999776], [120.5309316878696, 31.468909312], [120.53103698286581, 31.468909312], [120.53103698286581, 31.468999776]]]}}, {"type": "Feature", "properties": {"area_ha": 0.0, "mean": null}, "geometry": {"type": "Polygon", "coordinates": [[[120.52819401796816, 31.468004672], [120.52808872297196, 31.467914208], [120.52819401796816, 31.467914208], [120.52819401796816, 31.468004672]]]}}, {"type": "Feature", "properties": {"area_ha": 0.0, "mean": null}, "geometry": {"type": "Polygon", "coordinates": [[[120.52703577300986, 31.467552352000002], [120.52693047801365, 31.467461888], [120.52703577300986, 31.467461888], [120.52703577300986, 31.467552352000002]]]}}, {"type": "Feature", "properties": {"area_ha": 0.0, "mean": null}, "geometry": {"type": "Polygon", "coordinates": [[[120.53019462289613, 31.467371424], [120.53008932789993, 31.46728096], [120.53019462289613, 31.46728096], [120.53019462289613, 31.467371424]]]}}, {"type": "Feature", "properties": {"area_ha": 0.0, "mean": null}, "geometry": {"type": "Polygon", "coordinates": [[[120.52587752805155, 31.464476576], [120.52577223305535, 31.464386112], [120.52587752805155, 31.464386112], [120.52587752805155, 31.464476576]]]}}, {"type": "Feature", "properties": {"area_ha": 0.01, "mean": 0.1885}, "geometry": {"type": "Polygon", "coordinates": [[[120.5969516504928, 31.457420384], [120.59674106050038, 31.45732992], [120.5969516504928, 31.45732992], [120.5969516504928, 31.457420384]]]}}, {"type": "Feature", "properties": {"area_ha": 0.0, "mean": null}, "geometry": {"type": "Polygon", "coordinates": [[[120.60021579537529, 31.457148992], [120.60011050037907, 31.457058528], [120.60021579537529, 31.457058528], [120.60021579537529, 31.457148992]]]}}, {"type": "Feature", "properties": {"area_ha": 0.0, "mean": null}, "geometry": {"type": "Polygon", "coordinates": [[[120.59631988051555, 31.456787136], [120.59621458551933, 31.456696672], [120.59631988051555, 31.456696672], [120.59631988051555, 31.456787136]]]}}, {"type": "Feature", "properties": {"area_ha": 0.07, "mean": 0.1839}, "geometry": {"type": "Polygon", "coordinates": [[[120.60126874533738, 31.45642528], [120.60116345034118, 31.456696672], [120.60084756535254, 31.456334816000002], [120.60126874533738, 31.45642528]]]}}, {"type": "Feature", "properties": {"area_ha": 0.0, "mean": null}, "geometry": {"type": "Polygon", "coordinates": [[[120.60063697536013, 31.45597296], [120.60053168036391, 31.455882496], [120.60063697536013, 31.455882496], [120.60063697536013, 31.45597296]]]}}, {"type": "Feature", "properties": {"area_ha": 0.0, "mean": null}, "geometry": {"type": "Polygon", "coordinates": [[[120.60095286034876, 31.455701568000002], [120.60084756535254, 31.455611104], [120.60095286034876, 31.455611104], [120.60095286034876, 31.455701568000002]]]}}, {"type": "Feature", "properties": {"area_ha": 0.04, "mean": 0.1369}, "geometry": {"type": "Polygon", "coordinates": [[[120.60084756535254, 31.455611104], [120.60063697536013, 31.455249248], [120.60084756535254, 31.455249248], [120.60084756535254, 31.455611104]]]}}, {"type": "Feature", "properties": {"area_ha": 0.0, "mean": null}, "geometry": {"type": "Polygon", "coordinates": [[[120.60084756535254, 31.454796928], [120.60074227035633, 31.454706464], [120.60084756535254, 31.454706464], [120.60084756535254, 31.454796928]]]}}, {"type": "Feature", "properties": {"area_ha": 0.0, "mean": null}, "geometry": {"type": "Polygon", "coordinates": [[[120.53756527263079, 31.445750528], [120.53745997763457, 31.445660064000002], [120.53756527263079, 31.445660064000002], [120.53756527263079, 31.445750528]]]}}, {"type": "Feature", "properties": {"area_ha": 0.08, "mean": 0.1466}, "geometry": {"type": "Polygon", "coordinates": [[[120.59589870053071, 31.444936352], [120.59516163555725, 31.44511728], [120.59505634056103, 31.444936352], [120.59589870053071, 31.444936352]]]}}, {"type": "Feature", "properties": {"area_ha": 0.0, "mean": null}, "geometry": {"type": "Polygon", "coordinates": [[[120.53788115761941, 31.444031712], [120.5377758626232, 31.443941248], [120.53788115761941, 31.443941248], [120.53788115761941, 31.444031712]]]}}, {"type": "Feature", "properties": {"area_ha": 0.0, "mean": null}, "geometry": {"type": "Polygon", "coordinates": [[[120.53861822259287, 31.440413152], [120.53851292759667, 31.440322688000002], [120.53861822259287, 31.440322688000002], [120.53861822259287, 31.440413152]]]}}, {"type": "Feature", "properties": {"area_ha": 0.0, "mean": null}, "geometry": {"type": "Polygon", "coordinates": [[[120.56252018673237, 31.439779904], [120.56241489173617, 31.439689440000002], [120.56252018673237, 31.439689440000002], [120.56252018673237, 31.439779904]]]}}, {"type": "Feature", "properties": {"area_ha": 0.0, "mean": null}, "geometry": {"type": "Polygon", "coordinates": [[[120.56241489173617, 31.439418048], [120.56230959673996, 31.439327584], [120.56241489173617, 31.439327584], [120.56241489173617, 31.439418048]]]}}, {"type": "Feature", "properties": {"area_ha": 0.14, "mean": 0.3132}, "geometry": {"type": "Polygon", "coordinates": [[[120.58452684094011, 31.43335696], [120.5843162509477, 31.432995104], [120.58494802092494, 31.432995104], [120.58452684094011, 31.43335696]]]}}, {"type": "Feature", "properties": {"area_ha": 0.0, "mean": null}, "geometry": {"type": "Polygon", "coordinates": [[[120.51808569833207, 31.432361856], [120.51798040333587, 31.432271392], [120.51808569833207, 31.432271392], [120.51808569833207, 31.432361856]]]}}, {"type": "Feature", "properties": {"area_ha": 0.0, "mean": null}, "geometry": {"type": "Polygon", "coordinates": [[[120.51977041827142, 31.432000000000002], [120.51966512327522, 31.431909536], [120.51977041827142, 31.431909536], [120.51977041827142, 31.432000000000002]]]}}, {"type": "Feature", "properties": {"area_ha": 0.01, "mean": 0.2634}, "geometry": {"type": "Polygon", "coordinates": [[[120.51787510833965, 31.432090464], [120.51776981334345, 31.431819072], [120.51787510833965, 31.431819072], [120.51787510833965, 31.432090464]]]}}, {"type": "Feature", "properties": {"area_ha": 0.0, "mean": null}, "geometry": {"type": "Polygon", "coordinates": [[[120.51987571326764, 31.431909536], [120.51977041827142, 31.431819072], [120.51987571326764, 31.431819072], [120.51987571326764, 31.431909536]]]}}, {"type": "Feature", "properties": {"area_ha": 0.01, "mean": 0.1149}, "geometry": {"type": "Polygon", "coordinates": [[[120.51882276330554, 31.431909536], [120.51871746830933, 31.431728608], [120.51882276330554, 31.431728608], [120.51882276330554, 31.431909536]]]}}, {"type": "Feature", "properties": {"area_ha": 0.0, "mean": null}, "geometry": {"type": "Polygon", "coordinates": [[[120.51998100826384, 31.431819072], [120.51987571326764, 31.431728608], [120.51998100826384, 31.431728608], [120.51998100826384, 31.431819072]]]}}, {"type": "Feature", "properties": {"area_ha": 0.02, "mean": 0.1348}, "geometry": {"type": "Polygon", "coordinates": [[[120.52008630326004, 31.431457216000002], [120.51987571326764, 31.43154768], [120.51987571326764, 31.431366752], [120.52008630326004, 31.431457216000002]]]}}, {"type": "Feature", "properties": {"area_ha": 0.0, "mean": null}, "geometry": {"type": "Polygon", "coordinates": [[[120.51776981334345, 31.431457216000002], [120.51766451834723, 31.431366752], [120.51776981334345, 31.431366752], [120.51776981334345, 31.431457216000002]]]}}, {"type": "Feature", "properties": {"area_ha": 0.0, "mean": null}, "geometry": {"type": "Polygon", "coordinates": [[[120.59863637043215, 31.431004896], [120.59853107543594, 31.430914432], [120.59863637043215, 31.430914432], [120.59863637043215, 31.431004896]]]}}, {"type": "Feature", "properties": {"area_ha": 0.01, "mean": 0.1121}, "geometry": {"type": "Polygon", "coordinates": [[[120.52008630326004, 31.430552576], [120.51998100826384, 31.430371648], [120.52008630326004, 31.430371648], [120.52008630326004, 31.430552576]]]}}, {"type": "Feature", "properties": {"area_ha": 0.0, "mean": null}, "geometry": {"type": "Polygon", "coordinates": [[[120.51819099332829, 31.430371648], [120.51808569833207, 31.430281184000002], [120.51819099332829, 31.430281184000002], [120.51819099332829, 31.430371648]]]}}, {"type": "Feature", "properties": {"area_ha": 0.01, "mean": 0.1324}, "geometry": {"type": "Polygon", "coordinates": [[[120.51892805830175, 31.430281184000002], [120.51871746830933, 31.43019072], [120.51892805830175, 31.43019072], [120.51892805830175, 31.430281184000002]]]}}, {"type": "Feature", "properties": {"area_ha": 0.0, "mean": null}, "geometry": {"type": "Polygon", "coordinates": [[[120.519559828279, 31.43019072], [120.5194545332828, 31.430100256], [120.519559828279, 31.430100256], [120.519559828279, 31.43019072]]]}}, {"type": "Feature", "properties": {"area_ha": 0.0, "mean": null}, "geometry": {"type": "Polygon", "coordinates": [[[120.51829628832449, 31.430100256], [120.51819099332829, 31.430009792], [120.51829628832449, 31.430009792], [120.51829628832449, 31.430100256]]]}}, {"type": "Feature", "properties": {"area_ha": 0.0, "mean": null}, "geometry": {"type": "Polygon", "coordinates": [[[120.52019159825626, 31.430009792], [120.52008630326004, 31.429919328], [120.52019159825626, 31.429919328], [120.52019159825626, 31.430009792]]]}}, {"type": "Feature", "properties": {"area_ha": 0.0, "mean": null}, "geometry": {"type": "Polygon", "coordinates": [[[120.51850687831691, 31.429647936000002], [120.5184015833207, 31.429557472], [120.51850687831691, 31.429557472], [120.51850687831691, 31.429647936000002]]]}}, {"type": "Feature", "properties": {"area_ha": 0.0, "mean": null}, "geometry": {"type": "Polygon", "coordinates": [[[120.51861217331312, 31.429467008], [120.51850687831691, 31.429376544], [120.51861217331312, 31.429376544], [120.51861217331312, 31.429467008]]]}}, {"type": "Feature", "properties": {"area_ha": 0.01, "mean": 0.2453}, "geometry": {"type": "Polygon", "coordinates": [[[120.57199673639121, 31.429105152], [120.571891441395, 31.42883376], [120.57199673639121, 31.42883376], [120.57199673639121, 31.429105152]]]}}, {"type": "Feature", "properties": {"area_ha": 0.0, "mean": null}, "geometry": {"type": "Polygon", "coordinates": [[[120.5207180732373, 31.428924224], [120.5206127782411, 31.42883376], [120.5207180732373, 31.42883376], [120.5207180732373, 31.428924224]]]}}, {"type": "Feature", "properties": {"area_ha": 0.0, "mean": null}, "geometry": {"type": "Polygon", "coordinates": [[[120.60621761015922, 31.42883376], [120.606112315163, 31.428743296], [120.60621761015922, 31.428743296], [120.60621761015922, 31.42883376]]]}}, {"type": "Feature", "properties": {"area_ha": 0.0, "mean": null}, "geometry": {"type": "Polygon", "coordinates": [[[120.57220732638363, 31.428652832], [120.57210203138742, 31.428562368], [120.57220732638363, 31.428562368], [120.57220732638363, 31.428652832]]]}}, {"type": "Feature", "properties": {"area_ha": 0.03, "mean": 0.2751}, "geometry": {"type": "Polygon", "coordinates": [[[120.606112315163, 31.428471904000002], [120.60590172517058, 31.428652832], [120.60590172517058, 31.428471904000002], [120.606112315163, 31.428471904000002]]]}}, {"type": "Feature", "properties": {"area_ha": 1.12, "mean": 0.2337}, "geometry": {"type": "Polygon", "coordinates": [[[120.52040218824868, 31.429195616], [120.5194545332828, 31.429828864], [120.51892805830175, 31.429195616], [120.51913864829417, 31.42838144], [120.52040218824868, 31.429195616]]]}}, {"type": "Feature", "properties": {"area_ha": 0.01, "mean": 0.2707}, "geometry": {"type": "Polygon", "coordinates": [[[120.57231262137984, 31.428562368], [120.57220732638363, 31.42838144], [120.57231262137984, 31.42838144], [120.57231262137984, 31.428562368]]]}}, {"type": "Feature", "properties": {"area_ha": 0.06, "mean": 0.1423}, "geometry": {"type": "Polygon", "coordinates": [[[120.52019159825626, 31.428562368], [120.51987571326764, 31.42838144], [120.52019159825626, 31.428200512], [120.52019159825626, 31.428562368]]]}}, {"type": "Feature", "properties": {"area_ha": 0.0, "mean": null}, "geometry": {"type": "Polygon", "coordinates": [[[120.60579643017438, 31.428290976], [120.60569113517816, 31.428200512], [120.60579643017438, 31.428200512], [120.60579643017438, 31.428290976]]]}}, {"type": "Feature", "properties": {"area_ha": 0.05, "mean": 0.1968}, "geometry": {"type": "Polygon", "coordinates": [[[120.5194545332828, 31.428019584], [120.51934923828658, 31.427748192], [120.51987571326764, 31.428110048], [120.5194545332828, 31.428019584]]]}}, {"type": "Feature", "properties": {"area_ha": 0.0, "mean": null}, "geometry": {"type": "Polygon", "coordinates": [[[120.54872654222896, 31.427748192], [120.54862124723276, 31.427657728], [120.54872654222896, 31.427657728], [120.54872654222896, 31.427748192]]]}}, {"type": "Feature", "properties": {"area_ha": 0.0, "mean": null}, "geometry": {"type": "Polygon", "coordinates": [[[120.57357616133434, 31.427748192], [120.57347086633814, 31.427657728], [120.57357616133434, 31.427657728], [120.57357616133434, 31.427748192]]]}}, {"type": "Feature", "properties": {"area_ha": 0.01, "mean": 0.1842}, "geometry": {"type": "Polygon", "coordinates": [[[120.52324515314633, 31.427657728], [120.52303456315391, 31.427567264], [120.52324515314633, 31.427567264], [120.52324515314633, 31.427657728]]]}}, {"type": "Feature", "properties": {"area_ha": 0.0, "mean": null}, "geometry": {"type": "Polygon", "coordinates": [[[120.57368145633056, 31.427657728], [120.57357616133434, 31.427567264], [120.57368145633056, 31.427567264], [120.57368145633056, 31.427657728]]]}}, {"type": "Feature", "properties": {"area_ha": 0.0, "mean": null}, "geometry": {"type": "Polygon", "coordinates": [[[120.6071652651251, 31.427657728], [120.60705997012889, 31.427567264], [120.6071652651251, 31.427567264], [120.6071652651251, 31.427657728]]]}}, {"type": "Feature", "properties": {"area_ha": 0.0, "mean": null}, "geometry": {"type": "Polygon", "coordinates": [[[120.60727056012131, 31.427567264], [120.6071652651251, 31.4274768], [120.60727056012131, 31.4274768], [120.60727056012131, 31.427567264]]]}}, {"type": "Feature", "properties": {"area_ha": 0.04, "mean": 0.2638}, "geometry": {"type": "Polygon", "coordinates": [[[120.52145513821077, 31.427567264], [120.52103395822593, 31.4274768], [120.52156043320699, 31.427386336], [120.52145513821077, 31.427567264]]]}}, {"type": "Feature", "properties": {"area_ha": 0.0, "mean": null}, "geometry": {"type": "Polygon", "coordinates": [[[120.52303456315391, 31.4274768], [120.5229292681577, 31.427386336], [120.52303456315391, 31.427386336], [120.52303456315391, 31.4274768]]]}}, {"type": "Feature", "properties": {"area_ha": 0.01, "mean": 0.2958}, "geometry": {"type": "Polygon", "coordinates": [[[120.60758644510993, 31.4274768], [120.60737585511751, 31.427386336], [120.60758644510993, 31.427386336], [120.60758644510993, 31.4274768]]]}}, {"type": "Feature", "properties": {"area_ha": 0.0, "mean": null}, "geometry": {"type": "Polygon", "coordinates": [[[120.57694560121304, 31.427386336], [120.57684030621684, 31.427295872000002], [120.57694560121304, 31.427295872000002], [120.57694560121304, 31.427386336]]]}}, {"type": "Feature", "properties": {"area_ha": 0.03, "mean": 0.1914}, "geometry": {"type": "Polygon", "coordinates": [[[120.576419126232, 31.427205408], [120.57589265125095, 31.427295872000002], [120.57589265125095, 31.427205408], [120.576419126232, 31.427205408]]]}}, {"type": "Feature", "properties": {"area_ha": 0.01, "mean": 0.2373}, "geometry": {"type": "Polygon", "coordinates": [[[120.57684030621684, 31.427295872000002], [120.57652442122821, 31.427205408], [120.57684030621684, 31.427205408], [120.57684030621684, 31.427295872000002]]]}}, {"type": "Feature", "properties": {"area_ha": 0.01, "mean": 0.3089}, "geometry": {"type": "Polygon", "coordinates": [[[120.57578735625474, 31.427205408], [120.57547147126611, 31.427114944], [120.57578735625474, 31.427114944], [120.57578735625474, 31.427205408]]]}}, {"type": "Feature", "properties": {"area_ha": 0.24, "mean": 0.2537}, "geometry": {"type": "Polygon", "coordinates": [[[120.52040218824868, 31.42702448], [120.52019159825626, 31.427657728], [120.519559828279, 31.427386336], [120.52040218824868, 31.42702448]]]}}, {"type": "Feature", "properties": {"area_ha": 0.01, "mean": 0.1611}, "geometry": {"type": "Polygon", "coordinates": [[[120.51998100826384, 31.427114944], [120.51977041827142, 31.42702448], [120.51998100826384, 31.42702448], [120.51998100826384, 31.427114944]]]}}, {"type": "Feature", "properties": {"area_ha": 0.01, "mean": 0.266}, "geometry": {"type": "Polygon", "coordinates": [[[120.57547147126611, 31.42702448], [120.57515558627749, 31.42702448], [120.57483970128887, 31.426934016], [120.57547147126611, 31.42702448]]]}}, {"type": "Feature", "properties": {"area_ha": 0.0, "mean": null}, "geometry": {"type": "Polygon", "coordinates": [[[120.51808569833207, 31.426843552], [120.51798040333587, 31.426753088], [120.51808569833207, 31.426753088], [120.51808569833207, 31.426843552]]]}}, {"type": "Feature", "properties": {"area_ha": 0.0, "mean": null}, "geometry": {"type": "Polygon", "coordinates": [[[120.52903637793784, 31.425848448], [120.52893108294163, 31.425757984], [120.52903637793784, 31.425757984], [120.52903637793784, 31.425848448]]]}}, {"type": "Feature", "properties": {"area_ha": 0.0, "mean": null}, "geometry": {"type": "Polygon", "coordinates": [[[120.5446200373768, 31.425577056], [120.5445147423806, 31.425486592], [120.5446200373768, 31.425486592], [120.5446200373768, 31.425577056]]]}}, {"type": "Feature", "properties": {"area_ha": 0.0, "mean": null}, "geometry": {"type": "Polygon", "coordinates": [[[120.5445147423806, 31.425486592], [120.54440944738438, 31.425396128], [120.5445147423806, 31.425396128], [120.5445147423806, 31.425486592]]]}}, {"type": "Feature", "properties": {"area_ha": 0.0, "mean": null}, "geometry": {"type": "Polygon", "coordinates": [[[120.606112315163, 31.425124736], [120.6060070201668, 31.425034272], [120.606112315163, 31.425034272], [120.606112315163, 31.425124736]]]}}, {"type": "Feature", "properties": {"area_ha": 0.0, "mean": null}, "geometry": {"type": "Polygon", "coordinates": [[[120.6060070201668, 31.425034272], [120.60590172517058, 31.424943808000002], [120.6060070201668, 31.424943808000002], [120.6060070201668, 31.425034272]]]}}, {"type": "Feature", "properties": {"area_ha": 0.0, "mean": null}, "geometry": {"type": "Polygon", "coordinates": [[[120.57736678119788, 31.42476288], [120.57726148620168, 31.424672416], [120.57736678119788, 31.424672416], [120.57736678119788, 31.42476288]]]}}, {"type": "Feature", "properties": {"area_ha": 0.0, "mean": null}, "geometry": {"type": "Polygon", "coordinates": [[[120.53503819272176, 31.424672416], [120.53493289772555, 31.424581952], [120.53503819272176, 31.424581952], [120.53503819272176, 31.424672416]]]}}, {"type": "Feature", "properties": {"area_ha": 0.02, "mean": 0.2677}, "geometry": {"type": "Polygon", "coordinates": [[[120.57778796118272, 31.424581952], [120.57747207619408, 31.424491488], [120.57778796118272, 31.424401024], [120.57778796118272, 31.424581952]]]}}, {"type": "Feature", "properties": {"area_ha": 0.0, "mean": null}, "geometry": {"type": "Polygon", "coordinates": [[[120.53619643768006, 31.424491488], [120.53609114268386, 31.424401024], [120.53619643768006, 31.424401024], [120.53619643768006, 31.424491488]]]}}, {"type": "Feature", "properties": {"area_ha": 0.06, "mean": 0.2406}, "geometry": {"type": "Polygon", "coordinates": [[[120.60505936520092, 31.424581952], [120.60474348021229, 31.424581952], [120.6048487752085, 31.424220096], [120.60505936520092, 31.424581952]]]}}, {"type": "Feature", "properties": {"area_ha": 0.05, "mean": 0.1621}, "geometry": {"type": "Polygon", "coordinates": [[[120.60769174010615, 31.424401024], [120.60737585511751, 31.424491488], [120.60737585511751, 31.424220096], [120.60769174010615, 31.424401024]]]}}, {"type": "Feature", "properties": {"area_ha": 0.0, "mean": null}, "geometry": {"type": "Polygon", "coordinates": [[[120.60737585511751, 31.424220096], [120.60727056012131, 31.424129632], [120.60737585511751, 31.424129632], [120.60737585511751, 31.424220096]]]}}, {"type": "Feature", "properties": {"area_ha": 0.0, "mean": null}, "geometry": {"type": "Polygon", "coordinates": [[[120.60727056012131, 31.424129632], [120.6071652651251, 31.424039168], [120.60727056012131, 31.424039168], [120.60727056012131, 31.424129632]]]}}, {"type": "Feature", "properties": {"area_ha": 0.0, "mean": null}, "geometry": {"type": "Polygon", "coordinates": [[[120.60474348021229, 31.424039168], [120.60463818521607, 31.423948704], [120.60474348021229, 31.423948704], [120.60474348021229, 31.424039168]]]}}, {"type": "Feature", "properties": {"area_ha": 0.01, "mean": 0.1244}, "geometry": {"type": "Polygon", "coordinates": [[[120.6048487752085, 31.423948704], [120.60474348021229, 31.423677312], [120.6048487752085, 31.423677312], [120.6048487752085, 31.423948704]]]}}, {"type": "Feature", "properties": {"area_ha": 0.0, "mean": null}, "geometry": {"type": "Polygon", "coordinates": [[[120.6049540702047, 31.423677312], [120.6048487752085, 31.423586848], [120.6049540702047, 31.423586848], [120.6049540702047, 31.423677312]]]}}, {"type": "Feature", "properties": {"area_ha": 0.0, "mean": null}, "geometry": {"type": "Polygon", "coordinates": [[[120.60548054518576, 31.423586848], [120.60537525018954, 31.423496384], [120.60548054518576, 31.423496384], [120.60548054518576, 31.423586848]]]}}, {"type": "Feature", "properties": {"area_ha": 0.09, "mean": 0.1928}, "geometry": {"type": "Polygon", "coordinates": [[[120.6071652651251, 31.424039168], [120.60705997012889, 31.423224992], [120.60727056012131, 31.423134528000002], [120.6071652651251, 31.424039168]]]}}, {"type": "Feature", "properties": {"area_ha": 0.01, "mean": 0.1615}, "geometry": {"type": "Polygon", "coordinates": [[[120.60737585511751, 31.4229536], [120.60727056012131, 31.423044064], [120.6071652651251, 31.4229536], [120.60737585511751, 31.4229536]]]}}, {"type": "Feature", "properties": {"area_ha": 0.01, "mean": 0.1367}, "geometry": {"type": "Polygon", "coordinates": [[[120.60748115011373, 31.4229536], [120.60737585511751, 31.422772672], [120.60748115011373, 31.422772672], [120.60748115011373, 31.4229536]]]}}, {"type": "Feature", "properties": {"area_ha": 0.0, "mean": null}, "geometry": {"type": "Polygon", "coordinates": [[[120.60569113517816, 31.422772672], [120.60558584018196, 31.422682208], [120.60569113517816, 31.422682208], [120.60569113517816, 31.422772672]]]}}, {"type": "Feature", "properties": {"area_ha": 0.0, "mean": null}, "geometry": {"type": "Polygon", "coordinates": [[[120.59337162062168, 31.422682208], [120.59326632562548, 31.422591744], [120.59337162062168, 31.422591744], [120.59337162062168, 31.422682208]]]}}, {"type": "Feature", "properties": {"area_ha": 0.0, "mean": null}, "geometry": {"type": "Polygon", "coordinates": [[[120.60558584018196, 31.422682208], [120.60548054518576, 31.422591744], [120.60558584018196, 31.422591744], [120.60558584018196, 31.422682208]]]}}, {"type": "Feature", "properties": {"area_ha": 0.0, "mean": null}, "geometry": {"type": "Polygon", "coordinates": [[[120.58020974609553, 31.422591744], [120.58010445109932, 31.42250128], [120.58020974609553, 31.42250128], [120.58020974609553, 31.422591744]]]}}, {"type": "Feature", "properties": {"area_ha": 0.0, "mean": null}, "geometry": {"type": "Polygon", "coordinates": [[[120.60548054518576, 31.422591744], [120.60537525018954, 31.42250128], [120.60548054518576, 31.42250128], [120.60548054518576, 31.422591744]]]}}, {"type": "Feature", "properties": {"area_ha": 0.0, "mean": null}, "geometry": {"type": "Polygon", "coordinates": [[[120.60737585511751, 31.422591744], [120.60727056012131, 31.42250128], [120.60737585511751, 31.42250128], [120.60737585511751, 31.422591744]]]}}, {"type": "Feature", "properties": {"area_ha": 0.02, "mean": 0.327}, "geometry": {"type": "Polygon", "coordinates": [[[120.5935822106141, 31.422320352], [120.59337162062168, 31.422410816], [120.59337162062168, 31.422229888], [120.5935822106141, 31.422320352]]]}}, {"type": "Feature", "properties": {"area_ha": 0.01, "mean": 0.1375}, "geometry": {"type": "Polygon", "coordinates": [[[120.60758644510993, 31.422410816], [120.60748115011373, 31.422229888], [120.60758644510993, 31.422229888], [120.60758644510993, 31.422410816]]]}}, {"type": "Feature", "properties": {"area_ha": 0.02, "mean": 0.2492}, "geometry": {"type": "Polygon", "coordinates": [[[120.60516466019712, 31.422229888], [120.6049540702047, 31.422320352], [120.6049540702047, 31.422139424], [120.60516466019712, 31.422229888]]]}}, {"type": "Feature", "properties": {"area_ha": 0.0, "mean": null}, "geometry": {"type": "Polygon", "coordinates": [[[120.59337162062168, 31.422229888], [120.59326632562548, 31.422139424], [120.59337162062168, 31.422139424], [120.59337162062168, 31.422229888]]]}}, {"type": "Feature", "properties": {"area_ha": 0.0, "mean": null}, "geometry": {"type": "Polygon", "coordinates": [[[120.60769174010615, 31.422229888], [120.60758644510993, 31.422139424], [120.60769174010615, 31.422139424], [120.60769174010615, 31.422229888]]]}}, {"type": "Feature", "properties": {"area_ha": 0.0, "mean": null}, "geometry": {"type": "Polygon", "coordinates": [[[120.60505936520092, 31.42204896], [120.6049540702047, 31.421958496000002], [120.60505936520092, 31.421958496000002], [120.60505936520092, 31.42204896]]]}}, {"type": "Feature", "properties": {"area_ha": 0.0, "mean": null}, "geometry": {"type": "Polygon", "coordinates": [[[120.5843162509477, 31.421777568], [120.58421095595148, 31.421687104], [120.5843162509477, 31.421687104], [120.5843162509477, 31.421777568]]]}}, {"type": "Feature", "properties": {"area_ha": 0.0, "mean": null}, "geometry": {"type": "Polygon", "coordinates": [[[120.58242094101593, 31.421234784], [120.58231564601972, 31.42114432], [120.58242094101593, 31.42114432], [120.58242094101593, 31.421234784]]]}}, {"type": "Feature", "properties": {"area_ha": 0.0, "mean": null}, "geometry": {"type": "Polygon", "coordinates": [[[120.60411171023503, 31.42114432], [120.60400641523881, 31.421053856], [120.60411171023503, 31.421053856], [120.60411171023503, 31.42114432]]]}}, {"type": "Feature", "properties": {"area_ha": 0.0, "mean": null}, "geometry": {"type": "Polygon", "coordinates": [[[120.58273682600455, 31.421053856], [120.58263153100835, 31.420963392], [120.58273682600455, 31.420963392], [120.58273682600455, 31.421053856]]]}}, {"type": "Feature", "properties": {"area_ha": 0.0, "mean": null}, "geometry": {"type": "Polygon", "coordinates": [[[120.58284212100077, 31.420963392], [120.58273682600455, 31.420872928], [120.58284212100077, 31.420872928], [120.58284212100077, 31.420963392]]]}}, {"type": "Feature", "properties": {"area_ha": 0.0, "mean": null}, "geometry": {"type": "Polygon", "coordinates": [[[120.58294741599697, 31.420872928], [120.58284212100077, 31.420782464000002], [120.58294741599697, 31.420782464000002], [120.58294741599697, 31.420872928]]]}}, {"type": "Feature", "properties": {"area_ha": 0.02, "mean": 0.2301}, "geometry": {"type": "Polygon", "coordinates": [[[120.54230354746021, 31.42114432], [120.54219825246399, 31.420692], [120.54230354746021, 31.420692], [120.54230354746021, 31.42114432]]]}}, {"type": "Feature", "properties": {"area_ha": 0.0, "mean": null}, "geometry": {"type": "Polygon", "coordinates": [[[120.58326330098559, 31.420601536], [120.58315800598939, 31.420511072], [120.58326330098559, 31.420511072], [120.58326330098559, 31.420601536]]]}}, {"type": "Feature", "properties": {"area_ha": 0.0, "mean": null}, "geometry": {"type": "Polygon", "coordinates": [[[120.54398826739956, 31.420420608], [120.54388297240334, 31.420330144], [120.54398826739956, 31.420330144], [120.54398826739956, 31.420420608]]]}}, {"type": "Feature", "properties": {"area_ha": 0.01, "mean": 0.3329}, "geometry": {"type": "Polygon", "coordinates": [[[120.58336859598181, 31.420420608], [120.58326330098559, 31.42023968], [120.58336859598181, 31.42023968], [120.58336859598181, 31.420420608]]]}}, {"type": "Feature", "properties": {"area_ha": 0.0, "mean": null}, "geometry": {"type": "Polygon", "coordinates": [[[120.54504121736164, 31.420330144], [120.54493592236544, 31.42023968], [120.54504121736164, 31.42023968], [120.54504121736164, 31.420330144]]]}}, {"type": "Feature", "properties": {"area_ha": 0.01, "mean": 0.2756}, "geometry": {"type": "Polygon", "coordinates": [[[120.58736980583775, 31.42023968], [120.58715921584535, 31.420149216], [120.58736980583775, 31.420149216], [120.58736980583775, 31.42023968]]]}}, {"type": "Feature", "properties": {"area_ha": 0.0, "mean": null}, "geometry": {"type": "Polygon", "coordinates": [[[120.5434617924185, 31.420149216], [120.5433564974223, 31.420058752], [120.5434617924185, 31.420058752], [120.5434617924185, 31.420149216]]]}}, {"type": "Feature", "properties": {"area_ha": 0.0, "mean": null}, "geometry": {"type": "Polygon", "coordinates": [[[120.54440944738438, 31.420149216], [120.54430415238818, 31.420058752], [120.54440944738438, 31.420058752], [120.54440944738438, 31.420149216]]]}}, {"type": "Feature", "properties": {"area_ha": 0.04, "mean": 0.2847}, "geometry": {"type": "Polygon", "coordinates": [[[120.58357918597423, 31.42023968], [120.58347389097801, 31.420058752], [120.58378977596665, 31.419877824], [120.58357918597423, 31.42023968]]]}}, {"type": "Feature", "properties": {"area_ha": 0.01, "mean": 0.2529}, "geometry": {"type": "Polygon", "coordinates": [[[120.58410566095527, 31.41978736], [120.58389507096285, 31.419696896], [120.58410566095527, 31.419696896], [120.58410566095527, 31.41978736]]]}}, {"type": "Feature", "properties": {"area_ha": 0.02, "mean": 0.2102}, "geometry": {"type": "Polygon", "coordinates": [[[120.54082941751327, 31.419696896], [120.54051353252464, 31.419425504], [120.54072412251706, 31.419425504], [120.54082941751327, 31.419696896]]]}}, {"type": "Feature", "properties": {"area_ha": 0.03, "mean": 0.289}, "geometry": {"type": "Polygon", "coordinates": [[[120.58473743093253, 31.419696896], [120.58463213593632, 31.419515968], [120.58484272592874, 31.419425504], [120.58473743093253, 31.419696896]]]}}, {"type": "Feature", "properties": {"area_ha": 0.0, "mean": null}, "geometry": {"type": "Polygon", "coordinates": [[[120.58526390591358, 31.419244576], [120.58515861091736, 31.419154112], [120.58526390591358, 31.419154112], [120.58526390591358, 31.419244576]]]}}, {"type": "Feature", "properties": {"area_ha": 0.0, "mean": null}, "geometry": {"type": "Polygon", "coordinates": [[[120.58926511576952, 31.419154112], [120.58915982077332, 31.419063648], [120.58926511576952, 31.419063648], [120.58926511576952, 31.419154112]]]}}, {"type": "Feature", "properties": {"area_ha": 0.0, "mean": null}, "geometry": {"type": "Polygon", "coordinates": [[[120.58937041076574, 31.419063648], [120.58926511576952, 31.418973184], [120.58937041076574, 31.418973184], [120.58937041076574, 31.419063648]]]}}, {"type": "Feature", "properties": {"area_ha": 0.0, "mean": null}, "geometry": {"type": "Polygon", "coordinates": [[[120.58600097088704, 31.418973184], [120.58589567589082, 31.41888272], [120.58600097088704, 31.41888272], [120.58600097088704, 31.418973184]]]}}, {"type": "Feature", "properties": {"area_ha": 0.0, "mean": null}, "geometry": {"type": "Polygon", "coordinates": [[[120.58947570576194, 31.418973184], [120.58937041076574, 31.41888272], [120.58947570576194, 31.41888272], [120.58947570576194, 31.418973184]]]}}, {"type": "Feature", "properties": {"area_ha": 0.0, "mean": null}, "geometry": {"type": "Polygon", "coordinates": [[[120.58958100075816, 31.41888272], [120.58947570576194, 31.418792256], [120.58958100075816, 31.418792256], [120.58958100075816, 31.41888272]]]}}, {"type": "Feature", "properties": {"area_ha": 0.0, "mean": null}, "geometry": {"type": "Polygon", "coordinates": [[[120.58968629575436, 31.418701792], [120.58958100075816, 31.418611328], [120.58968629575436, 31.418611328], [120.58968629575436, 31.418701792]]]}}, {"type": "Feature", "properties": {"area_ha": 0.01, "mean": 0.2739}, "geometry": {"type": "Polygon", "coordinates": [[[120.58631685587567, 31.418701792], [120.58621156087946, 31.418430400000002], [120.58631685587567, 31.418430400000002], [120.58631685587567, 31.418701792]]]}}, {"type": "Feature", "properties": {"area_ha": 0.01, "mean": 0.224}, "geometry": {"type": "Polygon", "coordinates": [[[120.58652744586809, 31.418430400000002], [120.58631685587567, 31.418339936], [120.58652744586809, 31.418339936], [120.58652744586809, 31.418430400000002]]]}}, {"type": "Feature", "properties": {"area_ha": 0.0, "mean": null}, "geometry": {"type": "Polygon", "coordinates": [[[120.59052865572404, 31.418159008], [120.59042336072783, 31.418068544], [120.59052865572404, 31.418068544], [120.59052865572404, 31.418159008]]]}}, {"type": "Feature", "properties": {"area_ha": 0.03, "mean": 0.2798}, "geometry": {"type": "Polygon", "coordinates": [[[120.5912657206975, 31.417797152], [120.5912657206975, 31.41752576], [120.59147631068993, 31.41752576], [120.5912657206975, 31.417797152]]]}}, {"type": "Feature", "properties": {"area_ha": 0.0, "mean": null}, "geometry": {"type": "Polygon", "coordinates": [[[120.59179219567855, 31.41752576], [120.59168690068233, 31.417435296], [120.59179219567855, 31.417435296], [120.59179219567855, 31.41752576]]]}}, {"type": "Feature", "properties": {"area_ha": 0.0, "mean": null}, "geometry": {"type": "Polygon", "coordinates": [[[120.59189749067475, 31.417344832], [120.59179219567855, 31.417254368000002], [120.59189749067475, 31.417254368000002], [120.59189749067475, 31.417344832]]]}}, {"type": "Feature", "properties": {"area_ha": 0.01, "mean": 0.2848}, "geometry": {"type": "Polygon", "coordinates": [[[120.5398817625474, 31.417435296], [120.53977646755118, 31.417163904], [120.5398817625474, 31.417163904], [120.5398817625474, 31.417435296]]]}}, {"type": "Feature", "properties": {"area_ha": 0.0, "mean": null}, "geometry": {"type": "Polygon", "coordinates": [[[120.54019764753602, 31.417254368000002], [120.5400923525398, 31.417163904], [120.54019764753602, 31.417163904], [120.54019764753602, 31.417254368000002]]]}}, {"type": "Feature", "properties": {"area_ha": 0.0, "mean": null}, "geometry": {"type": "Polygon", "coordinates": [[[120.59200278567097, 31.417163904], [120.59189749067475, 31.41707344], [120.59200278567097, 31.41707344], [120.59200278567097, 31.417163904]]]}}, {"type": "Feature", "properties": {"area_ha": 0.0, "mean": null}, "geometry": {"type": "Polygon", "coordinates": [[[120.5901074757392, 31.416892512], [120.59000218074299, 31.416802048], [120.5901074757392, 31.416802048], [120.5901074757392, 31.416892512]]]}}, {"type": "Feature", "properties": {"area_ha": 0.01, "mean": 0.2774}, "geometry": {"type": "Polygon", "coordinates": [[[120.5398817625474, 31.416982976], [120.53977646755118, 31.416711584], [120.5398817625474, 31.416711584], [120.5398817625474, 31.416982976]]]}}, {"type": "Feature", "properties": {"area_ha": 0.01, "mean": 0.2748}, "geometry": {"type": "Polygon", "coordinates": [[[120.59221337566339, 31.416892512], [120.59210808066717, 31.416711584], [120.59221337566339, 31.416711584], [120.59221337566339, 31.416892512]]]}}, {"type": "Feature", "properties": {"area_ha": 0.0, "mean": null}, "geometry": {"type": "Polygon", "coordinates": [[[120.59031806573162, 31.416711584], [120.5902127707354, 31.41662112], [120.59031806573162, 31.41662112], [120.59031806573162, 31.416711584]]]}}, {"type": "Feature", "properties": {"area_ha": 0.0, "mean": null}, "geometry": {"type": "Polygon", "coordinates": [[[120.5923186706596, 31.41662112], [120.59221337566339, 31.416530656], [120.5923186706596, 31.416530656], [120.5923186706596, 31.41662112]]]}}, {"type": "Feature", "properties": {"area_ha": 0.0, "mean": null}, "geometry": {"type": "Polygon", "coordinates": [[[120.54272472744503, 31.416349728], [120.54261943244883, 31.416259264], [120.54272472744503, 31.416259264], [120.54272472744503, 31.416349728]]]}}, {"type": "Feature", "properties": {"area_ha": 0.0, "mean": null}, "geometry": {"type": "Polygon", "coordinates": [[[120.59094983570887, 31.416349728], [120.59084454071267, 31.416259264], [120.59094983570887, 31.416259264], [120.59094983570887, 31.416349728]]]}}, {"type": "Feature", "properties": {"area_ha": 0.01, "mean": 0.2596}, "geometry": {"type": "Polygon", "coordinates": [[[120.59147631068993, 31.415987872], [120.5912657206975, 31.415897408], [120.59147631068993, 31.415897408], [120.59147631068993, 31.415987872]]]}}, {"type": "Feature", "properties": {"area_ha": 0.01, "mean": 0.2097}, "geometry": {"type": "Polygon", "coordinates": [[[120.54261943244883, 31.416078336], [120.54251413745261, 31.415806944], [120.54261943244883, 31.415806944], [120.54261943244883, 31.416078336]]]}}, {"type": "Feature", "properties": {"area_ha": 0.0, "mean": null}, "geometry": {"type": "Polygon", "coordinates": [[[120.59168690068233, 31.415897408], [120.59158160568613, 31.415806944], [120.59168690068233, 31.415806944], [120.59168690068233, 31.415897408]]]}}, {"type": "Feature", "properties": {"area_ha": 0.0, "mean": null}, "geometry": {"type": "Polygon", "coordinates": [[[120.59179219567855, 31.415806944], [120.59168690068233, 31.41571648], [120.59179219567855, 31.41571648], [120.59179219567855, 31.415806944]]]}}, {"type": "Feature", "properties": {"area_ha": 0.01, "mean": 0.428}, "geometry": {"type": "Polygon", "coordinates": [[[120.55767661690675, 31.41571648], [120.55746602691433, 31.415626016], [120.55767661690675, 31.415626016], [120.55767661690675, 31.41571648]]]}}, {"type": "Feature", "properties": {"area_ha": 0.0, "mean": null}, "geometry": {"type": "Polygon", "coordinates": [[[120.55314893206976, 31.415354624], [120.55304363707354, 31.41526416], [120.55314893206976, 31.41526416], [120.55314893206976, 31.415354624]]]}}, {"type": "Feature", "properties": {"area_ha": 0.0, "mean": null}, "geometry": {"type": "Polygon", "coordinates": [[[120.56094076178924, 31.415354624], [120.56083546679302, 31.41526416], [120.56094076178924, 31.41526416], [120.56094076178924, 31.415354624]]]}}, {"type": "Feature", "properties": {"area_ha": 0.0, "mean": null}, "geometry": {"type": "Polygon", "coordinates": [[[120.55388599704322, 31.41526416], [120.553780702047, 31.415173696], [120.55388599704322, 31.415173696], [120.55388599704322, 31.41526416]]]}}, {"type": "Feature", "properties": {"area_ha": 0.01, "mean": 0.3914}, "geometry": {"type": "Polygon", "coordinates": [[[120.56115135178166, 31.414902304], [120.56104605678544, 31.414721376], [120.56115135178166, 31.414721376], [120.56115135178166, 31.414902304]]]}}, {"type": "Feature", "properties": {"area_ha": 0.0, "mean": null}, "geometry": {"type": "Polygon", "coordinates": [[[120.52956285291889, 31.414630912], [120.52945755792267, 31.414540448], [120.52956285291889, 31.414540448], [120.52956285291889, 31.414630912]]]}}, {"type": "Feature", "properties": {"area_ha": 0.0, "mean": null}, "geometry": {"type": "Polygon", "coordinates": [[[120.52945755792267, 31.414540448], [120.52935226292647, 31.414449984], [120.52945755792267, 31.414449984], [120.52945755792267, 31.414540448]]]}}, {"type": "Feature", "properties": {"area_ha": 0.0, "mean": null}, "geometry": {"type": "Polygon", "coordinates": [[[120.59526693055345, 31.41435952], [120.59516163555725, 31.414269056000002], [120.59526693055345, 31.414269056000002], [120.59526693055345, 31.41435952]]]}}, {"type": "Feature", "properties": {"area_ha": 0.0, "mean": null}, "geometry": {"type": "Polygon", "coordinates": [[[120.59547752054587, 31.414269056000002], [120.59537222554967, 31.414178592], [120.59547752054587, 31.414178592], [120.59547752054587, 31.414269056000002]]]}}, {"type": "Feature", "properties": {"area_ha": 0.0, "mean": null}, "geometry": {"type": "Polygon", "coordinates": [[[120.59558281554209, 31.414178592], [120.59547752054587, 31.414088128], [120.59558281554209, 31.414088128], [120.59558281554209, 31.414178592]]]}}, {"type": "Feature", "properties": {"area_ha": 0.0, "mean": null}, "geometry": {"type": "Polygon", "coordinates": [[[120.55746602691433, 31.414088128], [120.55736073191812, 31.413997664], [120.55746602691433, 31.413997664], [120.55746602691433, 31.414088128]]]}}, {"type": "Feature", "properties": {"area_ha": 0.0, "mean": null}, "geometry": {"type": "Polygon", "coordinates": [[[120.5957934055345, 31.414088128], [120.59568811053829, 31.413997664], [120.5957934055345, 31.413997664], [120.5957934055345, 31.414088128]]]}}, {"type": "Feature", "properties": {"area_ha": 0.0, "mean": null}, "geometry": {"type": "Polygon", "coordinates": [[[120.55788720689917, 31.413997664], [120.55778191190296, 31.4139072], [120.55788720689917, 31.4139072], [120.55788720689917, 31.413997664]]]}}, {"type": "Feature", "properties": {"area_ha": 0.0, "mean": null}, "geometry": {"type": "Polygon", "coordinates": [[[120.59589870053071, 31.413997664], [120.5957934055345, 31.4139072], [120.59589870053071, 31.4139072], [120.59589870053071, 31.413997664]]]}}, {"type": "Feature", "properties": {"area_ha": 0.0, "mean": null}, "geometry": {"type": "Polygon", "coordinates": [[[120.59610929052313, 31.4139072], [120.59600399552691, 31.413816736], [120.59610929052313, 31.413816736], [120.59610929052313, 31.4139072]]]}}, {"type": "Feature", "properties": {"area_ha": 0.01, "mean": 0.2269}, "geometry": {"type": "Polygon", "coordinates": [[[120.59631988051555, 31.413816736], [120.59610929052313, 31.413726272], [120.59631988051555, 31.413726272], [120.59631988051555, 31.413816736]]]}}, {"type": "Feature", "properties": {"area_ha": 0.01, "mean": 0.43}, "geometry": {"type": "Polygon", "coordinates": [[[120.56294136671721, 31.413816736], [120.56283607172101, 31.413635808], [120.56294136671721, 31.413635808], [120.56294136671721, 31.413816736]]]}}, {"type": "Feature", "properties": {"area_ha": 0.0, "mean": null}, "geometry": {"type": "Polygon", "coordinates": [[[120.59642517551175, 31.413726272], [120.59631988051555, 31.413635808], [120.59642517551175, 31.413635808], [120.59642517551175, 31.413726272]]]}}, {"type": "Feature", "properties": {"area_ha": 0.0, "mean": null}, "geometry": {"type": "Polygon", "coordinates": [[[120.59653047050796, 31.413635808], [120.59642517551175, 31.413545344], [120.59653047050796, 31.413545344], [120.59653047050796, 31.413635808]]]}}, {"type": "Feature", "properties": {"area_ha": 0.01, "mean": 0.4016}, "geometry": {"type": "Polygon", "coordinates": [[[120.56304666171343, 31.413635808], [120.56294136671721, 31.41345488], [120.56304666171343, 31.41345488], [120.56304666171343, 31.413635808]]]}}, {"type": "Feature", "properties": {"area_ha": 0.0, "mean": null}, "geometry": {"type": "Polygon", "coordinates": [[[120.56209900674754, 31.41345488], [120.56199371175133, 31.413364416], [120.56209900674754, 31.413364416], [120.56209900674754, 31.41345488]]]}}, {"type": "Feature", "properties": {"area_ha": 0.0, "mean": null}, "geometry": {"type": "Polygon", "coordinates": [[[120.54251413745261, 31.412912096], [120.54240884245641, 31.412821632], [120.54251413745261, 31.412821632], [120.54251413745261, 31.412912096]]]}}, {"type": "Feature", "properties": {"area_ha": 0.01, "mean": 0.1635}, "geometry": {"type": "Polygon", "coordinates": [[[120.59884696042457, 31.412731168], [120.59853107543594, 31.412640704], [120.59884696042457, 31.412640704], [120.59884696042457, 31.412731168]]]}}, {"type": "Feature", "properties": {"area_ha": 0.0, "mean": null}, "geometry": {"type": "Polygon", "coordinates": [[[120.59484575056861, 31.412640704], [120.5947404555724, 31.41255024], [120.59484575056861, 31.41255024], [120.59484575056861, 31.412640704]]]}}, {"type": "Feature", "properties": {"area_ha": 0.0, "mean": null}, "geometry": {"type": "Polygon", "coordinates": [[[120.54272472744503, 31.41255024], [120.54261943244883, 31.412459776], [120.54272472744503, 31.412459776], [120.54272472744503, 31.41255024]]]}}, {"type": "Feature", "properties": {"area_ha": 0.0, "mean": null}, "geometry": {"type": "Polygon", "coordinates": [[[120.59442457058378, 31.412459776], [120.59431927558757, 31.412369312], [120.59442457058378, 31.412369312], [120.59442457058378, 31.412459776]]]}}, {"type": "Feature", "properties": {"area_ha": 0.0, "mean": null}, "geometry": {"type": "Polygon", "coordinates": [[[120.54283002244125, 31.412369312], [120.54272472744503, 31.412278848], [120.54283002244125, 31.412278848], [120.54283002244125, 31.412369312]]]}}, {"type": "Feature", "properties": {"area_ha": 0.02, "mean": 0.169}, "geometry": {"type": "Polygon", "coordinates": [[[120.5982151904473, 31.412369312], [120.5980046004549, 31.412278848], [120.5982151904473, 31.412188384], [120.5982151904473, 31.412369312]]]}}, {"type": "Feature", "properties": {"area_ha": 0.0, "mean": null}, "geometry": {"type": "Polygon", "coordinates": [[[120.55809779689159, 31.412188384], [120.55799250189538, 31.41209792], [120.55809779689159, 31.41209792], [120.55809779689159, 31.412188384]]]}}, {"type": "Feature", "properties": {"area_ha": 0.0, "mean": null}, "geometry": {"type": "Polygon", "coordinates": [[[120.59863637043215, 31.41209792], [120.59853107543594, 31.412007456], [120.59863637043215, 31.412007456], [120.59863637043215, 31.41209792]]]}}, {"type": "Feature", "properties": {"area_ha": 0.0, "mean": null}, "geometry": {"type": "Polygon", "coordinates": [[[120.54293531743745, 31.412007456], [120.54283002244125, 31.411916992000002], [120.54293531743745, 31.411916992000002], [120.54293531743745, 31.412007456]]]}}, {"type": "Feature", "properties": {"area_ha": 0.03, "mean": 0.1511}, "geometry": {"type": "Polygon", "coordinates": [[[120.59916284541319, 31.411826528], [120.59916284541319, 31.411555136], [120.59937343540561, 31.411555136], [120.59916284541319, 31.411826528]]]}}, {"type": "Feature", "properties": {"area_ha": 0.01, "mean": 0.396}, "geometry": {"type": "Polygon", "coordinates": [[[120.55809779689159, 31.411736064], [120.55799250189538, 31.411555136], [120.55809779689159, 31.411555136], [120.55809779689159, 31.411736064]]]}}, {"type": "Feature", "properties": {"area_ha": 0.01, "mean": 0.2105}, "geometry": {"type": "Polygon", "coordinates": [[[120.55894015686127, 31.411464672], [120.55872956686885, 31.411374208], [120.55894015686127, 31.411374208], [120.55894015686127, 31.411464672]]]}}, {"type": "Feature", "properties": {"area_ha": 0.02, "mean": 0.1733}, "geometry": {"type": "Polygon", "coordinates": [[[120.59989991038665, 31.411102816], [120.59979461539045, 31.411012352], [120.6003210903715, 31.411012352], [120.59989991038665, 31.411102816]]]}}, {"type": "Feature", "properties": {"area_ha": 0.0, "mean": null}, "geometry": {"type": "Polygon", "coordinates": [[[120.60063697536013, 31.411102816], [120.60053168036391, 31.411012352], [120.60063697536013, 31.411012352], [120.60063697536013, 31.411102816]]]}}, {"type": "Feature", "properties": {"area_ha": 0.01, "mean": 0.4282}, "geometry": {"type": "Polygon", "coordinates": [[[120.55746602691433, 31.410921888], [120.55736073191812, 31.410740960000002], [120.55746602691433, 31.410740960000002], [120.55746602691433, 31.410921888]]]}}, {"type": "Feature", "properties": {"area_ha": 0.0, "mean": null}, "geometry": {"type": "Polygon", "coordinates": [[[120.55788720689917, 31.410831424], [120.55778191190296, 31.410740960000002], [120.55788720689917, 31.410740960000002], [120.55788720689917, 31.410831424]]]}}, {"type": "Feature", "properties": {"area_ha": 0.0, "mean": null}, "geometry": {"type": "Polygon", "coordinates": [[[120.55736073191812, 31.410740960000002], [120.55725543692192, 31.410650496], [120.55736073191812, 31.410650496], [120.55736073191812, 31.410740960000002]]]}}, {"type": "Feature", "properties": {"area_ha": 0.01, "mean": 0.3744}, "geometry": {"type": "Polygon", "coordinates": [[[120.5571501419257, 31.410650496], [120.55693955193328, 31.410560032], [120.5571501419257, 31.410560032], [120.5571501419257, 31.410650496]]]}}, {"type": "Feature", "properties": {"area_ha": 0.0, "mean": null}, "geometry": {"type": "Polygon", "coordinates": [[[120.55778191190296, 31.410198176], [120.55767661690675, 31.410107712], [120.55778191190296, 31.410107712], [120.55778191190296, 31.410198176]]]}}, {"type": "Feature", "properties": {"area_ha": 0.0, "mean": null}, "geometry": {"type": "Polygon", "coordinates": [[[120.52198161319181, 31.410107712], [120.52187631819561, 31.410017248], [120.52198161319181, 31.410017248], [120.52198161319181, 31.410107712]]]}}, {"type": "Feature", "properties": {"area_ha": 0.0, "mean": null}, "geometry": {"type": "Polygon", "coordinates": [[[120.59589870053071, 31.410107712], [120.5957934055345, 31.410017248], [120.59589870053071, 31.410017248], [120.59589870053071, 31.410107712]]]}}, {"type": "Feature", "properties": {"area_ha": 0.0, "mean": null}, "geometry": {"type": "Polygon", "coordinates": [[[120.60242699029568, 31.410017248], [120.60232169529948, 31.409926784], [120.60242699029568, 31.409926784], [120.60242699029568, 31.410017248]]]}}, {"type": "Feature", "properties": {"area_ha": 0.01, "mean": 0.2177}, "geometry": {"type": "Polygon", "coordinates": [[[120.55851897687643, 31.409926784], [120.55830838688401, 31.40983632], [120.55851897687643, 31.40983632], [120.55851897687643, 31.409926784]]]}}, {"type": "Feature", "properties": {"area_ha": 0.0, "mean": null}, "geometry": {"type": "Polygon", "coordinates": [[[120.6027428752843, 31.40983632], [120.6026375802881, 31.409745856], [120.6027428752843, 31.409745856], [120.6027428752843, 31.40983632]]]}}, {"type": "Feature", "properties": {"area_ha": 0.0, "mean": null}, "geometry": {"type": "Polygon", "coordinates": [[[120.55683425693708, 31.409655392], [120.55672896194086, 31.409564928], [120.55683425693708, 31.409564928], [120.55683425693708, 31.409655392]]]}}, {"type": "Feature", "properties": {"area_ha": 0.01, "mean": 0.2557}, "geometry": {"type": "Polygon", "coordinates": [[[120.60295346527673, 31.409655392], [120.6026375802881, 31.409564928], [120.60295346527673, 31.409564928], [120.60295346527673, 31.409655392]]]}}, {"type": "Feature", "properties": {"area_ha": 0.02, "mean": 0.3503}, "geometry": {"type": "Polygon", "coordinates": [[[120.55778191190296, 31.409655392], [120.55757132191054, 31.409564928], [120.55778191190296, 31.409474464], [120.55778191190296, 31.409655392]]]}}, {"type": "Feature", "properties": {"area_ha": 0.03, "mean": 0.3061}, "geometry": {"type": "Polygon", "coordinates": [[[120.60326935026535, 31.409564928], [120.60295346527673, 31.409474464], [120.60337464526157, 31.409384], [120.60326935026535, 31.409564928]]]}}, {"type": "Feature", "properties": {"area_ha": 0.01, "mean": 0.1707}, "geometry": {"type": "Polygon", "coordinates": [[[120.60358523525399, 31.409384], [120.60337464526157, 31.409293536], [120.60358523525399, 31.409293536], [120.60358523525399, 31.409384]]]}}, {"type": "Feature", "properties": {"area_ha": 0.0, "mean": null}, "geometry": {"type": "Polygon", "coordinates": [[[120.5433564974223, 31.409293536], [120.54325120242609, 31.409203072], [120.5433564974223, 31.409203072], [120.5433564974223, 31.409293536]]]}}, {"type": "Feature", "properties": {"area_ha": 0.16, "mean": 0.3531}, "geometry": {"type": "Polygon", "coordinates": [[[120.59589870053071, 31.409203072], [120.59484575056861, 31.409384], [120.59484575056861, 31.409112608], [120.59589870053071, 31.409203072]]]}}, {"type": "Feature", "properties": {"area_ha": 0.0, "mean": null}, "geometry": {"type": "Polygon", "coordinates": [[[120.5434617924185, 31.409112608], [120.5433564974223, 31.409022144], [120.5434617924185, 31.409022144], [120.5434617924185, 31.409112608]]]}}, {"type": "Feature", "properties": {"area_ha": 0.0, "mean": null}, "geometry": {"type": "Polygon", "coordinates": [[[120.54356708741471, 31.40893168], [120.5434617924185, 31.408841216], [120.54356708741471, 31.408841216], [120.54356708741471, 31.40893168]]]}}, {"type": "Feature", "properties": {"area_ha": 0.0, "mean": null}, "geometry": {"type": "Polygon", "coordinates": [[[120.56262548172859, 31.40802704], [120.56252018673237, 31.407936576], [120.56262548172859, 31.407936576], [120.56262548172859, 31.40802704]]]}}, {"type": "Feature", "properties": {"area_ha": 0.01, "mean": 0.1575}, "geometry": {"type": "Polygon", "coordinates": [[[120.54304061243367, 31.400247136], [120.54293531743745, 31.400066208], [120.54304061243367, 31.400066208], [120.54304061243367, 31.400247136]]]}}, {"type": "Feature", "properties": {"area_ha": 0.0, "mean": null}, "geometry": {"type": "Polygon", "coordinates": [[[120.54325120242609, 31.399613888], [120.54314590742987, 31.399523424], [120.54325120242609, 31.399523424], [120.54325120242609, 31.399613888]]]}}]}