{"type": "FeatureCollection", "features": [{"type": "Feature", "properties": {"name": "黄埭镇水体边界 (JRC参考+S2 10m细化)"}, "geometry": {"type": "MultiPolygon", "coordinates": [[[[120.52166572820319, 31.408750752], [120.52198161319181, 31.410198176], [120.52429810310842, 31.410379104], [120.52166572820319, 31.408750752]]], [[[120.52598282304777, 31.412188384], [120.52966814791509, 31.415354624], [120.5274569529947, 31.411555136], [120.52598282304777, 31.412188384]]], [[[120.5365123226687, 31.416349728], [120.5366176176649, 31.416530656], [120.53714409264595, 31.416259264], [120.5365123226687, 31.416349728]]], [[[120.5353540777104, 31.416711584], [120.53503819272176, 31.41662112], [120.53524878271418, 31.416892512], [120.5353540777104, 31.416711584]]], [[[120.53798645261563, 31.416711584], [120.53788115761941, 31.416892512], [120.53851292759667, 31.416892512], [120.53798645261563, 31.416711584]]], [[[120.53703879764974, 31.42476288], [120.53261640780894, 31.425034272], [120.53377465276725, 31.425124736], [120.53703879764974, 31.42476288]]], [[[120.52850990295678, 31.425938912], [120.52956285291889, 31.426662624], [120.53008932789993, 31.425757984], [120.52850990295678, 31.425938912]]], [[[120.51808569833207, 31.426753088], [120.51755922335103, 31.427205408], [120.51819099332829, 31.427748192], [120.51808569833207, 31.426753088]]], [[[120.52366633313116, 31.427295872000002], [120.52313985815012, 31.427205408], [120.52335044814254, 31.427657728], [120.52366633313116, 31.427295872000002]]], [[[120.52134984321457, 31.427205408], [120.519559828279, 31.427205408], [120.52008630326004, 31.431728608], [120.52134984321457, 31.427205408]]], [[[120.5172433383624, 31.432995104], [120.51682215837756, 31.43335696], [120.51745392835483, 31.433266496], [120.5172433383624, 31.432995104]]], [[[120.51682215837756, 31.435075776], [120.51640097839272, 31.435347168], [120.51682215837756, 31.43561856], [120.51682215837756, 31.435075776]]], [[[120.53967117255497, 31.435256704], [120.53946058256255, 31.435347168], [120.53977646755118, 31.435709024], [120.53967117255497, 31.435256704]]], [[[120.53893410758151, 31.439508512], [120.53872351758909, 31.439598976], [120.53903940257771, 31.439689440000002], [120.53893410758151, 31.439508512]]], [[[120.53872351758909, 31.440232224], [120.53851292759667, 31.440322688000002], [120.5388288125853, 31.440955936], [120.53872351758909, 31.440232224]]], [[[120.53840763260045, 31.442131968], [120.53819704260805, 31.442222432], [120.53851292759667, 31.442312896], [120.53840763260045, 31.442131968]]], [[[120.53830233760425, 31.442493824], [120.53809174761183, 31.442584288], [120.53840763260045, 31.443036608], [120.53830233760425, 31.442493824]]], [[[120.53809174761183, 31.443579392], [120.5377758626232, 31.443941248], [120.53809174761183, 31.44466496], [120.53809174761183, 31.443579392]]], [[[120.5377758626232, 31.44511728], [120.53745997763457, 31.445660064000002], [120.53788115761941, 31.445750528], [120.5377758626232, 31.44511728]]], [[[120.53893410758151, 31.445298208], [120.53861822259287, 31.445388672], [120.53935528756634, 31.445840992], [120.53893410758151, 31.445298208]]], [[[120.54082941751327, 31.44602192], [120.5400923525398, 31.445931456], [120.54040823752844, 31.446383776], [120.54082941751327, 31.44602192]]], [[[120.53756527263079, 31.446293312], [120.53714409264595, 31.447378880000002], [120.5377758626232, 31.447469344], [120.53756527263079, 31.446293312]]], [[[120.53619643768006, 31.453168576], [120.53598584768764, 31.45325904], [120.53630173267628, 31.453439968], [120.53619643768006, 31.453168576]]], [[[120.53566996269902, 31.45597296], [120.5353540777104, 31.456334816000002], [120.53577525769524, 31.456244352000002], [120.53566996269902, 31.45597296]]], [[[120.5354593727066, 31.457058528], [120.53514348771797, 31.457510848000002], [120.5354593727066, 31.457963168], [120.5354593727066, 31.457058528]]], [[[120.53482760272935, 31.460134304], [120.53461701273693, 31.460224768], [120.53493289772555, 31.460315232], [120.53482760272935, 31.460134304]]], [[[120.52619341304019, 31.464205184], [120.52566693805915, 31.464476576], [120.52629870803639, 31.464567040000002], [120.52619341304019, 31.464205184]]], [[[120.53387994776347, 31.46501936], [120.53366935777105, 31.465109824], [120.53398524275967, 31.465200288000002], [120.53387994776347, 31.46501936]]], [[[120.53377465276725, 31.465290752], [120.53303758779379, 31.465924], [120.53335347278241, 31.46728096], [120.53377465276725, 31.465290752]]], [[[120.53135286785444, 31.466738176], [120.52903637793784, 31.466919104000002], [120.53114227786202, 31.467823744], [120.53135286785444, 31.466738176]]], [[[120.5241928081122, 31.466557248], [120.53156345784686, 31.471170912], [120.53924999257013, 31.471170912], [120.5241928081122, 31.466557248]]], [[[120.54019764753602, 31.470085344], [120.53977646755118, 31.470266272], [120.54019764753602, 31.470628128], [120.54019764753602, 31.470085344]]], [[[120.54809477225172, 31.390296096], [120.54693652729341, 31.38993424], [120.5479894772555, 31.390477024], [120.54809477225172, 31.390296096]]], [[[120.54662064230477, 31.391381664], [120.54609416732373, 31.392014912], [120.54672593730099, 31.391833984], [120.54662064230477, 31.391381664]]], [[[120.54609416732373, 31.392467232], [120.54588357733131, 31.392557696], [120.54619946231995, 31.39264816], [120.54609416732373, 31.392467232]]], [[[120.54588357733131, 31.392919552], [120.54514651235785, 31.394095584], [120.54598887232753, 31.393190944], [120.54588357733131, 31.392919552]]], [[[120.54725241228203, 31.395090688], [120.54651534730857, 31.394819296], [120.54704182228961, 31.395633472], [120.54725241228203, 31.395090688]]], [[[120.54504121736164, 31.394728832], [120.5445147423806, 31.395543008], [120.5446200373768, 31.397533216], [120.54504121736164, 31.394728832]]], [[[120.55809779689159, 31.397714144000002], [120.55778191190296, 31.397895072], [120.5582030918878, 31.397895072], [120.55809779689159, 31.397714144000002]]], [[[120.54430415238818, 31.397985536], [120.54293531743745, 31.400066208], [120.54535710235027, 31.401875488], [120.54430415238818, 31.397985536]]], [[[120.55114832714177, 31.400247136], [120.55051655716453, 31.4003376], [120.55083244215315, 31.40078992], [120.55114832714177, 31.400247136]]], [[[120.5434617924185, 31.403232448], [120.5433564974223, 31.404679872], [120.54409356239576, 31.40531312], [120.5434617924185, 31.403232448]]], [[[120.55314893206976, 31.404679872], [120.55304363707354, 31.404951264], [120.5536754070508, 31.404951264], [120.55314893206976, 31.404679872]]], [[[120.56125664677786, 31.405946368], [120.56020369681578, 31.405946368], [120.56115135178166, 31.40667008], [120.56125664677786, 31.405946368]]], [[[120.54419885739196, 31.40667008], [120.54398826739956, 31.406760544], [120.54430415238818, 31.407393792], [120.54419885739196, 31.40667008]]], [[[120.54367238241092, 31.408750752], [120.54314590742987, 31.409384], [120.54356708741471, 31.410469568], [120.54367238241092, 31.408750752]]], [[[120.56104605678544, 31.409022144], [120.55830838688401, 31.409474464], [120.56009840181956, 31.41028864], [120.56104605678544, 31.409022144]]], [[[120.5570448469295, 31.409203072], [120.55672896194086, 31.410469568], [120.55778191190296, 31.409474464], [120.5570448469295, 31.409203072]]], [[[120.56030899181198, 31.410831424], [120.55967722183473, 31.410740960000002], [120.56020369681578, 31.411012352], [120.56030899181198, 31.410831424]]], [[[120.55915074685367, 31.411102816], [120.55851897687643, 31.411012352], [120.55894015686127, 31.411464672], [120.55915074685367, 31.411102816]]], [[[120.5604142868082, 31.411555136], [120.55978251683094, 31.411374208], [120.56030899181198, 31.411736064], [120.5604142868082, 31.411555136]]], [[[120.54325120242609, 31.410831424], [120.54219825246399, 31.413635808], [120.54314590742987, 31.41300256], [120.54325120242609, 31.410831424]]], [[[120.54436340584611, 31.419625006357418], [120.54304061243367, 31.420511072], [120.56115135178166, 31.414630912], [120.54925301721, 31.416349728], [120.54444699513198, 31.419569014549786], [120.54304061243367, 31.418792256], [120.54304061243367, 31.41978736], [120.54436340584611, 31.419625006357418]]], [[[120.54240884245641, 31.415173696], [120.53977646755118, 31.416711584], [120.54219825246399, 31.423496384], [120.54240884245641, 31.415173696]]], [[[120.54104000750569, 31.425577056], [120.54082941751327, 31.42566752], [120.5411453025019, 31.426391232], [120.54104000750569, 31.425577056]]], [[[120.54093471250948, 31.426481696], [120.54040823752844, 31.428019584], [120.54104000750569, 31.42838144], [120.54093471250948, 31.426481696]]], [[[120.54809477225172, 31.428924224], [120.5479894772555, 31.429195616], [120.54851595223654, 31.429014688], [120.54809477225172, 31.428924224]]], [[[120.54619946231995, 31.43019072], [120.54588357733131, 31.430100256], [120.54588357733131, 31.43064304], [120.54619946231995, 31.43019072]]], [[[120.54040823752844, 31.43154768], [120.5399870575436, 31.432000000000002], [120.5411453025019, 31.432361856], [120.54040823752844, 31.43154768]]], [[[120.54977949219106, 31.440865472], [120.54925301721, 31.440865472], [120.54977949219106, 31.441136864], [120.54977949219106, 31.440865472]]], [[[120.54146118749053, 31.445750528], [120.5411453025019, 31.445660064000002], [120.54135589249432, 31.44602192], [120.54146118749053, 31.445750528]]], [[[120.54283002244125, 31.469452096], [120.54261943244883, 31.46954256], [120.54293531743745, 31.469633024], [120.54283002244125, 31.469452096]]], [[[120.5412505974981, 31.471532768], [120.54082941751327, 31.471442304], [120.5411453025019, 31.47180416], [120.5412505974981, 31.471532768]]], [[[120.56588962661107, 31.400699456], [120.56315195670963, 31.400247136], [120.56452079166036, 31.40124224], [120.56588962661107, 31.400699456]]], [[[120.57968327111449, 31.400880384], [120.57905150113723, 31.40124224], [120.5798938611069, 31.401151776], [120.57968327111449, 31.400880384]]], [[[120.56736375655801, 31.401875488], [120.56652139658833, 31.401604096], [120.56725846156179, 31.402237344], [120.56736375655801, 31.401875488]]], [[[120.56567903661866, 31.402418272], [120.56557374162244, 31.40305152], [120.5662055115997, 31.402508736], [120.56567903661866, 31.402418272]]], [[[120.56778493654284, 31.402780128], [120.56715316656559, 31.402689664], [120.56778493654284, 31.403232448], [120.56778493654284, 31.402780128]]], [[[120.57715619120546, 31.403684768], [120.57589265125095, 31.40305152], [120.576419126232, 31.403684768], [120.57715619120546, 31.403684768]]], [[[120.56536315163002, 31.404770336], [120.56546844662624, 31.405041728], [120.56662669158453, 31.404951264], [120.56536315163002, 31.404770336]]], [[[120.5616778267627, 31.405041728], [120.56146723677028, 31.405132192], [120.5617831217589, 31.405222656], [120.5616778267627, 31.405041728]]], [[[120.56431020166794, 31.403232448], [120.56136194177408, 31.408298432], [120.56462608665656, 31.406398688], [120.56431020166794, 31.403232448]]], [[[120.56525785663382, 31.406036832], [120.5651525616376, 31.40621776], [120.56567903661866, 31.406127296], [120.56525785663382, 31.406036832]]], [[[120.56820611652768, 31.406941472], [120.5662055115997, 31.406579616000002], [120.56799552653526, 31.407303328], [120.56820611652768, 31.406941472]]], [[[120.5616778267627, 31.407031936], [120.56146723677028, 31.4071224], [120.5617831217589, 31.407212864], [120.5616778267627, 31.407031936]]], [[[120.57241791637604, 31.408117504], [120.57220732638363, 31.408207968], [120.57252321137226, 31.408298432], [120.57241791637604, 31.408117504]]], [[[120.56146723677028, 31.413093024000002], [120.5616778267627, 31.413364416], [120.56209900674754, 31.41300256], [120.56146723677028, 31.413093024000002]]], [[[120.56294136671721, 31.41300256], [120.56241489173617, 31.413997664], [120.56304666171343, 31.413635808], [120.56294136671721, 31.41300256]]], [[[120.56188841675512, 31.417163904], [120.56136194177408, 31.416982976], [120.5617831217589, 31.417344832], [120.56188841675512, 31.417163904]]], [[[120.56294136671721, 31.417887616], [120.56283607172101, 31.418068544], [120.56357313669447, 31.418249472], [120.56294136671721, 31.417887616]]], [[[120.57705089620926, 31.41797808], [120.57694560121304, 31.418159008], [120.5776826661865, 31.418611328], [120.57705089620926, 31.41797808]]], [[[120.58747510083397, 31.418339936], [120.57936738612585, 31.42250128], [120.5775773711903, 31.427567264], [120.58747510083397, 31.418339936]]], [[[120.57936738612585, 31.426843552], [120.57926209112965, 31.427295872000002], [120.58020974609553, 31.428290976], [120.57936738612585, 31.426843552]]], [[[120.57863032115239, 31.429105152], [120.57841973115997, 31.429195616], [120.5787356161486, 31.429376544], [120.57863032115239, 31.429105152]]], [[[120.56736375655801, 31.431004896], [120.56673198658075, 31.43109536], [120.56715316656559, 31.431276288], [120.56736375655801, 31.431004896]]], [[[120.58494802092494, 31.432995104], [120.5843162509477, 31.432995104], [120.58452684094011, 31.43335696], [120.58494802092494, 31.432995104]]], [[[120.58336859598181, 31.437246912], [120.58242094101593, 31.436885056], [120.58294741599697, 31.437699232], [120.58336859598181, 31.437246912]]], [[[120.57968327111449, 31.438603872], [120.57915679613343, 31.438603872], [120.57968327111449, 31.4387848], [120.57968327111449, 31.438603872]]], [[[120.56230959673996, 31.439327584], [120.56220430174375, 31.439508512], [120.56283607172101, 31.439598976], [120.56230959673996, 31.439327584]]], [[[120.58410566095527, 31.439598976], [120.58400036595907, 31.439779904], [120.58452684094011, 31.439779904], [120.58410566095527, 31.439598976]]], [[[120.58705392084913, 31.441136864], [120.58663274086429, 31.4410464], [120.58694862585293, 31.441408256], [120.58705392084913, 31.441136864]]], [[[120.58157858104624, 31.452716256000002], [120.58052563108416, 31.452535328], [120.58147328605004, 31.452897184], [120.58157858104624, 31.452716256000002]]], [[[120.58020974609553, 31.45325904], [120.57999915610311, 31.453349504000002], [120.58031504109174, 31.453530432], [120.58020974609553, 31.45325904]]], [[[120.57715619120546, 31.47135184], [120.57536617626991, 31.47135184], [120.57715619120546, 31.471985088], [120.57715619120546, 31.47135184]]], [[[120.58347389097801, 31.471442304], [120.57947268112207, 31.471261376], [120.58010445109932, 31.473070656], [120.58347389097801, 31.471442304]]], [[[120.59063395072025, 31.407031936], [120.5902127707354, 31.407846112], [120.5935822106141, 31.408660288], [120.59063395072025, 31.407031936]]], [[[120.59379280060652, 31.409203072], [120.59400339059894, 31.409745856], [120.59705694548902, 31.40893168], [120.59379280060652, 31.409203072]]], [[[120.58968629575436, 31.409293536], [120.58915982077332, 31.409745856], [120.58989688574678, 31.40983632], [120.58968629575436, 31.409293536]]], [[[120.59073924571645, 31.409926784], [120.59052865572404, 31.410017248], [120.59084454071267, 31.410107712], [120.59073924571645, 31.409926784]]], [[[120.59421398059136, 31.410198176], [120.5934769156179, 31.410560032], [120.59431927558757, 31.410831424], [120.59421398059136, 31.410198176]]], [[[120.60400641523881, 31.410017248], [120.6026375802881, 31.409564928], [120.60021579537529, 31.412369312], [120.60400641523881, 31.410017248]]], [[[120.59642517551175, 31.411826528], [120.59389809560274, 31.411464672], [120.59621458551933, 31.412278848], [120.59642517551175, 31.411826528]]], [[[120.59642517551175, 31.413183488], [120.59484575056861, 31.413635808], [120.59631988051555, 31.413816736], [120.59642517551175, 31.413183488]]], [[[120.59726753548144, 31.416440192], [120.59600399552691, 31.41662112], [120.59705694548902, 31.416802048], [120.59726753548144, 31.416440192]]], [[[120.5923186706596, 31.415626016], [120.58810687081123, 31.417706688], [120.59179219567855, 31.41752576], [120.5923186706596, 31.415626016]]], [[[120.60421700523123, 31.420963392], [120.60400641523881, 31.421053856], [120.60432230022745, 31.42114432], [120.60421700523123, 31.420963392]]], [[[120.59337162062168, 31.422139424], [120.59305573563306, 31.422320352], [120.5935822106141, 31.42250128], [120.59337162062168, 31.422139424]]], [[[120.60663879014405, 31.422229888], [120.6048487752085, 31.42204896], [120.60653349514784, 31.422772672], [120.60663879014405, 31.422229888]]], [[[120.60758644510993, 31.422139424], [120.60695467513268, 31.42385824], [120.6083235100834, 31.422682208], [120.60758644510993, 31.422139424]]], [[[120.59337162062168, 31.423224992], [120.59316103062928, 31.423315456], [120.5934769156179, 31.423496384], [120.59337162062168, 31.423224992]]], [[[120.60463818521607, 31.423767776000002], [120.6048487752085, 31.424853344], [120.60695467513268, 31.424672416], [120.60463818521607, 31.423767776000002]]], [[[120.60095286034876, 31.425577056], [120.59937343540561, 31.424943808000002], [120.60084756535254, 31.425848448], [120.60095286034876, 31.425577056]]], [[[120.60874469006824, 31.427838656], [120.60558584018196, 31.427567264], [120.6083235100834, 31.42838144], [120.60874469006824, 31.427838656]]], [[[120.59926814040941, 31.430823968000002], [120.59832048544352, 31.43109536], [120.59958402539803, 31.431276288], [120.59926814040941, 31.430823968000002]]], [[[120.60295346527673, 31.432633248000002], [120.60232169529948, 31.432542784], [120.60284817028052, 31.43290464], [120.60295346527673, 31.432633248000002]]], [[[120.59937343540561, 31.4342616], [120.59926814040941, 31.434623456], [120.60000520538287, 31.43471392], [120.59937343540561, 31.4342616]]], [[[120.59916284541319, 31.438061088], [120.59905755041699, 31.438513408000002], [120.59968932039425, 31.438422944], [120.59916284541319, 31.438061088]]], [[[120.5957934055345, 31.440955936], [120.59516163555725, 31.441408256], [120.59600399552691, 31.441498720000002], [120.5957934055345, 31.440955936]]], [[[120.5888439357847, 31.440775008], [120.58915982077332, 31.441770112], [120.59094983570887, 31.440865472], [120.5888439357847, 31.440775008]]], [[[120.5934769156179, 31.441589184], [120.59337162062168, 31.442493824], [120.59410868559515, 31.442041504], [120.5934769156179, 31.441589184]]], [[[120.59610929052313, 31.444393568], [120.59589870053071, 31.444484032000002], [120.59621458551933, 31.444574496], [120.59610929052313, 31.444393568]]], [[[120.59505634056103, 31.444936352], [120.59516163555725, 31.44511728], [120.5957934055345, 31.44466496], [120.59505634056103, 31.444936352]]], [[[120.60190051531464, 31.445207744], [120.60168992532222, 31.445298208], [120.60200581031084, 31.445388672], [120.60190051531464, 31.445207744]]], [[[120.58684333085671, 31.446745632], [120.58621156087946, 31.447740736], [120.58747510083397, 31.447197952], [120.58684333085671, 31.446745632]]], [[[120.58747510083397, 31.451540224000002], [120.58726451084155, 31.451630688], [120.58758039583017, 31.451721152], [120.58747510083397, 31.451540224000002]]], [[[120.59663576550417, 31.456153888], [120.59379280060652, 31.457691776], [120.60116345034118, 31.455068320000002], [120.59663576550417, 31.456153888]]], [[[120.60042638536771, 31.457148992], [120.60011050037907, 31.457058528], [120.6003210903715, 31.45732992], [120.60042638536771, 31.457148992]]]]}}]}