{"type": "FeatureCollection", "features": [{"type": "Feature", "properties": {"area_ha": 0.06, "mean": 0.1503}, "geometry": {"type": "Polygon", "coordinates": [[[120.56294136671721, 31.477051072000002], [120.56252018673237, 31.47677968], [120.56304666171343, 31.476870144], [120.56294136671721, 31.477051072000002]]]}}, {"type": "Feature", "properties": {"area_ha": 0.3, "mean": 0.1103}, "geometry": {"type": "Polygon", "coordinates": [[[120.54177707247915, 31.474337152], [120.5411453025019, 31.474879936], [120.54093471250948, 31.474246688], [120.54177707247915, 31.474337152]]]}}, {"type": "Feature", "properties": {"area_ha": 0.01, "mean": 0.1256}, "geometry": {"type": "Polygon", "coordinates": [[[120.54156648248674, 31.474427616], [120.54146118749053, 31.474156224], [120.54156648248674, 31.474156224], [120.54156648248674, 31.474427616]]]}}, {"type": "Feature", "properties": {"area_ha": 0.0, "mean": null}, "geometry": {"type": "Polygon", "coordinates": [[[120.54093471250948, 31.474246688], [120.54082941751327, 31.474156224], [120.54093471250948, 31.474156224], [120.54093471250948, 31.474246688]]]}}, {"type": "Feature", "properties": {"area_ha": 0.0, "mean": null}, "geometry": {"type": "Polygon", "coordinates": [[[120.54082941751327, 31.474156224], [120.54072412251706, 31.474065760000002], [120.54082941751327, 31.474065760000002], [120.54082941751327, 31.474156224]]]}}, {"type": "Feature", "properties": {"area_ha": 0.0, "mean": null}, "geometry": {"type": "Polygon", "coordinates": [[[120.54072412251706, 31.474065760000002], [120.54061882752086, 31.473975296], [120.54072412251706, 31.473975296], [120.54072412251706, 31.474065760000002]]]}}, {"type": "Feature", "properties": {"area_ha": 0.02, "mean": 0.1031}, "geometry": {"type": "Polygon", "coordinates": [[[120.54061882752086, 31.473975296], [120.54040823752844, 31.473794368], [120.54061882752086, 31.473703904], [120.54061882752086, 31.473975296]]]}}, {"type": "Feature", "properties": {"area_ha": 0.04, "mean": 0.1125}, "geometry": {"type": "Polygon", "coordinates": [[[120.5399870575436, 31.473703904], [120.53956587755876, 31.473703904], [120.5398817625474, 31.473522976], [120.5399870575436, 31.473703904]]]}}, {"type": "Feature", "properties": {"area_ha": 0.17, "mean": 0.1078}, "geometry": {"type": "Polygon", "coordinates": [[[120.53977646755118, 31.4727088], [120.53924999257013, 31.47316112], [120.53914469757392, 31.4727088], [120.53977646755118, 31.4727088]]]}}, {"type": "Feature", "properties": {"area_ha": 0.0, "mean": null}, "geometry": {"type": "Polygon", "coordinates": [[[120.53914469757392, 31.4727088], [120.53903940257771, 31.472618336], [120.53914469757392, 31.472618336], [120.53914469757392, 31.4727088]]]}}, {"type": "Feature", "properties": {"area_ha": 0.0, "mean": null}, "geometry": {"type": "Polygon", "coordinates": [[[120.53903940257771, 31.472618336], [120.53893410758151, 31.472527872], [120.53903940257771, 31.472527872], [120.53903940257771, 31.472618336]]]}}, {"type": "Feature", "properties": {"area_ha": 0.0, "mean": null}, "geometry": {"type": "Polygon", "coordinates": [[[120.53893410758151, 31.472527872], [120.5388288125853, 31.472437408], [120.53893410758151, 31.472437408], [120.53893410758151, 31.472527872]]]}}, {"type": "Feature", "properties": {"area_ha": 0.0, "mean": null}, "geometry": {"type": "Polygon", "coordinates": [[[120.58168387604246, 31.471532768], [120.58157858104624, 31.471442304], [120.58168387604246, 31.471442304], [120.58168387604246, 31.471532768]]]}}, {"type": "Feature", "properties": {"area_ha": 0.0, "mean": null}, "geometry": {"type": "Polygon", "coordinates": [[[120.58178917103866, 31.471442304], [120.58168387604246, 31.47135184], [120.58178917103866, 31.47135184], [120.58178917103866, 31.471442304]]]}}, {"type": "Feature", "properties": {"area_ha": 0.0, "mean": null}, "geometry": {"type": "Polygon", "coordinates": [[[120.53103698286581, 31.470718592], [120.5309316878696, 31.470628128], [120.53103698286581, 31.470628128], [120.53103698286581, 31.470718592]]]}}, {"type": "Feature", "properties": {"area_ha": 0.0, "mean": null}, "geometry": {"type": "Polygon", "coordinates": [[[120.53051050788477, 31.470537664000002], [120.53040521288855, 31.470447200000002], [120.53051050788477, 31.470447200000002], [120.53051050788477, 31.470537664000002]]]}}, {"type": "Feature", "properties": {"area_ha": 0.67, "mean": 0.0793}, "geometry": {"type": "Polygon", "coordinates": [[[120.53166875284306, 31.471170912], [120.53124757285823, 31.470718592], [120.53293229279758, 31.470447200000002], [120.53261640780894, 31.470989984], [120.53166875284306, 31.471170912]], [[120.53166875284306, 31.470809056], [120.5319846378317, 31.471080448000002], [120.5320899328279, 31.47089952], [120.53166875284306, 31.470809056]]]}}, {"type": "Feature", "properties": {"area_ha": 0.0, "mean": null}, "geometry": {"type": "Polygon", "coordinates": [[[120.5332481777862, 31.470085344], [120.53314288279, 31.46999488], [120.5332481777862, 31.46999488], [120.5332481777862, 31.470085344]]]}}, {"type": "Feature", "properties": {"area_ha": 0.0, "mean": null}, "geometry": {"type": "Polygon", "coordinates": [[[120.53314288279, 31.46999488], [120.53293229279758, 31.469813952], [120.53314288279, 31.469904416000002], [120.53314288279, 31.46999488]]]}}, {"type": "Feature", "properties": {"area_ha": 0.06, "mean": 0.1547}, "geometry": {"type": "Polygon", "coordinates": [[[120.54030294253222, 31.470266272], [120.5398817625474, 31.469904416000002], [120.54019764753602, 31.469813952], [120.54030294253222, 31.470266272]]]}}, {"type": "Feature", "properties": {"area_ha": 0.0, "mean": null}, "geometry": {"type": "Polygon", "coordinates": [[[120.53293229279758, 31.469813952], [120.53282699780137, 31.469723488], [120.53293229279758, 31.469723488], [120.53293229279758, 31.469813952]]]}}, {"type": "Feature", "properties": {"area_ha": 0.01, "mean": 0.0652}, "geometry": {"type": "Polygon", "coordinates": [[[120.53008932789993, 31.46909024], [120.5297734429113, 31.468999776], [120.53008932789993, 31.468999776], [120.53008932789993, 31.46909024]]]}}, {"type": "Feature", "properties": {"area_ha": 0.01, "mean": 0.1533}, "geometry": {"type": "Polygon", "coordinates": [[[120.60126874533738, 31.456787136], [120.60116345034118, 31.456606208], [120.60126874533738, 31.456606208], [120.60126874533738, 31.456787136]]]}}, {"type": "Feature", "properties": {"area_ha": 0.0, "mean": null}, "geometry": {"type": "Polygon", "coordinates": [[[120.59642517551175, 31.456696672], [120.59631988051555, 31.456606208], [120.59642517551175, 31.456606208], [120.59642517551175, 31.456696672]]]}}, {"type": "Feature", "properties": {"area_ha": 0.0, "mean": null}, "geometry": {"type": "Polygon", "coordinates": [[[120.60116345034118, 31.456606208], [120.60105815534496, 31.456515744], [120.60116345034118, 31.456515744], [120.60116345034118, 31.456606208]]]}}, {"type": "Feature", "properties": {"area_ha": 0.02, "mean": 0.1012}, "geometry": {"type": "Polygon", "coordinates": [[[120.60084756535254, 31.455701568000002], [120.60074227035633, 31.455339712], [120.60084756535254, 31.455339712], [120.60084756535254, 31.455701568000002]]]}}, {"type": "Feature", "properties": {"area_ha": 0.0, "mean": null}, "geometry": {"type": "Polygon", "coordinates": [[[120.60074227035633, 31.455339712], [120.60063697536013, 31.455249248], [120.60074227035633, 31.455249248], [120.60074227035633, 31.455339712]]]}}, {"type": "Feature", "properties": {"area_ha": 0.0, "mean": null}, "geometry": {"type": "Polygon", "coordinates": [[[120.59884696042457, 31.43154768], [120.59874166542836, 31.431457216000002], [120.59884696042457, 31.431457216000002], [120.59884696042457, 31.43154768]]]}}, {"type": "Feature", "properties": {"area_ha": 0.0, "mean": null}, "geometry": {"type": "Polygon", "coordinates": [[[120.59937343540561, 31.431366752], [120.59926814040941, 31.431276288], [120.59937343540561, 31.431276288], [120.59937343540561, 31.431366752]]]}}, {"type": "Feature", "properties": {"area_ha": 0.02, "mean": 0.0819}, "geometry": {"type": "Polygon", "coordinates": [[[120.59905755041699, 31.431457216000002], [120.59895225542078, 31.43109536], [120.59905755041699, 31.43109536], [120.59905755041699, 31.431457216000002]]]}}, {"type": "Feature", "properties": {"area_ha": 0.04, "mean": 0.1238}, "geometry": {"type": "Polygon", "coordinates": [[[120.59947873040183, 31.431185824], [120.59916284541319, 31.431004896], [120.59937343540561, 31.430914432], [120.59947873040183, 31.431185824]]]}}, {"type": "Feature", "properties": {"area_ha": 0.06, "mean": 0.1675}, "geometry": {"type": "Polygon", "coordinates": [[[120.53156345784686, 31.425938912], [120.53135286785444, 31.42566752], [120.53177404783928, 31.425757984], [120.53156345784686, 31.425938912]]]}}, {"type": "Feature", "properties": {"area_ha": 0.03, "mean": 0.1128}, "geometry": {"type": "Polygon", "coordinates": [[[120.5320899328279, 31.425757984], [120.53177404783928, 31.425486592], [120.53219522782412, 31.425577056], [120.5320899328279, 31.425757984]]]}}, {"type": "Feature", "properties": {"area_ha": 0.0, "mean": null}, "geometry": {"type": "Polygon", "coordinates": [[[120.53230052282032, 31.425577056], [120.53219522782412, 31.425486592], [120.53230052282032, 31.425486592], [120.53230052282032, 31.425577056]]]}}, {"type": "Feature", "properties": {"area_ha": 0.01, "mean": 0.0746}, "geometry": {"type": "Polygon", "coordinates": [[[120.53261640780894, 31.425486592], [120.53240581781654, 31.425396128], [120.53261640780894, 31.425396128], [120.53261640780894, 31.425486592]]]}}, {"type": "Feature", "properties": {"area_ha": 0.0, "mean": null}, "geometry": {"type": "Polygon", "coordinates": [[[120.5798938611069, 31.422591744], [120.5797885661107, 31.42250128], [120.5798938611069, 31.42250128], [120.5798938611069, 31.422591744]]]}}, {"type": "Feature", "properties": {"area_ha": 0.02, "mean": 0.076}, "geometry": {"type": "Polygon", "coordinates": [[[120.55020067217589, 31.422591744], [120.54999008218347, 31.422410816], [120.55020067217589, 31.422320352], [120.55020067217589, 31.422591744]]]}}, {"type": "Feature", "properties": {"area_ha": 0.0, "mean": null}, "geometry": {"type": "Polygon", "coordinates": [[[120.58389507096285, 31.42204896], [120.58378977596665, 31.421958496000002], [120.58389507096285, 31.421958496000002], [120.58389507096285, 31.42204896]]]}}, {"type": "Feature", "properties": {"area_ha": 0.0, "mean": null}, "geometry": {"type": "Polygon", "coordinates": [[[120.58400036595907, 31.421958496000002], [120.58389507096285, 31.421868032], [120.58400036595907, 31.421868032], [120.58400036595907, 31.421958496000002]]]}}, {"type": "Feature", "properties": {"area_ha": 0.0, "mean": null}, "geometry": {"type": "Polygon", "coordinates": [[[120.58326330098559, 31.420601536], [120.58315800598939, 31.420511072], [120.58326330098559, 31.420511072], [120.58326330098559, 31.420601536]]]}}, {"type": "Feature", "properties": {"area_ha": 0.0, "mean": null}, "geometry": {"type": "Polygon", "coordinates": [[[120.58357918597423, 31.420149216], [120.58347389097801, 31.420058752], [120.58357918597423, 31.420058752], [120.58357918597423, 31.420149216]]]}}, {"type": "Feature", "properties": {"area_ha": 0.0, "mean": null}, "geometry": {"type": "Polygon", "coordinates": [[[120.58378977596665, 31.420058752], [120.58368448097043, 31.419968288], [120.58378977596665, 31.419968288], [120.58378977596665, 31.420058752]]]}}, {"type": "Feature", "properties": {"area_ha": 0.0, "mean": null}, "geometry": {"type": "Polygon", "coordinates": [[[120.54093471250948, 31.41978736], [120.54082941751327, 31.419696896], [120.54093471250948, 31.419696896], [120.54093471250948, 31.41978736]]]}}, {"type": "Feature", "properties": {"area_ha": 0.0, "mean": null}, "geometry": {"type": "Polygon", "coordinates": [[[120.5412505974981, 31.41978736], [120.5411453025019, 31.419696896], [120.5412505974981, 31.419696896], [120.5412505974981, 31.41978736]]]}}, {"type": "Feature", "properties": {"area_ha": 0.0, "mean": null}, "geometry": {"type": "Polygon", "coordinates": [[[120.54419885739196, 31.41978736], [120.54409356239576, 31.419696896], [120.54419885739196, 31.419696896], [120.54419885739196, 31.41978736]]]}}, {"type": "Feature", "properties": {"area_ha": 0.0, "mean": null}, "geometry": {"type": "Polygon", "coordinates": [[[120.54135589249432, 31.419696896], [120.5412505974981, 31.419606432000002], [120.54135589249432, 31.419606432000002], [120.54135589249432, 31.419696896]]]}}, {"type": "Feature", "properties": {"area_ha": 0.0, "mean": null}, "geometry": {"type": "Polygon", "coordinates": [[[120.5412505974981, 31.419606432000002], [120.54104000750569, 31.419425504], [120.5412505974981, 31.419515968], [120.5412505974981, 31.419606432000002]]]}}, {"type": "Feature", "properties": {"area_ha": 0.0, "mean": null}, "geometry": {"type": "Polygon", "coordinates": [[[120.54219825246399, 31.418701792], [120.54209295746779, 31.418611328], [120.54219825246399, 31.418611328], [120.54219825246399, 31.418701792]]]}}, {"type": "Feature", "properties": {"area_ha": 0.0, "mean": null}, "geometry": {"type": "Polygon", "coordinates": [[[120.54230354746021, 31.418611328], [120.54219825246399, 31.418520864], [120.54230354746021, 31.418520864], [120.54230354746021, 31.418611328]]]}}, {"type": "Feature", "properties": {"area_ha": 0.02, "mean": 0.0814}, "geometry": {"type": "Polygon", "coordinates": [[[120.54851595223654, 31.41797808], [120.54841065724034, 31.417797152], [120.54862124723276, 31.417797152], [120.54851595223654, 31.41797808]]]}}, {"type": "Feature", "properties": {"area_ha": 0.28, "mean": 0.0884}, "geometry": {"type": "Polygon", "coordinates": [[[120.54893713222138, 31.418339936], [120.54862124723276, 31.417706688], [120.5491477222138, 31.417616224], [120.54925301721, 31.418159008], [120.54893713222138, 31.418339936]], [[120.54893713222138, 31.417887616], [120.5490424272176, 31.41797808], [120.5490424272176, 31.417887616], [120.54893713222138, 31.417887616]]]}}, {"type": "Feature", "properties": {"area_ha": 0.44, "mean": 0.0813}, "geometry": {"type": "Polygon", "coordinates": [[[120.54935831220622, 31.418159008], [120.54935831220622, 31.41752576], [120.54988478718727, 31.417435296], [120.55041126216831, 31.417706688], [120.54935831220622, 31.418159008]], [[120.54977949219106, 31.41752576], [120.54988478718727, 31.417706688], [120.54988478718727, 31.41752576], [120.54977949219106, 31.41752576]]]}}, {"type": "Feature", "properties": {"area_ha": 0.02, "mean": 0.1087}, "geometry": {"type": "Polygon", "coordinates": [[[120.55114832714177, 31.417435296], [120.55093773714935, 31.417344832], [120.55114832714177, 31.417254368000002], [120.55114832714177, 31.417435296]]]}}, {"type": "Feature", "properties": {"area_ha": 0.0, "mean": null}, "geometry": {"type": "Polygon", "coordinates": [[[120.54040823752844, 31.417163904], [120.54030294253222, 31.41707344], [120.54040823752844, 31.41707344], [120.54040823752844, 31.417163904]]]}}, {"type": "Feature", "properties": {"area_ha": 0.01, "mean": 0.075}, "geometry": {"type": "Polygon", "coordinates": [[[120.54061882752086, 31.41707344], [120.54051353252464, 31.416892512], [120.54061882752086, 31.416892512], [120.54061882752086, 31.41707344]]]}}, {"type": "Feature", "properties": {"area_ha": 0.06, "mean": 0.0826}, "geometry": {"type": "Polygon", "coordinates": [[[120.54030294253222, 31.416982976], [120.5399870575436, 31.416711584], [120.54051353252464, 31.416802048], [120.54030294253222, 31.416982976]]]}}, {"type": "Feature", "properties": {"area_ha": 0.0, "mean": null}, "geometry": {"type": "Polygon", "coordinates": [[[120.54956890219864, 31.416802048], [120.54946360720243, 31.416711584], [120.54956890219864, 31.416711584], [120.54956890219864, 31.416802048]]]}}, {"type": "Feature", "properties": {"area_ha": 0.14, "mean": 0.08}, "geometry": {"type": "Polygon", "coordinates": [[[120.54935831220622, 31.416892512], [120.54862124723276, 31.416711584], [120.54935831220622, 31.416530656], [120.54935831220622, 31.416892512]]]}}, {"type": "Feature", "properties": {"area_ha": 0.12, "mean": 0.1401}, "geometry": {"type": "Polygon", "coordinates": [[[120.52935226292647, 31.415626016], [120.52850990295678, 31.415535552], [120.528615197953, 31.41526416], [120.52935226292647, 31.415626016]]]}}, {"type": "Feature", "properties": {"area_ha": 0.0, "mean": null}, "geometry": {"type": "Polygon", "coordinates": [[[120.54261943244883, 31.415354624], [120.54251413745261, 31.41526416], [120.54261943244883, 31.41526416], [120.54261943244883, 31.415354624]]]}}, {"type": "Feature", "properties": {"area_ha": 0.02, "mean": 0.1318}, "geometry": {"type": "Polygon", "coordinates": [[[120.5273516579985, 31.415083232], [120.52703577300986, 31.414992768], [120.52724636300228, 31.414902304], [120.5273516579985, 31.415083232]]]}}, {"type": "Feature", "properties": {"area_ha": 0.0, "mean": null}, "geometry": {"type": "Polygon", "coordinates": [[[120.5946351605762, 31.414630912], [120.59452986557999, 31.414540448], [120.5946351605762, 31.414540448], [120.5946351605762, 31.414630912]]]}}, {"type": "Feature", "properties": {"area_ha": 0.0, "mean": null}, "geometry": {"type": "Polygon", "coordinates": [[[120.59484575056861, 31.414540448], [120.5947404555724, 31.414449984], [120.59484575056861, 31.414449984], [120.59484575056861, 31.414540448]]]}}, {"type": "Feature", "properties": {"area_ha": 0.0, "mean": null}, "geometry": {"type": "Polygon", "coordinates": [[[120.59505634056103, 31.414449984], [120.59495104556483, 31.41435952], [120.59505634056103, 31.41435952], [120.59505634056103, 31.414449984]]]}}, {"type": "Feature", "properties": {"area_ha": 0.0, "mean": null}, "geometry": {"type": "Polygon", "coordinates": [[[120.59600399552691, 31.413273952], [120.59589870053071, 31.413183488], [120.59600399552691, 31.413183488], [120.59600399552691, 31.413273952]]]}}, {"type": "Feature", "properties": {"area_ha": 0.0, "mean": null}, "geometry": {"type": "Polygon", "coordinates": [[[120.59884696042457, 31.412731168], [120.59863637043215, 31.41255024], [120.59884696042457, 31.412640704], [120.59884696042457, 31.412731168]]]}}, {"type": "Feature", "properties": {"area_ha": 0.0, "mean": null}, "geometry": {"type": "Polygon", "coordinates": [[[120.59832048544352, 31.412278848], [120.5982151904473, 31.412188384], [120.59832048544352, 31.412188384], [120.59832048544352, 31.412278848]]]}}, {"type": "Feature", "properties": {"area_ha": 0.05, "mean": 0.1308}, "geometry": {"type": "Polygon", "coordinates": [[[120.59863637043215, 31.412188384], [120.59832048544352, 31.41209792], [120.59874166542836, 31.411916992000002], [120.59863637043215, 31.412188384]]]}}, {"type": "Feature", "properties": {"area_ha": 0.19, "mean": 0.1783}, "geometry": {"type": "Polygon", "coordinates": [[[120.59979461539045, 31.411464672], [120.59884696042457, 31.411736064], [120.59979461539045, 31.411102816], [120.59979461539045, 31.411464672]]]}}, {"type": "Feature", "properties": {"area_ha": 0.01, "mean": 0.1421}, "geometry": {"type": "Polygon", "coordinates": [[[120.60063697536013, 31.41119328], [120.60042638536771, 31.411012352], [120.60063697536013, 31.411012352], [120.60063697536013, 31.41119328]]]}}, {"type": "Feature", "properties": {"area_ha": 0.01, "mean": 0.2154}, "geometry": {"type": "Polygon", "coordinates": [[[120.60021579537529, 31.411102816], [120.59989991038665, 31.411012352], [120.60021579537529, 31.411012352], [120.60021579537529, 31.411102816]]]}}, {"type": "Feature", "properties": {"area_ha": 0.01, "mean": 0.132}, "geometry": {"type": "Polygon", "coordinates": [[[120.60095286034876, 31.411102816], [120.60074227035633, 31.410921888], [120.60095286034876, 31.410921888], [120.60095286034876, 31.411102816]]]}}, {"type": "Feature", "properties": {"area_ha": 0.01, "mean": 0.1441}, "geometry": {"type": "Polygon", "coordinates": [[[120.60116345034118, 31.410921888], [120.60095286034876, 31.410831424], [120.60116345034118, 31.410831424], [120.60116345034118, 31.410921888]]]}}, {"type": "Feature", "properties": {"area_ha": 0.0, "mean": null}, "geometry": {"type": "Polygon", "coordinates": [[[120.60126874533738, 31.410831424], [120.60116345034118, 31.410740960000002], [120.60126874533738, 31.410740960000002], [120.60126874533738, 31.410831424]]]}}]}