{"type": "FeatureCollection", "features": [{"type": "Feature", "properties": {"name": "黄埭镇水体边界 (JRC参考+S2 10m细化)"}, "geometry": {"type": "MultiPolygon", "coordinates": [[[[120.52703577300986, 31.414992768], [120.5273516579985, 31.415083232], [120.52724636300228, 31.414902304], [120.52703577300986, 31.414992768]]], [[[120.52850990295678, 31.415535552], [120.52935226292647, 31.415626016], [120.528615197953, 31.41526416], [120.52850990295678, 31.415535552]]], [[[120.54019764753602, 31.416982976], [120.54061882752086, 31.416892512], [120.5398817625474, 31.416802048], [120.54019764753602, 31.416982976]]], [[[120.53293229279758, 31.425396128], [120.53314288279, 31.425124736], [120.5319846378317, 31.425305664], [120.53293229279758, 31.425396128]]], [[[120.53156345784686, 31.426029376], [120.53177404783928, 31.425757984], [120.53103698286581, 31.425757984], [120.53156345784686, 31.426029376]]], [[[120.52935226292647, 31.426481696], [120.53008932789993, 31.425848448], [120.52914167293405, 31.425757984], [120.52935226292647, 31.426481696]]], [[[120.53788115761941, 31.4455696], [120.53788115761941, 31.444755424], [120.53756527263079, 31.44511728], [120.53788115761941, 31.4455696]]], [[[120.53924999257013, 31.445750528], [120.53893410758151, 31.445388672], [120.53840763260045, 31.446112384], [120.53924999257013, 31.445750528]]], [[[120.5411453025019, 31.445660064000002], [120.54135589249432, 31.445931456], [120.54146118749053, 31.445750528], [120.5411453025019, 31.445660064000002]]], [[[120.54061882752086, 31.446293312], [120.54082941751327, 31.44602192], [120.5400923525398, 31.445931456], [120.54061882752086, 31.446293312]]], [[[120.53767056762699, 31.446655168], [120.53756527263079, 31.446293312], [120.53735468263837, 31.446383776], [120.53767056762699, 31.446655168]]], [[[120.53008932789993, 31.470266272], [120.53272170280516, 31.468999776], [120.52956285291889, 31.46909024], [120.53008932789993, 31.470266272]]], [[[120.54030294253222, 31.470266272], [120.54019764753602, 31.469813952], [120.5398817625474, 31.469904416000002], [120.54030294253222, 31.470266272]]], [[[120.53977646755118, 31.471985088], [120.53809174761183, 31.471623232000002], [120.53809174761183, 31.472075552], [120.53977646755118, 31.471985088]]], [[[120.53956587755876, 31.473703904], [120.5399870575436, 31.473703904], [120.5398817625474, 31.473522976], [120.53956587755876, 31.473703904]]], [[[120.54104000750569, 31.473522976], [120.54040823752844, 31.473794368], [120.5411453025019, 31.474879936], [120.54104000750569, 31.473522976]]], [[[120.54672593730099, 31.39174352], [120.54662064230477, 31.3912912], [120.54630475731615, 31.391653056], [120.54672593730099, 31.39174352]]], [[[120.56336254670205, 31.400518528], [120.56399431667931, 31.400518528], [120.5638890216831, 31.400156672], [120.56336254670205, 31.400518528]]], [[[120.55915074685367, 31.410469568], [120.55925604184989, 31.41028864], [120.55872956686885, 31.410198176], [120.55915074685367, 31.410469568]]], [[[120.54261943244883, 31.41571648], [120.54261943244883, 31.41526416], [120.54198766247157, 31.41526416], [120.54261943244883, 31.41571648]]], [[[120.5490424272176, 31.416440192], [120.54946360720243, 31.416892512], [120.54956890219864, 31.416711584], [120.5490424272176, 31.416440192]]], [[[120.55125362213799, 31.417435296], [120.55114832714177, 31.417254368000002], [120.55093773714935, 31.417344832], [120.55125362213799, 31.417435296]]], [[[120.55030596717211, 31.418068544], [120.55041126216831, 31.417706688], [120.54830536224412, 31.417887616], [120.55030596717211, 31.418068544]]], [[[120.54082941751327, 31.419606432000002], [120.54219825246399, 31.420420608], [120.54230354746021, 31.418520864], [120.54082941751327, 31.419606432000002]]], [[[120.54367238241092, 31.419968288], [120.54430415238818, 31.419968288], [120.54419885739196, 31.419696896], [120.54367238241092, 31.419968288]]], [[[120.54546239734648, 31.420692], [120.55009537717969, 31.422682208], [120.55093773714935, 31.418520864], [120.54546239734648, 31.420692]]], [[[120.54219825246399, 31.423496384], [120.54198766247157, 31.421325248], [120.54051353252464, 31.422682208], [120.54219825246399, 31.423496384]]], [[[120.57957797611827, 31.426753088], [120.57915679613343, 31.426481696], [120.57905150113723, 31.426934016], [120.57957797611827, 31.426753088]]], [[[120.57947268112207, 31.427838656], [120.58010445109932, 31.42792912], [120.57957797611827, 31.427567264], [120.57947268112207, 31.427838656]]], [[[120.57062790144049, 31.429195616], [120.57052260644429, 31.429014688], [120.57031201645187, 31.429105152], [120.57062790144049, 31.429195616]]], [[[120.57726148620168, 31.471442304], [120.5763138312358, 31.471080448000002], [120.57557676626233, 31.47180416], [120.57726148620168, 31.471442304]]], [[[120.56252018673237, 31.47677968], [120.56294136671721, 31.477051072000002], [120.56304666171343, 31.476870144], [120.56252018673237, 31.47677968]]], [[[120.60011050037907, 31.412369312], [120.60126874533738, 31.410740960000002], [120.59832048544352, 31.41209792], [120.60011050037907, 31.412369312]]], [[[120.59631988051555, 31.41209792], [120.59642517551175, 31.411916992000002], [120.59600399552691, 31.4116456], [120.59631988051555, 31.41209792]]], [[[120.59516163555725, 31.413545344], [120.59589870053071, 31.413997664], [120.59642517551175, 31.413183488], [120.59516163555725, 31.413545344]]], [[[120.58937041076574, 31.41888272], [120.58937041076574, 31.418792256], [120.58873864078848, 31.418701792], [120.58937041076574, 31.41888272]]], [[[120.58705392084913, 31.420149216], [120.58694862585293, 31.419425504], [120.58189446603488, 31.421415712], [120.58705392084913, 31.420149216]]], [[[120.57936738612585, 31.42250128], [120.580946811069, 31.424672416], [120.5821050560273, 31.422591744], [120.57936738612585, 31.42250128]]], [[[120.59947873040183, 31.431457216000002], [120.59926814040941, 31.430823968000002], [120.59874166542836, 31.431457216000002], [120.59947873040183, 31.431457216000002]]], [[[120.58136799105384, 31.452987648], [120.58147328605004, 31.452444864], [120.58052563108416, 31.452535328], [120.58136799105384, 31.452987648]]], [[[120.57999915610311, 31.453349504000002], [120.58031504109174, 31.453530432], [120.58020974609553, 31.45325904], [120.57999915610311, 31.453349504000002]]], [[[120.60168992532222, 31.457148992], [120.60074227035633, 31.455158784], [120.59947873040183, 31.45642528], [120.60168992532222, 31.457148992]]], [[[120.59905755041699, 31.456877600000002], [120.59926814040941, 31.456334816000002], [120.59653047050796, 31.456153888], [120.59905755041699, 31.456877600000002]]], [[[120.60011050037907, 31.457058528], [120.60042638536771, 31.45732992], [120.60053168036391, 31.457058528], [120.60011050037907, 31.457058528]]], [[[120.59516163555725, 31.457510848000002], [120.59516163555725, 31.45732992], [120.59379280060652, 31.45778224], [120.59516163555725, 31.457510848000002]]], [[[120.5798938611069, 31.47316112], [120.58347389097801, 31.471442304], [120.57947268112207, 31.471261376], [120.5798938611069, 31.47316112]]]]}}]}