{"type": "FeatureCollection", "features": [{"type": "Feature", "properties": {"area_ha": 0.01, "mean": 0.1388}, "geometry": {"type": "Polygon", "coordinates": [[[120.52145513821077, 31.469723488], [120.52124454821835, 31.469633024], [120.52145513821077, 31.469633024], [120.52145513821077, 31.469723488]]]}}, {"type": "Feature", "properties": {"area_ha": 0.0, "mean": null}, "geometry": {"type": "Polygon", "coordinates": [[[120.5206127782411, 31.469633024], [120.52050748324488, 31.46954256], [120.5206127782411, 31.46954256], [120.5206127782411, 31.469633024]]]}}, {"type": "Feature", "properties": {"area_ha": 0.01, "mean": 0.1562}, "geometry": {"type": "Polygon", "coordinates": [[[120.51934923828658, 31.469452096], [120.51924394329038, 31.46954256], [120.51913864829417, 31.469452096], [120.51934923828658, 31.469452096]]]}}, {"type": "Feature", "properties": {"area_ha": 0.01, "mean": 0.1666}, "geometry": {"type": "Polygon", "coordinates": [[[120.52040218824868, 31.46954256], [120.52019159825626, 31.469452096], [120.52040218824868, 31.469452096], [120.52040218824868, 31.46954256]]]}}, {"type": "Feature", "properties": {"area_ha": 0.01, "mean": 0.1595}, "geometry": {"type": "Polygon", "coordinates": [[[120.52008630326004, 31.469452096], [120.51987571326764, 31.469361632000002], [120.52008630326004, 31.469361632000002], [120.52008630326004, 31.469452096]]]}}, {"type": "Feature", "properties": {"area_ha": 0.0, "mean": null}, "geometry": {"type": "Polygon", "coordinates": [[[120.51966512327522, 31.469361632000002], [120.519559828279, 31.469271168000002], [120.51966512327522, 31.469271168000002], [120.51966512327522, 31.469361632000002]]]}}, {"type": "Feature", "properties": {"area_ha": 0.0, "mean": null}, "geometry": {"type": "Polygon", "coordinates": [[[120.52229749818045, 31.469361632000002], [120.52219220318423, 31.469271168000002], [120.52229749818045, 31.469271168000002], [120.52229749818045, 31.469361632000002]]]}}, {"type": "Feature", "properties": {"area_ha": 0.0, "mean": null}, "geometry": {"type": "Polygon", "coordinates": [[[120.5194545332828, 31.469271168000002], [120.51934923828658, 31.469180704], [120.5194545332828, 31.469180704], [120.5194545332828, 31.469271168000002]]]}}, {"type": "Feature", "properties": {"area_ha": 0.0, "mean": null}, "geometry": {"type": "Polygon", "coordinates": [[[120.52240279317665, 31.469271168000002], [120.52229749818045, 31.469180704], [120.52240279317665, 31.469180704], [120.52240279317665, 31.469271168000002]]]}}, {"type": "Feature", "properties": {"area_ha": 0.04, "mean": 0.2635}, "geometry": {"type": "Polygon", "coordinates": [[[120.528615197953, 31.469271168000002], [120.52829931296438, 31.46909024], [120.5287204929492, 31.46909024], [120.528615197953, 31.469271168000002]]]}}, {"type": "Feature", "properties": {"area_ha": 0.01, "mean": 0.1477}, "geometry": {"type": "Polygon", "coordinates": [[[120.51892805830175, 31.46909024], [120.51871746830933, 31.468999776], [120.51892805830175, 31.468999776], [120.51892805830175, 31.46909024]]]}}, {"type": "Feature", "properties": {"area_ha": 0.0, "mean": null}, "geometry": {"type": "Polygon", "coordinates": [[[120.52250808817286, 31.46909024], [120.52240279317665, 31.468999776], [120.52250808817286, 31.468999776], [120.52250808817286, 31.46909024]]]}}, {"type": "Feature", "properties": {"area_ha": 0.04, "mean": 0.201}, "geometry": {"type": "Polygon", "coordinates": [[[120.53072109787719, 31.46909024], [120.5297734429113, 31.468999776], [120.53072109787719, 31.468999776], [120.53072109787719, 31.46909024]]]}}, {"type": "Feature", "properties": {"area_ha": 0.0, "mean": null}, "geometry": {"type": "Polygon", "coordinates": [[[120.5309316878696, 31.46909024], [120.5308263928734, 31.468999776], [120.5309316878696, 31.468999776], [120.5309316878696, 31.46909024]]]}}, {"type": "Feature", "properties": {"area_ha": 0.0, "mean": null}, "geometry": {"type": "Polygon", "coordinates": [[[120.5320899328279, 31.46909024], [120.5319846378317, 31.468999776], [120.5320899328279, 31.468999776], [120.5320899328279, 31.46909024]]]}}, {"type": "Feature", "properties": {"area_ha": 0.01, "mean": 0.2922}, "geometry": {"type": "Polygon", "coordinates": [[[120.52829931296438, 31.46909024], [120.52819401796816, 31.468909312], [120.52829931296438, 31.468909312], [120.52829931296438, 31.46909024]]]}}, {"type": "Feature", "properties": {"area_ha": 0.0, "mean": null}, "geometry": {"type": "Polygon", "coordinates": [[[120.51871746830933, 31.468999776], [120.51861217331312, 31.468909312], [120.51871746830933, 31.468909312], [120.51871746830933, 31.468999776]]]}}, {"type": "Feature", "properties": {"area_ha": 0.0, "mean": null}, "geometry": {"type": "Polygon", "coordinates": [[[120.52261338316907, 31.468999776], [120.52250808817286, 31.468909312], [120.52261338316907, 31.468909312], [120.52261338316907, 31.468999776]]]}}, {"type": "Feature", "properties": {"area_ha": 0.02, "mean": 0.2595}, "geometry": {"type": "Polygon", "coordinates": [[[120.52956285291889, 31.468999776], [120.52903637793784, 31.468909312], [120.52956285291889, 31.468909312], [120.52956285291889, 31.468999776]]]}}, {"type": "Feature", "properties": {"area_ha": 0.0, "mean": null}, "geometry": {"type": "Polygon", "coordinates": [[[120.53114227786202, 31.468999776], [120.53103698286581, 31.468909312], [120.53114227786202, 31.468909312], [120.53114227786202, 31.468999776]]]}}, {"type": "Feature", "properties": {"area_ha": 0.01, "mean": 0.1715}, "geometry": {"type": "Polygon", "coordinates": [[[120.51819099332829, 31.468909312], [120.51798040333587, 31.468818848], [120.51819099332829, 31.468818848], [120.51819099332829, 31.468909312]]]}}, {"type": "Feature", "properties": {"area_ha": 0.0, "mean": null}, "geometry": {"type": "Polygon", "coordinates": [[[120.52882578794542, 31.468818848], [120.5287204929492, 31.468728384000002], [120.52882578794542, 31.468728384000002], [120.52882578794542, 31.468818848]]]}}, {"type": "Feature", "properties": {"area_ha": 0.0, "mean": null}, "geometry": {"type": "Polygon", "coordinates": [[[120.51787510833965, 31.468728384000002], [120.51776981334345, 31.46863792], [120.51787510833965, 31.46863792], [120.51787510833965, 31.468728384000002]]]}}, {"type": "Feature", "properties": {"area_ha": 0.0, "mean": null}, "geometry": {"type": "Polygon", "coordinates": [[[120.5287204929492, 31.468728384000002], [120.528615197953, 31.46863792], [120.5287204929492, 31.46863792], [120.5287204929492, 31.468728384000002]]]}}, {"type": "Feature", "properties": {"area_ha": 0.0, "mean": null}, "geometry": {"type": "Polygon", "coordinates": [[[120.51776981334345, 31.46863792], [120.51766451834723, 31.468547456], [120.51776981334345, 31.468547456], [120.51776981334345, 31.46863792]]]}}, {"type": "Feature", "properties": {"area_ha": 0.0, "mean": null}, "geometry": {"type": "Polygon", "coordinates": [[[120.52271867816528, 31.46863792], [120.52261338316907, 31.468547456], [120.52271867816528, 31.468547456], [120.52271867816528, 31.46863792]]]}}, {"type": "Feature", "properties": {"area_ha": 0.0, "mean": null}, "geometry": {"type": "Polygon", "coordinates": [[[120.528615197953, 31.46863792], [120.52850990295678, 31.468547456], [120.528615197953, 31.468547456], [120.528615197953, 31.46863792]]]}}, {"type": "Feature", "properties": {"area_ha": 0.01, "mean": 0.306}, "geometry": {"type": "Polygon", "coordinates": [[[120.52850990295678, 31.468547456], [120.52840460796058, 31.468366528], [120.52850990295678, 31.468366528], [120.52850990295678, 31.468547456]]]}}, {"type": "Feature", "properties": {"area_ha": 0.0, "mean": null}, "geometry": {"type": "Polygon", "coordinates": [[[120.51745392835483, 31.468456992], [120.51734863335861, 31.468366528], [120.51745392835483, 31.468366528], [120.51745392835483, 31.468456992]]]}}, {"type": "Feature", "properties": {"area_ha": 0.0, "mean": null}, "geometry": {"type": "Polygon", "coordinates": [[[120.5172433383624, 31.468366528], [120.51713804336619, 31.468276064], [120.5172433383624, 31.468276064], [120.5172433383624, 31.468366528]]]}}, {"type": "Feature", "properties": {"area_ha": 0.28, "mean": 0.2494}, "geometry": {"type": "Polygon", "coordinates": [[[120.52787813297954, 31.468999776], [120.52703577300986, 31.468366528], [120.52787813297954, 31.468366528], [120.52787813297954, 31.468999776]]]}}, {"type": "Feature", "properties": {"area_ha": 0.01, "mean": 0.1904}, "geometry": {"type": "Polygon", "coordinates": [[[120.5228239731615, 31.468366528], [120.52271867816528, 31.4681856], [120.5228239731615, 31.4681856], [120.5228239731615, 31.468366528]]]}}, {"type": "Feature", "properties": {"area_ha": 0.17, "mean": 0.124}, "geometry": {"type": "Polygon", "coordinates": [[[120.52482457808946, 31.468276064], [120.52366633313116, 31.468276064], [120.52429810310842, 31.468004672], [120.52482457808946, 31.468276064]]]}}, {"type": "Feature", "properties": {"area_ha": 0.0, "mean": null}, "geometry": {"type": "Polygon", "coordinates": [[[120.5148215534496, 31.468095136000002], [120.51471625845338, 31.468004672], [120.5148215534496, 31.468004672], [120.5148215534496, 31.468095136000002]]]}}, {"type": "Feature", "properties": {"area_ha": 0.0, "mean": null}, "geometry": {"type": "Polygon", "coordinates": [[[120.5149268484458, 31.468004672], [120.5148215534496, 31.467914208], [120.5149268484458, 31.467914208], [120.5149268484458, 31.468004672]]]}}, {"type": "Feature", "properties": {"area_ha": 0.0, "mean": null}, "geometry": {"type": "Polygon", "coordinates": [[[120.51661156838514, 31.468004672], [120.51650627338894, 31.467914208], [120.51661156838514, 31.467914208], [120.51661156838514, 31.468004672]]]}}, {"type": "Feature", "properties": {"area_ha": 0.0, "mean": null}, "geometry": {"type": "Polygon", "coordinates": [[[120.5229292681577, 31.468004672], [120.5228239731615, 31.467914208], [120.5229292681577, 31.467914208], [120.5229292681577, 31.468004672]]]}}, {"type": "Feature", "properties": {"area_ha": 0.0, "mean": null}, "geometry": {"type": "Polygon", "coordinates": [[[120.52966814791509, 31.468004672], [120.52956285291889, 31.467914208], [120.52966814791509, 31.467914208], [120.52966814791509, 31.468004672]]]}}, {"type": "Feature", "properties": {"area_ha": 0.01, "mean": 0.183}, "geometry": {"type": "Polygon", "coordinates": [[[120.51555861842306, 31.467914208], [120.51524273343442, 31.467823744], [120.51555861842306, 31.467823744], [120.51555861842306, 31.467914208]]]}}, {"type": "Feature", "properties": {"area_ha": 0.0, "mean": null}, "geometry": {"type": "Polygon", "coordinates": [[[120.51650627338894, 31.467914208], [120.51640097839272, 31.467823744], [120.51650627338894, 31.467823744], [120.51650627338894, 31.467914208]]]}}, {"type": "Feature", "properties": {"area_ha": 0.0, "mean": null}, "geometry": {"type": "Polygon", "coordinates": [[[120.53008932789993, 31.46773328], [120.52998403290371, 31.467642816], [120.53008932789993, 31.467642816], [120.53008932789993, 31.46773328]]]}}, {"type": "Feature", "properties": {"area_ha": 0.01, "mean": 0.173}, "geometry": {"type": "Polygon", "coordinates": [[[120.52303456315391, 31.46773328], [120.5229292681577, 31.467552352000002], [120.52303456315391, 31.467552352000002], [120.52303456315391, 31.46773328]]]}}, {"type": "Feature", "properties": {"area_ha": 0.01, "mean": 0.2514}, "geometry": {"type": "Polygon", "coordinates": [[[120.5308263928734, 31.467642816], [120.53061580288097, 31.467552352000002], [120.5308263928734, 31.467552352000002], [120.5308263928734, 31.467642816]]]}}, {"type": "Feature", "properties": {"area_ha": 0.29, "mean": 0.2779}, "geometry": {"type": "Polygon", "coordinates": [[[120.52829931296438, 31.468004672], [120.52819401796816, 31.468095136000002], [120.52682518301744, 31.467461888], [120.52787813297954, 31.467642816], [120.52829931296438, 31.468004672]]]}}, {"type": "Feature", "properties": {"area_ha": 0.01, "mean": 0.1697}, "geometry": {"type": "Polygon", "coordinates": [[[120.53072109787719, 31.467461888], [120.53040521288855, 31.467371424], [120.53072109787719, 31.467371424], [120.53072109787719, 31.467461888]]]}}, {"type": "Feature", "properties": {"area_ha": 0.01, "mean": 0.1663}, "geometry": {"type": "Polygon", "coordinates": [[[120.52998403290371, 31.467461888], [120.52987873790751, 31.46728096], [120.52998403290371, 31.46728096], [120.52998403290371, 31.467461888]]]}}, {"type": "Feature", "properties": {"area_ha": 0.0, "mean": null}, "geometry": {"type": "Polygon", "coordinates": [[[120.52313985815012, 31.46728096], [120.52303456315391, 31.467190496], [120.52313985815012, 31.467190496], [120.52313985815012, 31.46728096]]]}}, {"type": "Feature", "properties": {"area_ha": 0.0, "mean": null}, "geometry": {"type": "Polygon", "coordinates": [[[120.52987873790751, 31.46728096], [120.5297734429113, 31.467190496], [120.52987873790751, 31.467190496], [120.52987873790751, 31.46728096]]]}}, {"type": "Feature", "properties": {"area_ha": 0.01, "mean": 0.3184}, "geometry": {"type": "Polygon", "coordinates": [[[120.53114227786202, 31.46728096], [120.5308263928734, 31.467190496], [120.53114227786202, 31.467190496], [120.53114227786202, 31.46728096]]]}}, {"type": "Feature", "properties": {"area_ha": 0.0, "mean": null}, "geometry": {"type": "Polygon", "coordinates": [[[120.51545332342684, 31.467190496], [120.51534802843064, 31.467100032], [120.51545332342684, 31.467100032], [120.51545332342684, 31.467190496]]]}}, {"type": "Feature", "properties": {"area_ha": 0.0, "mean": null}, "geometry": {"type": "Polygon", "coordinates": [[[120.52324515314633, 31.467100032], [120.52313985815012, 31.467009568], [120.52324515314633, 31.467009568], [120.52324515314633, 31.467100032]]]}}, {"type": "Feature", "properties": {"area_ha": 0.0, "mean": null}, "geometry": {"type": "Polygon", "coordinates": [[[120.53061580288097, 31.467100032], [120.53051050788477, 31.467009568], [120.53061580288097, 31.467009568], [120.53061580288097, 31.467100032]]]}}, {"type": "Feature", "properties": {"area_ha": 0.55, "mean": 0.1911}, "geometry": {"type": "Polygon", "coordinates": [[[120.52924696793025, 31.468004672], [120.52893108294163, 31.467371424], [120.52903637793784, 31.466919104000002], [120.52987873790751, 31.467461888], [120.52924696793025, 31.468004672]], [[120.52924696793025, 31.46773328], [120.52935226292647, 31.467823744], [120.52935226292647, 31.46773328], [120.52924696793025, 31.46773328]], [[120.52914167293405, 31.467642816], [120.52924696793025, 31.46773328], [120.52924696793025, 31.467642816], [120.52914167293405, 31.467642816]], [[120.52945755792267, 31.467461888], [120.52956285291889, 31.467552352000002], [120.52956285291889, 31.467461888], [120.52945755792267, 31.467461888]]]}}, {"type": "Feature", "properties": {"area_ha": 0.0, "mean": null}, "geometry": {"type": "Polygon", "coordinates": [[[120.51513743843822, 31.467009568], [120.515032143442, 31.466919104000002], [120.51513743843822, 31.466919104000002], [120.51513743843822, 31.467009568]]]}}, {"type": "Feature", "properties": {"area_ha": 0.0, "mean": null}, "geometry": {"type": "Polygon", "coordinates": [[[120.52335044814254, 31.467009568], [120.52324515314633, 31.466919104000002], [120.52335044814254, 31.466919104000002], [120.52335044814254, 31.467009568]]]}}, {"type": "Feature", "properties": {"area_ha": 0.01, "mean": 0.3143}, "geometry": {"type": "Polygon", "coordinates": [[[120.5148215534496, 31.46682864], [120.51461096345717, 31.466738176], [120.5148215534496, 31.466738176], [120.5148215534496, 31.46682864]]]}}, {"type": "Feature", "properties": {"area_ha": 0.0, "mean": null}, "geometry": {"type": "Polygon", "coordinates": [[[120.524087513116, 31.46682864], [120.5239822181198, 31.466738176], [120.524087513116, 31.466738176], [120.524087513116, 31.46682864]]]}}, {"type": "Feature", "properties": {"area_ha": 0.0, "mean": null}, "geometry": {"type": "Polygon", "coordinates": [[[120.52545634806673, 31.46682864], [120.52535105307051, 31.466738176], [120.52545634806673, 31.466738176], [120.52545634806673, 31.46682864]]]}}, {"type": "Feature", "properties": {"area_ha": 0.18, "mean": 0.1871}, "geometry": {"type": "Polygon", "coordinates": [[[120.53072109787719, 31.467100032], [120.53072109787719, 31.466738176], [120.53124757285823, 31.466738176], [120.53124757285823, 31.467009568], [120.53072109787719, 31.467100032]], [[120.53103698286581, 31.46682864], [120.53114227786202, 31.466919104000002], [120.53114227786202, 31.46682864], [120.53103698286581, 31.46682864]]]}}, {"type": "Feature", "properties": {"area_ha": 0.04, "mean": 0.137}, "geometry": {"type": "Polygon", "coordinates": [[[120.51355801349507, 31.466738176], [120.5127156535254, 31.466647712], [120.51355801349507, 31.466647712], [120.51355801349507, 31.466738176]]]}}, {"type": "Feature", "properties": {"area_ha": 0.0, "mean": null}, "geometry": {"type": "Polygon", "coordinates": [[[120.51450566846096, 31.466738176], [120.51440037346475, 31.466647712], [120.51450566846096, 31.466647712], [120.51450566846096, 31.466738176]]]}}, {"type": "Feature", "properties": {"area_ha": 0.0, "mean": null}, "geometry": {"type": "Polygon", "coordinates": [[[120.5241928081122, 31.466738176], [120.524087513116, 31.466647712], [120.5241928081122, 31.466647712], [120.5241928081122, 31.466738176]]]}}, {"type": "Feature", "properties": {"area_ha": 0.0, "mean": null}, "geometry": {"type": "Polygon", "coordinates": [[[120.53282699780137, 31.466738176], [120.53272170280516, 31.466647712], [120.53282699780137, 31.466647712], [120.53282699780137, 31.466738176]]]}}, {"type": "Feature", "properties": {"area_ha": 0.0, "mean": null}, "geometry": {"type": "Polygon", "coordinates": [[[120.51250506353298, 31.466557248], [120.51239976853678, 31.466466784], [120.51250506353298, 31.466466784], [120.51250506353298, 31.466557248]]]}}, {"type": "Feature", "properties": {"area_ha": 0.0, "mean": null}, "geometry": {"type": "Polygon", "coordinates": [[[120.52429810310842, 31.466557248], [120.5241928081122, 31.466466784], [120.52429810310842, 31.466466784], [120.52429810310842, 31.466557248]]]}}, {"type": "Feature", "properties": {"area_ha": 0.0, "mean": null}, "geometry": {"type": "Polygon", "coordinates": [[[120.52440339810462, 31.466376320000002], [120.52429810310842, 31.466285856], [120.52440339810462, 31.466285856], [120.52440339810462, 31.466376320000002]]]}}, {"type": "Feature", "properties": {"area_ha": 0.0, "mean": null}, "geometry": {"type": "Polygon", "coordinates": [[[120.53293229279758, 31.466376320000002], [120.53282699780137, 31.466285856], [120.53293229279758, 31.466285856], [120.53293229279758, 31.466376320000002]]]}}, {"type": "Feature", "properties": {"area_ha": 0.0, "mean": null}, "geometry": {"type": "Polygon", "coordinates": [[[120.53303758779379, 31.466195392], [120.53293229279758, 31.466104928], [120.53303758779379, 31.466104928], [120.53303758779379, 31.466195392]]]}}, {"type": "Feature", "properties": {"area_ha": 0.0, "mean": null}, "geometry": {"type": "Polygon", "coordinates": [[[120.53314288279, 31.466014464], [120.53303758779379, 31.465924], [120.53314288279, 31.465924], [120.53314288279, 31.466014464]]]}}, {"type": "Feature", "properties": {"area_ha": 0.0, "mean": null}, "geometry": {"type": "Polygon", "coordinates": [[[120.5332481777862, 31.465924], [120.53314288279, 31.465833536], [120.5332481777862, 31.465833536], [120.5332481777862, 31.465924]]]}}, {"type": "Feature", "properties": {"area_ha": 0.0, "mean": null}, "geometry": {"type": "Polygon", "coordinates": [[[120.52587752805155, 31.46501936], [120.52577223305535, 31.464928896], [120.52587752805155, 31.464928896], [120.52587752805155, 31.46501936]]]}}, {"type": "Feature", "properties": {"area_ha": 0.0, "mean": null}, "geometry": {"type": "Polygon", "coordinates": [[[120.52598282304777, 31.464928896], [120.52587752805155, 31.464838432], [120.52598282304777, 31.464838432], [120.52598282304777, 31.464928896]]]}}, {"type": "Feature", "properties": {"area_ha": 0.01, "mean": 0.1313}, "geometry": {"type": "Polygon", "coordinates": [[[120.51124152357848, 31.46501936], [120.51113622858226, 31.464747968], [120.51124152357848, 31.464747968], [120.51124152357848, 31.46501936]]]}}, {"type": "Feature", "properties": {"area_ha": 0.0, "mean": null}, "geometry": {"type": "Polygon", "coordinates": [[[120.52608811804397, 31.464838432], [120.52598282304777, 31.464747968], [120.52608811804397, 31.464747968], [120.52608811804397, 31.464838432]]]}}, {"type": "Feature", "properties": {"area_ha": 0.01, "mean": 0.1722}, "geometry": {"type": "Polygon", "coordinates": [[[120.51113622858226, 31.464747968], [120.51103093358606, 31.464567040000002], [120.51113622858226, 31.464567040000002], [120.51113622858226, 31.464747968]]]}}, {"type": "Feature", "properties": {"area_ha": 0.02, "mean": 0.131}, "geometry": {"type": "Polygon", "coordinates": [[[120.52577223305535, 31.464928896], [120.52566693805915, 31.464476576], [120.52577223305535, 31.464476576], [120.52577223305535, 31.464928896]]]}}, {"type": "Feature", "properties": {"area_ha": 0.0, "mean": null}, "geometry": {"type": "Polygon", "coordinates": [[[120.51124152357848, 31.464567040000002], [120.51113622858226, 31.464476576], [120.51124152357848, 31.464476576], [120.51124152357848, 31.464567040000002]]]}}, {"type": "Feature", "properties": {"area_ha": 0.0, "mean": null}, "geometry": {"type": "Polygon", "coordinates": [[[120.52587752805155, 31.464476576], [120.52577223305535, 31.464386112], [120.52587752805155, 31.464386112], [120.52587752805155, 31.464476576]]]}}, {"type": "Feature", "properties": {"area_ha": 0.0, "mean": null}, "geometry": {"type": "Polygon", "coordinates": [[[120.52608811804397, 31.464295648], [120.52598282304777, 31.464205184], [120.52608811804397, 31.464205184], [120.52608811804397, 31.464295648]]]}}, {"type": "Feature", "properties": {"area_ha": 0.0, "mean": null}, "geometry": {"type": "Polygon", "coordinates": [[[120.52619341304019, 31.464205184], [120.52608811804397, 31.46411472], [120.52619341304019, 31.46411472], [120.52619341304019, 31.464205184]]]}}, {"type": "Feature", "properties": {"area_ha": 0.06, "mean": 0.1554}, "geometry": {"type": "Polygon", "coordinates": [[[120.51134681857468, 31.464205184], [120.51124152357848, 31.464024256000002], [120.51187329355572, 31.464205184], [120.51134681857468, 31.464205184]]]}}, {"type": "Feature", "properties": {"area_ha": 0.0, "mean": null}, "geometry": {"type": "Polygon", "coordinates": [[[120.5115574085671, 31.464024256000002], [120.5114521135709, 31.463933792000002], [120.5115574085671, 31.463933792000002], [120.5115574085671, 31.464024256000002]]]}}, {"type": "Feature", "properties": {"area_ha": 0.0, "mean": null}, "geometry": {"type": "Polygon", "coordinates": [[[120.5114521135709, 31.463933792000002], [120.51134681857468, 31.463843328], [120.5114521135709, 31.463843328], [120.5114521135709, 31.463933792000002]]]}}, {"type": "Feature", "properties": {"area_ha": 0.0, "mean": null}, "geometry": {"type": "Polygon", "coordinates": [[[120.53472230773313, 31.460315232], [120.53461701273693, 31.460224768], [120.53472230773313, 31.460224768], [120.53472230773313, 31.460315232]]]}}, {"type": "Feature", "properties": {"area_ha": 0.01, "mean": 0.1387}, "geometry": {"type": "Polygon", "coordinates": [[[120.4990273040182, 31.459681984], [120.49881671402578, 31.45959152], [120.4990273040182, 31.45959152], [120.4990273040182, 31.459681984]]]}}, {"type": "Feature", "properties": {"area_ha": 0.01, "mean": 0.1417}, "geometry": {"type": "Polygon", "coordinates": [[[120.50250203889311, 31.459681984], [120.50229144890069, 31.45959152], [120.50250203889311, 31.45959152], [120.50250203889311, 31.459681984]]]}}, {"type": "Feature", "properties": {"area_ha": 0.01, "mean": 0.1616}, "geometry": {"type": "Polygon", "coordinates": [[[120.5081879686884, 31.459681984], [120.50787208369978, 31.45959152], [120.5081879686884, 31.45959152], [120.5081879686884, 31.459681984]]]}}, {"type": "Feature", "properties": {"area_ha": 0.0, "mean": null}, "geometry": {"type": "Polygon", "coordinates": [[[120.5036602838514, 31.45959152], [120.5035549888552, 31.459501056], [120.5036602838514, 31.459501056], [120.5036602838514, 31.45959152]]]}}, {"type": "Feature", "properties": {"area_ha": 0.01, "mean": 0.1938}, "geometry": {"type": "Polygon", "coordinates": [[[120.50650324874906, 31.45959152], [120.50618736376043, 31.459501056], [120.50650324874906, 31.459501056], [120.50650324874906, 31.45959152]]]}}, {"type": "Feature", "properties": {"area_ha": 0.0, "mean": null}, "geometry": {"type": "Polygon", "coordinates": [[[120.50387087384382, 31.459501056], [120.50376557884762, 31.459410592], [120.50387087384382, 31.459410592], [120.50387087384382, 31.459501056]]]}}, {"type": "Feature", "properties": {"area_ha": 0.01, "mean": 0.2316}, "geometry": {"type": "Polygon", "coordinates": [[[120.50429205382866, 31.458596416], [120.50418675883246, 31.458415488], [120.50429205382866, 31.458415488], [120.50429205382866, 31.458596416]]]}}, {"type": "Feature", "properties": {"area_ha": 0.0, "mean": null}, "geometry": {"type": "Polygon", "coordinates": [[[120.49671081410159, 31.458505952], [120.49660551910539, 31.458415488], [120.49671081410159, 31.458415488], [120.49671081410159, 31.458505952]]]}}, {"type": "Feature", "properties": {"area_ha": 0.0, "mean": null}, "geometry": {"type": "Polygon", "coordinates": [[[120.51008327862017, 31.458053632000002], [120.50997798362397, 31.457963168], [120.51008327862017, 31.457963168], [120.51008327862017, 31.458053632000002]]]}}, {"type": "Feature", "properties": {"area_ha": 0.01, "mean": 0.1476}, "geometry": {"type": "Polygon", "coordinates": [[[120.53556466770281, 31.456153888], [120.5354593727066, 31.45597296], [120.53556466770281, 31.45597296], [120.53556466770281, 31.456153888]]]}}, {"type": "Feature", "properties": {"area_ha": 0.06, "mean": 0.1295}, "geometry": {"type": "Polygon", "coordinates": [[[120.49397314420015, 31.455882496], [120.49365725921153, 31.455701568000002], [120.49397314420015, 31.45552064], [120.49397314420015, 31.455882496]]]}}, {"type": "Feature", "properties": {"area_ha": 0.0, "mean": null}, "geometry": {"type": "Polygon", "coordinates": [[[120.49428902918878, 31.45552064], [120.49418373419257, 31.455430176], [120.49428902918878, 31.455430176], [120.49428902918878, 31.45552064]]]}}, {"type": "Feature", "properties": {"area_ha": 0.0, "mean": null}, "geometry": {"type": "Polygon", "coordinates": [[[120.49407843919637, 31.455339712], [120.49397314420015, 31.455249248], [120.49407843919637, 31.455249248], [120.49407843919637, 31.455339712]]]}}, {"type": "Feature", "properties": {"area_ha": 0.0, "mean": null}, "geometry": {"type": "Polygon", "coordinates": [[[120.49376255420773, 31.454796928], [120.49365725921153, 31.454706464], [120.49376255420773, 31.454706464], [120.49376255420773, 31.454796928]]]}}, {"type": "Feature", "properties": {"area_ha": 0.0, "mean": null}, "geometry": {"type": "Polygon", "coordinates": [[[120.49292019423807, 31.453801824], [120.49281489924185, 31.45371136], [120.49292019423807, 31.45371136], [120.49292019423807, 31.453801824]]]}}, {"type": "Feature", "properties": {"area_ha": 0.0, "mean": null}, "geometry": {"type": "Polygon", "coordinates": [[[120.49249901425323, 31.45325904], [120.49239371925702, 31.453168576], [120.49249901425323, 31.453168576], [120.49249901425323, 31.45325904]]]}}, {"type": "Feature", "properties": {"area_ha": 0.0, "mean": null}, "geometry": {"type": "Polygon", "coordinates": [[[120.49239371925702, 31.453168576], [120.4922884242608, 31.453078112], [120.49239371925702, 31.453078112], [120.49239371925702, 31.453168576]]]}}, {"type": "Feature", "properties": {"area_ha": 0.0, "mean": null}, "geometry": {"type": "Polygon", "coordinates": [[[120.53630173267628, 31.452173472000002], [120.53619643768006, 31.452083008], [120.53630173267628, 31.452083008], [120.53630173267628, 31.452173472000002]]]}}, {"type": "Feature", "properties": {"area_ha": 0.0, "mean": null}, "geometry": {"type": "Polygon", "coordinates": [[[120.53640702767248, 31.451630688], [120.53630173267628, 31.451540224000002], [120.53640702767248, 31.451540224000002], [120.53640702767248, 31.451630688]]]}}, {"type": "Feature", "properties": {"area_ha": 0.0, "mean": null}, "geometry": {"type": "Polygon", "coordinates": [[[120.53767056762699, 31.447650272], [120.53756527263079, 31.447559808], [120.53767056762699, 31.447559808], [120.53767056762699, 31.447650272]]]}}, {"type": "Feature", "properties": {"area_ha": 0.01, "mean": 0.1956}, "geometry": {"type": "Polygon", "coordinates": [[[120.53724938764216, 31.447378880000002], [120.53714409264595, 31.447197952], [120.53724938764216, 31.447197952], [120.53724938764216, 31.447378880000002]]]}}, {"type": "Feature", "properties": {"area_ha": 0.0, "mean": null}, "geometry": {"type": "Polygon", "coordinates": [[[120.53767056762699, 31.447017024], [120.53756527263079, 31.44692656], [120.53767056762699, 31.44692656], [120.53767056762699, 31.447017024]]]}}, {"type": "Feature", "properties": {"area_ha": 0.01, "mean": 0.1352}, "geometry": {"type": "Polygon", "coordinates": [[[120.53735468263837, 31.44692656], [120.53724938764216, 31.446745632], [120.53735468263837, 31.446745632], [120.53735468263837, 31.44692656]]]}}, {"type": "Feature", "properties": {"area_ha": 0.0, "mean": null}, "geometry": {"type": "Polygon", "coordinates": [[[120.53946058256255, 31.446564704], [120.53935528756634, 31.44647424], [120.53946058256255, 31.44647424], [120.53946058256255, 31.446564704]]]}}, {"type": "Feature", "properties": {"area_ha": 0.0, "mean": null}, "geometry": {"type": "Polygon", "coordinates": [[[120.53745997763457, 31.44647424], [120.53735468263837, 31.446383776], [120.53745997763457, 31.446383776], [120.53745997763457, 31.44647424]]]}}, {"type": "Feature", "properties": {"area_ha": 0.0, "mean": null}, "geometry": {"type": "Polygon", "coordinates": [[[120.53977646755118, 31.446293312], [120.53967117255497, 31.446202848000002], [120.53977646755118, 31.446202848000002], [120.53977646755118, 31.446293312]]]}}, {"type": "Feature", "properties": {"area_ha": 0.0, "mean": null}, "geometry": {"type": "Polygon", "coordinates": [[[120.5377758626232, 31.446202848000002], [120.53767056762699, 31.446112384], [120.5377758626232, 31.446112384], [120.5377758626232, 31.446202848000002]]]}}, {"type": "Feature", "properties": {"area_ha": 0.0, "mean": null}, "geometry": {"type": "Polygon", "coordinates": [[[120.53903940257771, 31.44602192], [120.53893410758151, 31.445931456], [120.53903940257771, 31.445931456], [120.53903940257771, 31.44602192]]]}}, {"type": "Feature", "properties": {"area_ha": 0.01, "mean": 0.2102}, "geometry": {"type": "Polygon", "coordinates": [[[120.53924999257013, 31.445931456], [120.53903940257771, 31.445840992], [120.53924999257013, 31.445840992], [120.53924999257013, 31.445931456]]]}}, {"type": "Feature", "properties": {"area_ha": 0.0, "mean": null}, "geometry": {"type": "Polygon", "coordinates": [[[120.53756527263079, 31.445840992], [120.53745997763457, 31.445750528], [120.53756527263079, 31.445750528], [120.53756527263079, 31.445840992]]]}}, {"type": "Feature", "properties": {"area_ha": 0.0, "mean": null}, "geometry": {"type": "Polygon", "coordinates": [[[120.53935528756634, 31.445750528], [120.53924999257013, 31.445660064000002], [120.53935528756634, 31.445660064000002], [120.53935528756634, 31.445750528]]]}}, {"type": "Feature", "properties": {"area_ha": 0.01, "mean": 0.1484}, "geometry": {"type": "Polygon", "coordinates": [[[120.5388288125853, 31.445750528], [120.53872351758909, 31.4455696], [120.5388288125853, 31.4455696], [120.5388288125853, 31.445750528]]]}}, {"type": "Feature", "properties": {"area_ha": 0.0, "mean": null}, "geometry": {"type": "Polygon", "coordinates": [[[120.53924999257013, 31.445660064000002], [120.53914469757392, 31.4455696], [120.53924999257013, 31.4455696], [120.53924999257013, 31.445660064000002]]]}}, {"type": "Feature", "properties": {"area_ha": 0.01, "mean": 0.1222}, "geometry": {"type": "Polygon", "coordinates": [[[120.53872351758909, 31.4455696], [120.53861822259287, 31.445388672], [120.53872351758909, 31.445388672], [120.53872351758909, 31.4455696]]]}}, {"type": "Feature", "properties": {"area_ha": 0.0, "mean": null}, "geometry": {"type": "Polygon", "coordinates": [[[120.5388288125853, 31.445388672], [120.53872351758909, 31.445298208], [120.5388288125853, 31.445298208], [120.5388288125853, 31.445388672]]]}}, {"type": "Feature", "properties": {"area_ha": 0.0, "mean": null}, "geometry": {"type": "Polygon", "coordinates": [[[120.53798645261563, 31.445026816000002], [120.53788115761941, 31.444936352], [120.53798645261563, 31.444936352], [120.53798645261563, 31.445026816000002]]]}}, {"type": "Feature", "properties": {"area_ha": 0.01, "mean": 0.1885}, "geometry": {"type": "Polygon", "coordinates": [[[120.5377758626232, 31.444936352], [120.53767056762699, 31.444755424], [120.5377758626232, 31.444755424], [120.5377758626232, 31.444936352]]]}}, {"type": "Feature", "properties": {"area_ha": 0.01, "mean": 0.1335}, "geometry": {"type": "Polygon", "coordinates": [[[120.53788115761941, 31.44421264], [120.5377758626232, 31.443941248], [120.53788115761941, 31.443941248], [120.53788115761941, 31.44421264]]]}}, {"type": "Feature", "properties": {"area_ha": 0.0, "mean": null}, "geometry": {"type": "Polygon", "coordinates": [[[120.53798645261563, 31.44376032], [120.53788115761941, 31.443669856], [120.53798645261563, 31.443669856], [120.53798645261563, 31.44376032]]]}}, {"type": "Feature", "properties": {"area_ha": 0.0, "mean": null}, "geometry": {"type": "Polygon", "coordinates": [[[120.53798645261563, 31.443579392], [120.53788115761941, 31.443488928], [120.53798645261563, 31.443488928], [120.53798645261563, 31.443579392]]]}}, {"type": "Feature", "properties": {"area_ha": 0.0, "mean": null}, "geometry": {"type": "Polygon", "coordinates": [[[120.53809174761183, 31.443036608], [120.53798645261563, 31.442946144], [120.53809174761183, 31.442946144], [120.53809174761183, 31.443036608]]]}}, {"type": "Feature", "properties": {"area_ha": 0.01, "mean": 0.1552}, "geometry": {"type": "Polygon", "coordinates": [[[120.53851292759667, 31.4410464], [120.53840763260045, 31.440865472], [120.53851292759667, 31.440865472], [120.53851292759667, 31.4410464]]]}}, {"type": "Feature", "properties": {"area_ha": 0.0, "mean": null}, "geometry": {"type": "Polygon", "coordinates": [[[120.56283607172101, 31.439689440000002], [120.56273077672479, 31.439598976], [120.56283607172101, 31.439598976], [120.56283607172101, 31.439689440000002]]]}}, {"type": "Feature", "properties": {"area_ha": 0.0, "mean": null}, "geometry": {"type": "Polygon", "coordinates": [[[120.57905150113723, 31.4387848], [120.57894620614103, 31.438694336], [120.57905150113723, 31.438694336], [120.57905150113723, 31.4387848]]]}}, {"type": "Feature", "properties": {"area_ha": 0.0, "mean": null}, "geometry": {"type": "Polygon", "coordinates": [[[120.5797885661107, 31.438694336], [120.57968327111449, 31.438603872], [120.5797885661107, 31.438603872], [120.5797885661107, 31.438694336]]]}}, {"type": "Feature", "properties": {"area_ha": 0.09, "mean": 0.1474}, "geometry": {"type": "Polygon", "coordinates": [[[120.57968327111449, 31.4387848], [120.57905150113723, 31.4387848], [120.57957797611827, 31.438513408000002], [120.57968327111449, 31.4387848]]]}}, {"type": "Feature", "properties": {"area_ha": 0.01, "mean": 0.1604}, "geometry": {"type": "Polygon", "coordinates": [[[120.5797885661107, 31.438513408000002], [120.57957797611827, 31.438422944], [120.5797885661107, 31.438422944], [120.5797885661107, 31.438513408000002]]]}}, {"type": "Feature", "properties": {"area_ha": 0.0, "mean": null}, "geometry": {"type": "Polygon", "coordinates": [[[120.58273682600455, 31.437699232], [120.58263153100835, 31.437608768], [120.58273682600455, 31.437608768], [120.58273682600455, 31.437699232]]]}}, {"type": "Feature", "properties": {"area_ha": 0.02, "mean": 0.1522}, "geometry": {"type": "Polygon", "coordinates": [[[120.58263153100835, 31.437608768], [120.5822103510235, 31.437337376000002], [120.58263153100835, 31.437518304], [120.58263153100835, 31.437608768]]]}}, {"type": "Feature", "properties": {"area_ha": 0.0, "mean": null}, "geometry": {"type": "Polygon", "coordinates": [[[120.58284212100077, 31.437246912], [120.58273682600455, 31.437156448], [120.58284212100077, 31.437156448], [120.58284212100077, 31.437246912]]]}}, {"type": "Feature", "properties": {"area_ha": 0.01, "mean": 0.2331}, "geometry": {"type": "Polygon", "coordinates": [[[120.58242094101593, 31.437337376000002], [120.58231564601972, 31.437065984], [120.58242094101593, 31.437065984], [120.58242094101593, 31.437337376000002]]]}}, {"type": "Feature", "properties": {"area_ha": 0.01, "mean": 0.1775}, "geometry": {"type": "Polygon", "coordinates": [[[120.58315800598939, 31.437156448], [120.58294741599697, 31.437065984], [120.58315800598939, 31.437065984], [120.58315800598939, 31.437156448]]]}}, {"type": "Feature", "properties": {"area_ha": 0.02, "mean": 0.2474}, "geometry": {"type": "Polygon", "coordinates": [[[120.58294741599697, 31.437065984], [120.58252623601213, 31.436885056], [120.58294741599697, 31.43697552], [120.58294741599697, 31.437065984]]]}}, {"type": "Feature", "properties": {"area_ha": 0.0, "mean": null}, "geometry": {"type": "Polygon", "coordinates": [[[120.51661156838514, 31.435528096], [120.51650627338894, 31.435437632], [120.51661156838514, 31.435437632], [120.51661156838514, 31.435528096]]]}}, {"type": "Feature", "properties": {"area_ha": 0.0, "mean": null}, "geometry": {"type": "Polygon", "coordinates": [[[120.59958402539803, 31.434804384], [120.59947873040183, 31.43471392], [120.59958402539803, 31.43471392], [120.59958402539803, 31.434804384]]]}}, {"type": "Feature", "properties": {"area_ha": 0.0, "mean": null}, "geometry": {"type": "Polygon", "coordinates": [[[120.60000520538287, 31.434804384], [120.59989991038665, 31.43471392], [120.60000520538287, 31.43471392], [120.60000520538287, 31.434804384]]]}}, {"type": "Feature", "properties": {"area_ha": 0.0, "mean": null}, "geometry": {"type": "Polygon", "coordinates": [[[120.51692745337377, 31.433537888], [120.51682215837756, 31.433447424], [120.51692745337377, 31.433447424], [120.51692745337377, 31.433537888]]]}}, {"type": "Feature", "properties": {"area_ha": 0.04, "mean": 0.147}, "geometry": {"type": "Polygon", "coordinates": [[[120.51713804336619, 31.433447424], [120.51703274836999, 31.433176032], [120.51734863335861, 31.433176032], [120.51713804336619, 31.433447424]]]}}, {"type": "Feature", "properties": {"area_ha": 0.01, "mean": 0.1529}, "geometry": {"type": "Polygon", "coordinates": [[[120.5399870575436, 31.432633248000002], [120.5398817625474, 31.43245232], [120.5399870575436, 31.43245232], [120.5399870575436, 31.432633248000002]]]}}, {"type": "Feature", "properties": {"area_ha": 0.02, "mean": 0.1237}, "geometry": {"type": "Polygon", "coordinates": [[[120.51861217331312, 31.43245232], [120.51808569833207, 31.432361856], [120.51861217331312, 31.432361856], [120.51861217331312, 31.43245232]]]}}, {"type": "Feature", "properties": {"area_ha": 0.08, "mean": 0.1457}, "geometry": {"type": "Polygon", "coordinates": [[[120.59937343540561, 31.432995104], [120.59905755041699, 31.432271392], [120.59926814040941, 31.432271392], [120.59937343540561, 31.432995104]]]}}, {"type": "Feature", "properties": {"area_ha": 0.0, "mean": null}, "geometry": {"type": "Polygon", "coordinates": [[[120.51808569833207, 31.432361856], [120.51798040333587, 31.432271392], [120.51808569833207, 31.432271392], [120.51808569833207, 31.432361856]]]}}, {"type": "Feature", "properties": {"area_ha": 0.01, "mean": 0.1641}, "geometry": {"type": "Polygon", "coordinates": [[[120.51913864829417, 31.432180928], [120.51892805830175, 31.432090464], [120.51913864829417, 31.432090464], [120.51913864829417, 31.432180928]]]}}, {"type": "Feature", "properties": {"area_ha": 0.01, "mean": 0.1967}, "geometry": {"type": "Polygon", "coordinates": [[[120.5194545332828, 31.432090464], [120.51924394329038, 31.432000000000002], [120.5194545332828, 31.432000000000002], [120.5194545332828, 31.432090464]]]}}, {"type": "Feature", "properties": {"area_ha": 0.0, "mean": null}, "geometry": {"type": "Polygon", "coordinates": [[[120.54072412251706, 31.432090464], [120.54061882752086, 31.432000000000002], [120.54072412251706, 31.432000000000002], [120.54072412251706, 31.432090464]]]}}, {"type": "Feature", "properties": {"area_ha": 0.0, "mean": null}, "geometry": {"type": "Polygon", "coordinates": [[[120.519559828279, 31.432000000000002], [120.5194545332828, 31.431909536], [120.519559828279, 31.431909536], [120.519559828279, 31.432000000000002]]]}}, {"type": "Feature", "properties": {"area_ha": 0.0, "mean": null}, "geometry": {"type": "Polygon", "coordinates": [[[120.59895225542078, 31.432000000000002], [120.59884696042457, 31.431909536], [120.59895225542078, 31.431909536], [120.59895225542078, 31.432000000000002]]]}}, {"type": "Feature", "properties": {"area_ha": 0.02, "mean": 0.1527}, "geometry": {"type": "Polygon", "coordinates": [[[120.51987571326764, 31.431909536], [120.51977041827142, 31.431728608], [120.51998100826384, 31.431728608], [120.51987571326764, 31.431909536]]]}}, {"type": "Feature", "properties": {"area_ha": 0.0, "mean": null}, "geometry": {"type": "Polygon", "coordinates": [[[120.54019764753602, 31.431819072], [120.5400923525398, 31.431728608], [120.54019764753602, 31.431728608], [120.54019764753602, 31.431819072]]]}}, {"type": "Feature", "properties": {"area_ha": 0.02, "mean": 0.1565}, "geometry": {"type": "Polygon", "coordinates": [[[120.59916284541319, 31.431728608], [120.59905755041699, 31.431819072], [120.59895225542078, 31.431638144], [120.59916284541319, 31.431728608]]]}}, {"type": "Feature", "properties": {"area_ha": 0.0, "mean": null}, "geometry": {"type": "Polygon", "coordinates": [[[120.59905755041699, 31.43154768], [120.59895225542078, 31.431457216000002], [120.59905755041699, 31.431457216000002], [120.59905755041699, 31.43154768]]]}}, {"type": "Feature", "properties": {"area_ha": 0.01, "mean": 0.1283}, "geometry": {"type": "Polygon", "coordinates": [[[120.51787510833965, 31.431366752], [120.51776981334345, 31.431457216000002], [120.51766451834723, 31.431366752], [120.51787510833965, 31.431366752]]]}}, {"type": "Feature", "properties": {"area_ha": 0.02, "mean": 0.149}, "geometry": {"type": "Polygon", "coordinates": [[[120.52008630326004, 31.431638144], [120.51998100826384, 31.431276288], [120.52008630326004, 31.431276288], [120.52008630326004, 31.431638144]]]}}, {"type": "Feature", "properties": {"area_ha": 0.0, "mean": null}, "geometry": {"type": "Polygon", "coordinates": [[[120.5194545332828, 31.431366752], [120.51934923828658, 31.431276288], [120.5194545332828, 31.431276288], [120.5194545332828, 31.431366752]]]}}, {"type": "Feature", "properties": {"area_ha": 0.46, "mean": 0.2143}, "geometry": {"type": "Polygon", "coordinates": [[[120.51892805830175, 31.431909536], [120.51776981334345, 31.431728608], [120.51924394329038, 31.431185824], [120.51892805830175, 31.431909536]]]}}, {"type": "Feature", "properties": {"area_ha": 0.04, "mean": 0.1282}, "geometry": {"type": "Polygon", "coordinates": [[[120.59874166542836, 31.431185824], [120.59842578043973, 31.431276288], [120.59842578043973, 31.43109536], [120.59874166542836, 31.431185824]]]}}, {"type": "Feature", "properties": {"area_ha": 0.0, "mean": null}, "geometry": {"type": "Polygon", "coordinates": [[[120.51787510833965, 31.431185824], [120.51776981334345, 31.43109536], [120.51787510833965, 31.43109536], [120.51787510833965, 31.431185824]]]}}, {"type": "Feature", "properties": {"area_ha": 0.06, "mean": 0.1859}, "geometry": {"type": "Polygon", "coordinates": [[[120.59947873040183, 31.431457216000002], [120.59916284541319, 31.431004896], [120.59937343540561, 31.430914432], [120.59947873040183, 31.431457216000002]]]}}, {"type": "Feature", "properties": {"area_ha": 0.01, "mean": 0.2603}, "geometry": {"type": "Polygon", "coordinates": [[[120.51798040333587, 31.43109536], [120.51787510833965, 31.430914432], [120.51798040333587, 31.430914432], [120.51798040333587, 31.43109536]]]}}, {"type": "Feature", "properties": {"area_ha": 0.02, "mean": 0.1575}, "geometry": {"type": "Polygon", "coordinates": [[[120.59884696042457, 31.431004896], [120.59842578043973, 31.430914432], [120.59884696042457, 31.430914432], [120.59884696042457, 31.431004896]]]}}, {"type": "Feature", "properties": {"area_ha": 0.01, "mean": 0.1359}, "geometry": {"type": "Polygon", "coordinates": [[[120.52008630326004, 31.430823968000002], [120.51998100826384, 31.43064304], [120.52008630326004, 31.43064304], [120.52008630326004, 31.430823968000002]]]}}, {"type": "Feature", "properties": {"area_ha": 0.01, "mean": 0.1842}, "geometry": {"type": "Polygon", "coordinates": [[[120.51808569833207, 31.430823968000002], [120.51798040333587, 31.430552576], [120.51808569833207, 31.430552576], [120.51808569833207, 31.430823968000002]]]}}, {"type": "Feature", "properties": {"area_ha": 0.01, "mean": 0.2793}, "geometry": {"type": "Polygon", "coordinates": [[[120.51819099332829, 31.430552576], [120.51808569833207, 31.430371648], [120.51819099332829, 31.430371648], [120.51819099332829, 31.430552576]]]}}, {"type": "Feature", "properties": {"area_ha": 0.0, "mean": null}, "geometry": {"type": "Polygon", "coordinates": [[[120.56873259150872, 31.430281184000002], [120.56862729651252, 31.43019072], [120.56873259150872, 31.43019072], [120.56873259150872, 31.430281184000002]]]}}, {"type": "Feature", "properties": {"area_ha": 0.0, "mean": null}, "geometry": {"type": "Polygon", "coordinates": [[[120.54598887232753, 31.43019072], [120.54588357733131, 31.430100256], [120.54598887232753, 31.430100256], [120.54598887232753, 31.43019072]]]}}, {"type": "Feature", "properties": {"area_ha": 0.01, "mean": 0.1898}, "geometry": {"type": "Polygon", "coordinates": [[[120.51829628832449, 31.43019072], [120.51819099332829, 31.430009792], [120.51829628832449, 31.430009792], [120.51829628832449, 31.43019072]]]}}, {"type": "Feature", "properties": {"area_ha": 0.0, "mean": null}, "geometry": {"type": "Polygon", "coordinates": [[[120.5184015833207, 31.430009792], [120.51829628832449, 31.429919328], [120.5184015833207, 31.429919328], [120.5184015833207, 31.430009792]]]}}, {"type": "Feature", "properties": {"area_ha": 0.02, "mean": 0.1551}, "geometry": {"type": "Polygon", "coordinates": [[[120.52019159825626, 31.43019072], [120.52008630326004, 31.429828864], [120.52019159825626, 31.429828864], [120.52019159825626, 31.43019072]]]}}, {"type": "Feature", "properties": {"area_ha": 0.0, "mean": null}, "geometry": {"type": "Polygon", "coordinates": [[[120.56883788650494, 31.429919328], [120.56873259150872, 31.429828864], [120.56883788650494, 31.429828864], [120.56883788650494, 31.429919328]]]}}, {"type": "Feature", "properties": {"area_ha": 0.01, "mean": 0.1664}, "geometry": {"type": "Polygon", "coordinates": [[[120.51850687831691, 31.429828864], [120.5184015833207, 31.429647936000002], [120.51850687831691, 31.429647936000002], [120.51850687831691, 31.429828864]]]}}, {"type": "Feature", "properties": {"area_ha": 0.0, "mean": null}, "geometry": {"type": "Polygon", "coordinates": [[[120.56915377149356, 31.4297384], [120.56904847649736, 31.429647936000002], [120.56915377149356, 31.429647936000002], [120.56915377149356, 31.4297384]]]}}, {"type": "Feature", "properties": {"area_ha": 0.0, "mean": null}, "geometry": {"type": "Polygon", "coordinates": [[[120.56925906648976, 31.429647936000002], [120.56915377149356, 31.429557472], [120.56925906648976, 31.429557472], [120.56925906648976, 31.429647936000002]]]}}, {"type": "Feature", "properties": {"area_ha": 0.0, "mean": null}, "geometry": {"type": "Polygon", "coordinates": [[[120.56989083646702, 31.429647936000002], [120.56978554147082, 31.429557472], [120.56989083646702, 31.429557472], [120.56989083646702, 31.429647936000002]]]}}, {"type": "Feature", "properties": {"area_ha": 0.0, "mean": null}, "geometry": {"type": "Polygon", "coordinates": [[[120.51861217331312, 31.429557472], [120.51850687831691, 31.429467008], [120.51861217331312, 31.429467008], [120.51861217331312, 31.429557472]]]}}, {"type": "Feature", "properties": {"area_ha": 0.0, "mean": null}, "geometry": {"type": "Polygon", "coordinates": [[[120.56946965648218, 31.429557472], [120.56936436148598, 31.429467008], [120.56946965648218, 31.429467008], [120.56946965648218, 31.429557472]]]}}, {"type": "Feature", "properties": {"area_ha": 0.03, "mean": 0.1937}, "geometry": {"type": "Polygon", "coordinates": [[[120.5787356161486, 31.429467008], [120.57841973115997, 31.42928608], [120.5787356161486, 31.42928608], [120.5787356161486, 31.429467008]]]}}, {"type": "Feature", "properties": {"area_ha": 0.0, "mean": null}, "geometry": {"type": "Polygon", "coordinates": [[[120.5696802464746, 31.429376544], [120.5695749514784, 31.42928608], [120.5696802464746, 31.42928608], [120.5696802464746, 31.429376544]]]}}, {"type": "Feature", "properties": {"area_ha": 0.0, "mean": null}, "geometry": {"type": "Polygon", "coordinates": [[[120.57157555640637, 31.429105152], [120.57147026141017, 31.429014688], [120.57157555640637, 31.429014688], [120.57157555640637, 31.429105152]]]}}, {"type": "Feature", "properties": {"area_ha": 0.01, "mean": 0.1226}, "geometry": {"type": "Polygon", "coordinates": [[[120.57147026141017, 31.429014688], [120.57125967141775, 31.428924224], [120.57147026141017, 31.428924224], [120.57147026141017, 31.429014688]]]}}, {"type": "Feature", "properties": {"area_ha": 0.14, "mean": 0.2041}, "geometry": {"type": "Polygon", "coordinates": [[[120.54862124723276, 31.42928608], [120.5478841822593, 31.429195616], [120.54830536224412, 31.42883376], [120.54862124723276, 31.42928608]]]}}, {"type": "Feature", "properties": {"area_ha": 0.08, "mean": 0.1902}, "geometry": {"type": "Polygon", "coordinates": [[[120.57199673639121, 31.429195616], [120.57168085140258, 31.429105152], [120.57199673639121, 31.428652832], [120.57199673639121, 31.429195616]]]}}, {"type": "Feature", "properties": {"area_ha": 0.39, "mean": 0.1657}, "geometry": {"type": "Polygon", "coordinates": [[[120.51998100826384, 31.4297384], [120.51892805830175, 31.428562368], [120.519559828279, 31.428562368], [120.51998100826384, 31.4297384]]]}}, {"type": "Feature", "properties": {"area_ha": 0.0, "mean": null}, "geometry": {"type": "Polygon", "coordinates": [[[120.57083849143291, 31.428652832], [120.57073319643669, 31.428562368], [120.57083849143291, 31.428562368], [120.57083849143291, 31.428652832]]]}}, {"type": "Feature", "properties": {"area_ha": 0.0, "mean": null}, "geometry": {"type": "Polygon", "coordinates": [[[120.57210203138742, 31.428652832], [120.57199673639121, 31.428562368], [120.57210203138742, 31.428562368], [120.57210203138742, 31.428652832]]]}}, {"type": "Feature", "properties": {"area_ha": 0.0, "mean": null}, "geometry": {"type": "Polygon", "coordinates": [[[120.54093471250948, 31.428562368], [120.54082941751327, 31.428471904000002], [120.54093471250948, 31.428471904000002], [120.54093471250948, 31.428562368]]]}}, {"type": "Feature", "properties": {"area_ha": 0.0, "mean": null}, "geometry": {"type": "Polygon", "coordinates": [[[120.57220732638363, 31.428562368], [120.57210203138742, 31.428471904000002], [120.57220732638363, 31.428471904000002], [120.57220732638363, 31.428562368]]]}}, {"type": "Feature", "properties": {"area_ha": 0.21, "mean": 0.2917}, "geometry": {"type": "Polygon", "coordinates": [[[120.5206127782411, 31.429014688], [120.51998100826384, 31.42883376], [120.5207180732373, 31.42838144], [120.5206127782411, 31.429014688]]]}}, {"type": "Feature", "properties": {"area_ha": 0.0, "mean": null}, "geometry": {"type": "Polygon", "coordinates": [[[120.51913864829417, 31.42838144], [120.51903335329796, 31.428290976], [120.51913864829417, 31.428290976], [120.51913864829417, 31.42838144]]]}}, {"type": "Feature", "properties": {"area_ha": 0.01, "mean": 0.1239}, "geometry": {"type": "Polygon", "coordinates": [[[120.57231262137984, 31.42838144], [120.57220732638363, 31.428200512], [120.57231262137984, 31.428200512], [120.57231262137984, 31.42838144]]]}}, {"type": "Feature", "properties": {"area_ha": 0.01, "mean": 0.2174}, "geometry": {"type": "Polygon", "coordinates": [[[120.51924394329038, 31.428200512], [120.51913864829417, 31.428019584], [120.51924394329038, 31.428019584], [120.51924394329038, 31.428200512]]]}}, {"type": "Feature", "properties": {"area_ha": 0.01, "mean": 0.1929}, "geometry": {"type": "Polygon", "coordinates": [[[120.5206127782411, 31.428200512], [120.52050748324488, 31.428019584], [120.5206127782411, 31.428019584], [120.5206127782411, 31.428200512]]]}}, {"type": "Feature", "properties": {"area_ha": 0.02, "mean": 0.1809}, "geometry": {"type": "Polygon", "coordinates": [[[120.57799855117514, 31.428290976], [120.57778796118272, 31.428110048], [120.57799855117514, 31.428019584], [120.57799855117514, 31.428290976]]]}}, {"type": "Feature", "properties": {"area_ha": 0.0, "mean": null}, "geometry": {"type": "Polygon", "coordinates": [[[120.57252321137226, 31.428110048], [120.57241791637604, 31.428019584], [120.57252321137226, 31.428019584], [120.57252321137226, 31.428110048]]]}}, {"type": "Feature", "properties": {"area_ha": 0.02, "mean": 0.4115}, "geometry": {"type": "Polygon", "coordinates": [[[120.49334137422291, 31.428110048], [120.49302548923427, 31.428019584], [120.49323607922669, 31.42792912], [120.49334137422291, 31.428110048]]]}}, {"type": "Feature", "properties": {"area_ha": 0.0, "mean": null}, "geometry": {"type": "Polygon", "coordinates": [[[120.57262850636846, 31.428019584], [120.57252321137226, 31.42792912], [120.57262850636846, 31.42792912], [120.57262850636846, 31.428019584]]]}}, {"type": "Feature", "properties": {"area_ha": 0.02, "mean": 0.1838}, "geometry": {"type": "Polygon", "coordinates": [[[120.54051353252464, 31.428200512], [120.54040823752844, 31.427838656], [120.54051353252464, 31.427838656], [120.54051353252464, 31.428200512]]]}}, {"type": "Feature", "properties": {"area_ha": 0.0, "mean": null}, "geometry": {"type": "Polygon", "coordinates": [[[120.51934923828658, 31.42792912], [120.51924394329038, 31.427838656], [120.51934923828658, 31.427838656], [120.51934923828658, 31.42792912]]]}}, {"type": "Feature", "properties": {"area_ha": 0.0, "mean": null}, "geometry": {"type": "Polygon", "coordinates": [[[120.57283909636088, 31.42792912], [120.57273380136468, 31.427838656], [120.57283909636088, 31.427838656], [120.57283909636088, 31.42792912]]]}}, {"type": "Feature", "properties": {"area_ha": 0.0, "mean": null}, "geometry": {"type": "Polygon", "coordinates": [[[120.57789325617892, 31.42792912], [120.57778796118272, 31.427838656], [120.57789325617892, 31.427838656], [120.57789325617892, 31.42792912]]]}}, {"type": "Feature", "properties": {"area_ha": 0.0, "mean": null}, "geometry": {"type": "Polygon", "coordinates": [[[120.5730496863533, 31.427838656], [120.5729443913571, 31.427748192], [120.5730496863533, 31.427748192], [120.5730496863533, 31.427838656]]]}}, {"type": "Feature", "properties": {"area_ha": 0.01, "mean": 0.1694}, "geometry": {"type": "Polygon", "coordinates": [[[120.52092866322972, 31.427748192], [120.5207180732373, 31.427657728], [120.52092866322972, 31.427657728], [120.52092866322972, 31.427748192]]]}}, {"type": "Feature", "properties": {"area_ha": 0.01, "mean": 0.1454}, "geometry": {"type": "Polygon", "coordinates": [[[120.51766451834723, 31.427838656], [120.51755922335103, 31.427567264], [120.51766451834723, 31.427567264], [120.51766451834723, 31.427838656]]]}}, {"type": "Feature", "properties": {"area_ha": 0.02, "mean": 0.1242}, "geometry": {"type": "Polygon", "coordinates": [[[120.57347086633814, 31.427657728], [120.5730496863533, 31.427657728], [120.57347086633814, 31.427567264], [120.57347086633814, 31.427657728]]]}}, {"type": "Feature", "properties": {"area_ha": 0.01, "mean": 0.1475}, "geometry": {"type": "Polygon", "coordinates": [[[120.5776826661865, 31.427748192], [120.5775773711903, 31.427567264], [120.5776826661865, 31.427567264], [120.5776826661865, 31.427748192]]]}}, {"type": "Feature", "properties": {"area_ha": 0.0, "mean": null}, "geometry": {"type": "Polygon", "coordinates": [[[120.519559828279, 31.427567264], [120.5194545332828, 31.4274768], [120.519559828279, 31.4274768], [120.519559828279, 31.427567264]]]}}, {"type": "Feature", "properties": {"area_ha": 0.0, "mean": null}, "geometry": {"type": "Polygon", "coordinates": [[[120.52313985815012, 31.427567264], [120.52303456315391, 31.4274768], [120.52313985815012, 31.4274768], [120.52313985815012, 31.427567264]]]}}, {"type": "Feature", "properties": {"area_ha": 0.0, "mean": null}, "geometry": {"type": "Polygon", "coordinates": [[[120.52345574313874, 31.427567264], [120.52335044814254, 31.4274768], [120.52345574313874, 31.4274768], [120.52345574313874, 31.427567264]]]}}, {"type": "Feature", "properties": {"area_ha": 0.0, "mean": null}, "geometry": {"type": "Polygon", "coordinates": [[[120.57273380136468, 31.427567264], [120.57262850636846, 31.4274768], [120.57273380136468, 31.4274768], [120.57273380136468, 31.427567264]]]}}, {"type": "Feature", "properties": {"area_ha": 0.02, "mean": 0.1753}, "geometry": {"type": "Polygon", "coordinates": [[[120.57378675132676, 31.427567264], [120.57368145633056, 31.427386336], [120.57389204632298, 31.427386336], [120.57378675132676, 31.427567264]]]}}, {"type": "Feature", "properties": {"area_ha": 0.0, "mean": null}, "geometry": {"type": "Polygon", "coordinates": [[[120.52303456315391, 31.4274768], [120.5229292681577, 31.427386336], [120.52303456315391, 31.427386336], [120.52303456315391, 31.4274768]]]}}, {"type": "Feature", "properties": {"area_ha": 0.0, "mean": null}, "geometry": {"type": "Polygon", "coordinates": [[[120.52356103813496, 31.4274768], [120.52345574313874, 31.427386336], [120.52356103813496, 31.427386336], [120.52356103813496, 31.4274768]]]}}, {"type": "Feature", "properties": {"area_ha": 0.0, "mean": null}, "geometry": {"type": "Polygon", "coordinates": [[[120.52313985815012, 31.427386336], [120.52303456315391, 31.427295872000002], [120.52313985815012, 31.427295872000002], [120.52313985815012, 31.427386336]]]}}, {"type": "Feature", "properties": {"area_ha": 0.0, "mean": null}, "geometry": {"type": "Polygon", "coordinates": [[[120.52366633313116, 31.427386336], [120.52356103813496, 31.427295872000002], [120.52366633313116, 31.427295872000002], [120.52366633313116, 31.427386336]]]}}, {"type": "Feature", "properties": {"area_ha": 0.0, "mean": null}, "geometry": {"type": "Polygon", "coordinates": [[[120.54061882752086, 31.427386336], [120.54051353252464, 31.427295872000002], [120.54061882752086, 31.427295872000002], [120.54061882752086, 31.427386336]]]}}, {"type": "Feature", "properties": {"area_ha": 0.0, "mean": null}, "geometry": {"type": "Polygon", "coordinates": [[[120.57399734131918, 31.427386336], [120.57389204632298, 31.427295872000002], [120.57399734131918, 31.427295872000002], [120.57399734131918, 31.427386336]]]}}, {"type": "Feature", "properties": {"area_ha": 0.04, "mean": 0.1539}, "geometry": {"type": "Polygon", "coordinates": [[[120.57684030621684, 31.427295872000002], [120.57589265125095, 31.427205408], [120.57684030621684, 31.427205408], [120.57684030621684, 31.427295872000002]]]}}, {"type": "Feature", "properties": {"area_ha": 0.0, "mean": null}, "geometry": {"type": "Polygon", "coordinates": [[[120.57705089620926, 31.427295872000002], [120.57694560121304, 31.427205408], [120.57705089620926, 31.427205408], [120.57705089620926, 31.427295872000002]]]}}, {"type": "Feature", "properties": {"area_ha": 0.02, "mean": 0.1596}, "geometry": {"type": "Polygon", "coordinates": [[[120.51977041827142, 31.427295872000002], [120.519559828279, 31.427205408], [120.51977041827142, 31.427114944], [120.51977041827142, 31.427295872000002]]]}}, {"type": "Feature", "properties": {"area_ha": 0.01, "mean": 0.1211}, "geometry": {"type": "Polygon", "coordinates": [[[120.57410263631539, 31.427295872000002], [120.57399734131918, 31.427114944], [120.57410263631539, 31.427114944], [120.57410263631539, 31.427295872000002]]]}}, {"type": "Feature", "properties": {"area_ha": 0.0, "mean": null}, "geometry": {"type": "Polygon", "coordinates": [[[120.51766451834723, 31.427205408], [120.51755922335103, 31.427114944], [120.51766451834723, 31.427114944], [120.51766451834723, 31.427205408]]]}}, {"type": "Feature", "properties": {"area_ha": 0.0, "mean": null}, "geometry": {"type": "Polygon", "coordinates": [[[120.5775773711903, 31.427205408], [120.57747207619408, 31.427114944], [120.5775773711903, 31.427114944], [120.5775773711903, 31.427205408]]]}}, {"type": "Feature", "properties": {"area_ha": 0.0, "mean": null}, "geometry": {"type": "Polygon", "coordinates": [[[120.51776981334345, 31.427114944], [120.51766451834723, 31.42702448], [120.51776981334345, 31.42702448], [120.51776981334345, 31.427114944]]]}}, {"type": "Feature", "properties": {"area_ha": 0.13, "mean": 0.1682}, "geometry": {"type": "Polygon", "coordinates": [[[120.52166572820319, 31.4274768], [120.52092866322972, 31.427205408], [120.51977041827142, 31.42702448], [120.5207180732373, 31.42702448], [120.52166572820319, 31.4274768]]]}}, {"type": "Feature", "properties": {"area_ha": 0.0, "mean": null}, "geometry": {"type": "Polygon", "coordinates": [[[120.5742079313116, 31.427114944], [120.57410263631539, 31.42702448], [120.5742079313116, 31.42702448], [120.5742079313116, 31.427114944]]]}}, {"type": "Feature", "properties": {"area_ha": 0.64, "mean": 0.2365}, "geometry": {"type": "Polygon", "coordinates": [[[120.54883183722518, 31.428019584], [120.54714711728583, 31.427114944], [120.54820006724792, 31.426934016], [120.54883183722518, 31.428019584]], [[120.5478841822593, 31.42702448], [120.54809477225172, 31.427114944], [120.54809477225172, 31.42702448], [120.5478841822593, 31.42702448]]]}}, {"type": "Feature", "properties": {"area_ha": 0.03, "mean": 0.216}, "geometry": {"type": "Polygon", "coordinates": [[[120.57589265125095, 31.427205408], [120.57515558627749, 31.426934016], [120.57589265125095, 31.427114944], [120.57589265125095, 31.427205408]]]}}, {"type": "Feature", "properties": {"area_ha": 0.01, "mean": 0.1613}, "geometry": {"type": "Polygon", "coordinates": [[[120.57462911129645, 31.426934016], [120.57431322630781, 31.426843552], [120.57462911129645, 31.426843552], [120.57462911129645, 31.426934016]]]}}, {"type": "Feature", "properties": {"area_ha": 0.01, "mean": 0.3554}, "geometry": {"type": "Polygon", "coordinates": [[[120.54735770727825, 31.426843552], [120.54704182228961, 31.426753088], [120.54735770727825, 31.426753088], [120.54735770727825, 31.426843552]]]}}, {"type": "Feature", "properties": {"area_ha": 0.0, "mean": null}, "geometry": {"type": "Polygon", "coordinates": [[[120.54756829727066, 31.426843552], [120.54746300227445, 31.426753088], [120.54756829727066, 31.426753088], [120.54756829727066, 31.426843552]]]}}, {"type": "Feature", "properties": {"area_ha": 0.0, "mean": null}, "geometry": {"type": "Polygon", "coordinates": [[[120.51819099332829, 31.426753088], [120.51808569833207, 31.426662624], [120.51819099332829, 31.426662624], [120.51819099332829, 31.426753088]]]}}, {"type": "Feature", "properties": {"area_ha": 0.0, "mean": null}, "geometry": {"type": "Polygon", "coordinates": [[[120.54082941751327, 31.426753088], [120.54072412251706, 31.426662624], [120.54082941751327, 31.426662624], [120.54082941751327, 31.426753088]]]}}, {"type": "Feature", "properties": {"area_ha": 0.0, "mean": null}, "geometry": {"type": "Polygon", "coordinates": [[[120.52945755792267, 31.42657216], [120.52935226292647, 31.426481696], [120.52945755792267, 31.426481696], [120.52945755792267, 31.42657216]]]}}, {"type": "Feature", "properties": {"area_ha": 0.0, "mean": null}, "geometry": {"type": "Polygon", "coordinates": [[[120.52935226292647, 31.426481696], [120.52924696793025, 31.426391232], [120.52935226292647, 31.426391232], [120.52935226292647, 31.426481696]]]}}, {"type": "Feature", "properties": {"area_ha": 0.0, "mean": null}, "geometry": {"type": "Polygon", "coordinates": [[[120.52903637793784, 31.426300768], [120.52893108294163, 31.426210304], [120.52903637793784, 31.426210304], [120.52903637793784, 31.426300768]]]}}, {"type": "Feature", "properties": {"area_ha": 0.02, "mean": 0.1541}, "geometry": {"type": "Polygon", "coordinates": [[[120.5411453025019, 31.426119840000002], [120.54104000750569, 31.42566752], [120.5411453025019, 31.42566752], [120.5411453025019, 31.426119840000002]]]}}, {"type": "Feature", "properties": {"area_ha": 0.02, "mean": 0.128}, "geometry": {"type": "Polygon", "coordinates": [[[120.54093471250948, 31.426029376], [120.54082941751327, 31.42566752], [120.54093471250948, 31.42566752], [120.54093471250948, 31.426029376]]]}}, {"type": "Feature", "properties": {"area_ha": 0.0, "mean": null}, "geometry": {"type": "Polygon", "coordinates": [[[120.54767359226688, 31.42566752], [120.54756829727066, 31.425577056], [120.54767359226688, 31.425577056], [120.54767359226688, 31.42566752]]]}}, {"type": "Feature", "properties": {"area_ha": 0.0, "mean": null}, "geometry": {"type": "Polygon", "coordinates": [[[120.54756829727066, 31.425396128], [120.54746300227445, 31.425305664], [120.54756829727066, 31.425305664], [120.54756829727066, 31.425396128]]]}}, {"type": "Feature", "properties": {"area_ha": 0.0, "mean": null}, "geometry": {"type": "Polygon", "coordinates": [[[120.54093471250948, 31.425305664], [120.54082941751327, 31.4252152], [120.54093471250948, 31.4252152], [120.54093471250948, 31.425305664]]]}}, {"type": "Feature", "properties": {"area_ha": 0.0, "mean": null}, "geometry": {"type": "Polygon", "coordinates": [[[120.54704182228961, 31.4252152], [120.54693652729341, 31.425124736], [120.54704182228961, 31.425124736], [120.54704182228961, 31.4252152]]]}}, {"type": "Feature", "properties": {"area_ha": 0.0, "mean": null}, "geometry": {"type": "Polygon", "coordinates": [[[120.5366176176649, 31.425034272], [120.5365123226687, 31.424943808000002], [120.5366176176649, 31.424943808000002], [120.5366176176649, 31.425034272]]]}}, {"type": "Feature", "properties": {"area_ha": 0.01, "mean": 0.1501}, "geometry": {"type": "Polygon", "coordinates": [[[120.54082941751327, 31.424943808000002], [120.54072412251706, 31.425034272], [120.54061882752086, 31.424943808000002], [120.54082941751327, 31.424943808000002]]]}}, {"type": "Feature", "properties": {"area_ha": 0.0, "mean": null}, "geometry": {"type": "Polygon", "coordinates": [[[120.53693350265353, 31.424943808000002], [120.53682820765732, 31.424853344], [120.53693350265353, 31.424853344], [120.53693350265353, 31.424943808000002]]]}}, {"type": "Feature", "properties": {"area_ha": 0.14, "mean": 0.1584}, "geometry": {"type": "Polygon", "coordinates": [[[120.5468312322972, 31.425034272], [120.54641005231237, 31.424853344], [120.54641005231237, 31.424672416], [120.54704182228961, 31.42476288], [120.5468312322972, 31.425034272]], [[120.54672593730099, 31.42476288], [120.5468312322972, 31.424853344], [120.5468312322972, 31.42476288], [120.54672593730099, 31.42476288]]]}}, {"type": "Feature", "properties": {"area_ha": 0.0, "mean": null}, "geometry": {"type": "Polygon", "coordinates": [[[120.53472230773313, 31.42476288], [120.53461701273693, 31.424672416], [120.53472230773313, 31.424672416], [120.53472230773313, 31.42476288]]]}}, {"type": "Feature", "properties": {"area_ha": 0.0, "mean": null}, "geometry": {"type": "Polygon", "coordinates": [[[120.54061882752086, 31.42476288], [120.54051353252464, 31.424672416], [120.54061882752086, 31.424672416], [120.54061882752086, 31.42476288]]]}}, {"type": "Feature", "properties": {"area_ha": 0.0, "mean": null}, "geometry": {"type": "Polygon", "coordinates": [[[120.5787356161486, 31.42476288], [120.57863032115239, 31.424672416], [120.5787356161486, 31.424672416], [120.5787356161486, 31.42476288]]]}}, {"type": "Feature", "properties": {"area_ha": 0.01, "mean": 0.1214}, "geometry": {"type": "Polygon", "coordinates": [[[120.5353540777104, 31.424672416], [120.53503819272176, 31.424581952], [120.5353540777104, 31.424581952], [120.5353540777104, 31.424672416]]]}}, {"type": "Feature", "properties": {"area_ha": 0.0, "mean": null}, "geometry": {"type": "Polygon", "coordinates": [[[120.53598584768764, 31.424581952], [120.53588055269144, 31.424491488], [120.53598584768764, 31.424491488], [120.53598584768764, 31.424581952]]]}}, {"type": "Feature", "properties": {"area_ha": 0.01, "mean": 0.1864}, "geometry": {"type": "Polygon", "coordinates": [[[120.5365123226687, 31.424581952], [120.53630173267628, 31.424491488], [120.5365123226687, 31.424491488], [120.5365123226687, 31.424581952]]]}}, {"type": "Feature", "properties": {"area_ha": 0.0, "mean": null}, "geometry": {"type": "Polygon", "coordinates": [[[120.54051353252464, 31.424581952], [120.54040823752844, 31.424491488], [120.54051353252464, 31.424491488], [120.54051353252464, 31.424581952]]]}}, {"type": "Feature", "properties": {"area_ha": 0.0, "mean": null}, "geometry": {"type": "Polygon", "coordinates": [[[120.53630173267628, 31.424491488], [120.53619643768006, 31.424401024], [120.53630173267628, 31.424401024], [120.53630173267628, 31.424491488]]]}}, {"type": "Feature", "properties": {"area_ha": 0.0, "mean": null}, "geometry": {"type": "Polygon", "coordinates": [[[120.58136799105384, 31.42431056], [120.58126269605762, 31.424220096], [120.58136799105384, 31.424220096], [120.58136799105384, 31.42431056]]]}}, {"type": "Feature", "properties": {"area_ha": 0.01, "mean": 0.1586}, "geometry": {"type": "Polygon", "coordinates": [[[120.54040823752844, 31.42431056], [120.54030294253222, 31.424129632], [120.54040823752844, 31.424129632], [120.54040823752844, 31.42431056]]]}}, {"type": "Feature", "properties": {"area_ha": 0.0, "mean": null}, "geometry": {"type": "Polygon", "coordinates": [[[120.54483062736922, 31.424220096], [120.54472533237302, 31.424129632], [120.54483062736922, 31.424129632], [120.54483062736922, 31.424220096]]]}}, {"type": "Feature", "properties": {"area_ha": 0.15, "mean": 0.1682}, "geometry": {"type": "Polygon", "coordinates": [[[120.54472533237302, 31.424581952], [120.5446200373768, 31.424220096], [120.54525180735406, 31.424129632], [120.54472533237302, 31.424581952]]]}}, {"type": "Feature", "properties": {"area_ha": 0.0, "mean": null}, "geometry": {"type": "Polygon", "coordinates": [[[120.58147328605004, 31.424129632], [120.58136799105384, 31.424039168], [120.58147328605004, 31.424039168], [120.58147328605004, 31.424129632]]]}}, {"type": "Feature", "properties": {"area_ha": 0.0, "mean": null}, "geometry": {"type": "Polygon", "coordinates": [[[120.54146118749053, 31.424039168], [120.54135589249432, 31.423948704], [120.54146118749053, 31.423948704], [120.54146118749053, 31.424039168]]]}}, {"type": "Feature", "properties": {"area_ha": 0.0, "mean": null}, "geometry": {"type": "Polygon", "coordinates": [[[120.58157858104624, 31.424039168], [120.58147328605004, 31.423948704], [120.58157858104624, 31.423948704], [120.58157858104624, 31.424039168]]]}}, {"type": "Feature", "properties": {"area_ha": 0.0, "mean": null}, "geometry": {"type": "Polygon", "coordinates": [[[120.54156648248674, 31.423948704], [120.54146118749053, 31.42385824], [120.54156648248674, 31.42385824], [120.54156648248674, 31.423948704]]]}}, {"type": "Feature", "properties": {"area_ha": 0.0, "mean": null}, "geometry": {"type": "Polygon", "coordinates": [[[120.54493592236544, 31.423948704], [120.54483062736922, 31.42385824], [120.54493592236544, 31.42385824], [120.54493592236544, 31.423948704]]]}}, {"type": "Feature", "properties": {"area_ha": 0.01, "mean": 0.2163}, "geometry": {"type": "Polygon", "coordinates": [[[120.58178917103866, 31.423948704], [120.58157858104624, 31.42385824], [120.58178917103866, 31.42385824], [120.58178917103866, 31.423948704]]]}}, {"type": "Feature", "properties": {"area_ha": 0.01, "mean": 0.134}, "geometry": {"type": "Polygon", "coordinates": [[[120.54483062736922, 31.42385824], [120.5445147423806, 31.423767776000002], [120.54483062736922, 31.423767776000002], [120.54483062736922, 31.42385824]]]}}, {"type": "Feature", "properties": {"area_ha": 0.0, "mean": null}, "geometry": {"type": "Polygon", "coordinates": [[[120.54167177748295, 31.42385824], [120.54156648248674, 31.423767776000002], [120.54167177748295, 31.423767776000002], [120.54167177748295, 31.42385824]]]}}, {"type": "Feature", "properties": {"area_ha": 0.01, "mean": 0.1573}, "geometry": {"type": "Polygon", "coordinates": [[[120.54440944738438, 31.42385824], [120.54419885739196, 31.423767776000002], [120.54440944738438, 31.423767776000002], [120.54440944738438, 31.42385824]]]}}, {"type": "Feature", "properties": {"area_ha": 0.01, "mean": 0.1766}, "geometry": {"type": "Polygon", "coordinates": [[[120.54419885739196, 31.423767776000002], [120.54398826739956, 31.423677312], [120.54419885739196, 31.423677312], [120.54419885739196, 31.423767776000002]]]}}, {"type": "Feature", "properties": {"area_ha": 0.01, "mean": 0.1461}, "geometry": {"type": "Polygon", "coordinates": [[[120.54377767740714, 31.423677312], [120.54356708741471, 31.423586848], [120.54377767740714, 31.423586848], [120.54377767740714, 31.423677312]]]}}, {"type": "Feature", "properties": {"area_ha": 0.03, "mean": 0.173}, "geometry": {"type": "Polygon", "coordinates": [[[120.54504121736164, 31.423767776000002], [120.54472533237302, 31.423586848], [120.54504121736164, 31.423586848], [120.54504121736164, 31.423767776000002]]]}}, {"type": "Feature", "properties": {"area_ha": 0.02, "mean": 0.14}, "geometry": {"type": "Polygon", "coordinates": [[[120.5446200373768, 31.423677312], [120.54440944738438, 31.423496384], [120.54472533237302, 31.423496384], [120.5446200373768, 31.423677312]]]}}, {"type": "Feature", "properties": {"area_ha": 0.01, "mean": 0.1531}, "geometry": {"type": "Polygon", "coordinates": [[[120.54293531743745, 31.42340592], [120.54272472744503, 31.423315456], [120.54293531743745, 31.423315456], [120.54293531743745, 31.42340592]]]}}, {"type": "Feature", "properties": {"area_ha": 0.04, "mean": 0.3587}, "geometry": {"type": "Polygon", "coordinates": [[[120.5934769156179, 31.423496384], [120.59316103062928, 31.423315456], [120.59337162062168, 31.423224992], [120.5934769156179, 31.423496384]]]}}, {"type": "Feature", "properties": {"area_ha": 0.01, "mean": 0.1238}, "geometry": {"type": "Polygon", "coordinates": [[[120.54325120242609, 31.423315456], [120.54293531743745, 31.423224992], [120.54325120242609, 31.423224992], [120.54325120242609, 31.423315456]]]}}, {"type": "Feature", "properties": {"area_ha": 0.0, "mean": null}, "geometry": {"type": "Polygon", "coordinates": [[[120.58315800598939, 31.4229536], [120.58305271099319, 31.422863136], [120.58315800598939, 31.422863136], [120.58315800598939, 31.4229536]]]}}, {"type": "Feature", "properties": {"area_ha": 0.0, "mean": null}, "geometry": {"type": "Polygon", "coordinates": [[[120.54314590742987, 31.422863136], [120.54304061243367, 31.422772672], [120.54314590742987, 31.422772672], [120.54314590742987, 31.422863136]]]}}, {"type": "Feature", "properties": {"area_ha": 0.0, "mean": null}, "geometry": {"type": "Polygon", "coordinates": [[[120.58326330098559, 31.422772672], [120.58315800598939, 31.422682208], [120.58326330098559, 31.422682208], [120.58326330098559, 31.422772672]]]}}, {"type": "Feature", "properties": {"area_ha": 0.01, "mean": 0.2081}, "geometry": {"type": "Polygon", "coordinates": [[[120.54051353252464, 31.422772672], [120.54040823752844, 31.422591744], [120.54051353252464, 31.422591744], [120.54051353252464, 31.422772672]]]}}, {"type": "Feature", "properties": {"area_ha": 0.02, "mean": 0.1439}, "geometry": {"type": "Polygon", "coordinates": [[[120.54293531743745, 31.422772672], [120.54272472744503, 31.422682208], [120.54293531743745, 31.42250128], [120.54293531743745, 31.422772672]]]}}, {"type": "Feature", "properties": {"area_ha": 0.0, "mean": null}, "geometry": {"type": "Polygon", "coordinates": [[[120.54935831220622, 31.42250128], [120.54925301721, 31.422410816], [120.54935831220622, 31.422410816], [120.54935831220622, 31.42250128]]]}}, {"type": "Feature", "properties": {"area_ha": 0.0, "mean": null}, "geometry": {"type": "Polygon", "coordinates": [[[120.58347389097801, 31.42250128], [120.58336859598181, 31.422410816], [120.58347389097801, 31.422410816], [120.58347389097801, 31.42250128]]]}}, {"type": "Feature", "properties": {"area_ha": 0.0, "mean": null}, "geometry": {"type": "Polygon", "coordinates": [[[120.54304061243367, 31.422410816], [120.54293531743745, 31.422320352], [120.54304061243367, 31.422320352], [120.54304061243367, 31.422410816]]]}}, {"type": "Feature", "properties": {"area_ha": 0.0, "mean": null}, "geometry": {"type": "Polygon", "coordinates": [[[120.54598887232753, 31.422320352], [120.54588357733131, 31.422229888], [120.54598887232753, 31.422229888], [120.54598887232753, 31.422320352]]]}}, {"type": "Feature", "properties": {"area_ha": 0.09, "mean": 0.3146}, "geometry": {"type": "Polygon", "coordinates": [[[120.5935822106141, 31.42250128], [120.59305573563306, 31.422320352], [120.5934769156179, 31.422139424], [120.5935822106141, 31.42250128]]]}}, {"type": "Feature", "properties": {"area_ha": 0.01, "mean": 0.1632}, "geometry": {"type": "Polygon", "coordinates": [[[120.54314590742987, 31.422320352], [120.54304061243367, 31.422139424], [120.54314590742987, 31.422139424], [120.54314590742987, 31.422320352]]]}}, {"type": "Feature", "properties": {"area_ha": 0.0, "mean": null}, "geometry": {"type": "Polygon", "coordinates": [[[120.58368448097043, 31.422229888], [120.58357918597423, 31.422139424], [120.58368448097043, 31.422139424], [120.58368448097043, 31.422229888]]]}}, {"type": "Feature", "properties": {"area_ha": 0.0, "mean": null}, "geometry": {"type": "Polygon", "coordinates": [[[120.58378977596665, 31.422139424], [120.58368448097043, 31.42204896], [120.58378977596665, 31.42204896], [120.58378977596665, 31.422139424]]]}}, {"type": "Feature", "properties": {"area_ha": 0.0, "mean": null}, "geometry": {"type": "Polygon", "coordinates": [[[120.54093471250948, 31.42204896], [120.54082941751327, 31.421958496000002], [120.54093471250948, 31.421958496000002], [120.54093471250948, 31.42204896]]]}}, {"type": "Feature", "properties": {"area_ha": 0.0, "mean": null}, "geometry": {"type": "Polygon", "coordinates": [[[120.54735770727825, 31.421958496000002], [120.54725241228203, 31.421868032], [120.54735770727825, 31.421868032], [120.54735770727825, 31.421958496000002]]]}}, {"type": "Feature", "properties": {"area_ha": 0.0, "mean": null}, "geometry": {"type": "Polygon", "coordinates": [[[120.58389507096285, 31.421958496000002], [120.58378977596665, 31.421868032], [120.58389507096285, 31.421868032], [120.58389507096285, 31.421958496000002]]]}}, {"type": "Feature", "properties": {"area_ha": 0.02, "mean": 0.2457}, "geometry": {"type": "Polygon", "coordinates": [[[120.58484272592874, 31.42159664], [120.5844215459439, 31.421506176], [120.58484272592874, 31.421506176], [120.58484272592874, 31.42159664]]]}}, {"type": "Feature", "properties": {"area_ha": 0.0, "mean": null}, "geometry": {"type": "Polygon", "coordinates": [[[120.54851595223654, 31.42159664], [120.54841065724034, 31.421506176], [120.54851595223654, 31.421506176], [120.54851595223654, 31.42159664]]]}}, {"type": "Feature", "properties": {"area_ha": 0.02, "mean": 0.1276}, "geometry": {"type": "Polygon", "coordinates": [[[120.54830536224412, 31.42159664], [120.5479894772555, 31.421415712], [120.54830536224412, 31.421506176], [120.54830536224412, 31.42159664]]]}}, {"type": "Feature", "properties": {"area_ha": 0.01, "mean": 0.1213}, "geometry": {"type": "Polygon", "coordinates": [[[120.58484272592874, 31.420872928], [120.58463213593632, 31.420782464000002], [120.58484272592874, 31.420782464000002], [120.58484272592874, 31.420872928]]]}}, {"type": "Feature", "properties": {"area_ha": 0.01, "mean": 0.1238}, "geometry": {"type": "Polygon", "coordinates": [[[120.5412505974981, 31.420782464000002], [120.5411453025019, 31.420601536], [120.5412505974981, 31.420601536], [120.5412505974981, 31.420782464000002]]]}}, {"type": "Feature", "properties": {"area_ha": 0.0, "mean": null}, "geometry": {"type": "Polygon", "coordinates": [[[120.58505331592116, 31.420692], [120.58494802092494, 31.420601536], [120.58505331592116, 31.420601536], [120.58505331592116, 31.420692]]]}}, {"type": "Feature", "properties": {"area_ha": 0.0, "mean": null}, "geometry": {"type": "Polygon", "coordinates": [[[120.5412505974981, 31.420511072], [120.5411453025019, 31.420420608], [120.5412505974981, 31.420420608], [120.5412505974981, 31.420511072]]]}}, {"type": "Feature", "properties": {"area_ha": 0.04, "mean": 0.1459}, "geometry": {"type": "Polygon", "coordinates": [[[120.5478841822593, 31.420601536], [120.5478841822593, 31.42023968], [120.54809477225172, 31.42023968], [120.5478841822593, 31.420601536]]]}}, {"type": "Feature", "properties": {"area_ha": 0.0, "mean": null}, "geometry": {"type": "Polygon", "coordinates": [[[120.54935831220622, 31.420330144], [120.54925301721, 31.42023968], [120.54935831220622, 31.42023968], [120.54935831220622, 31.420330144]]]}}, {"type": "Feature", "properties": {"area_ha": 0.39, "mean": 0.1551}, "geometry": {"type": "Polygon", "coordinates": [[[120.58568508589842, 31.420782464000002], [120.585474495906, 31.420149216], [120.58652744586809, 31.420330144], [120.58642215087188, 31.420511072], [120.58568508589842, 31.420782464000002]], [[120.5855797909022, 31.42023968], [120.58568508589842, 31.420420608], [120.58568508589842, 31.42023968], [120.5855797909022, 31.42023968]]]}}, {"type": "Feature", "properties": {"area_ha": 0.0, "mean": null}, "geometry": {"type": "Polygon", "coordinates": [[[120.58610626588325, 31.42023968], [120.58600097088704, 31.420149216], [120.58610626588325, 31.420149216], [120.58610626588325, 31.42023968]]]}}, {"type": "Feature", "properties": {"area_ha": 0.01, "mean": 0.18}, "geometry": {"type": "Polygon", "coordinates": [[[120.5411453025019, 31.420149216], [120.54104000750569, 31.419968288], [120.5411453025019, 31.419968288], [120.5411453025019, 31.420149216]]]}}, {"type": "Feature", "properties": {"area_ha": 0.01, "mean": 0.1218}, "geometry": {"type": "Polygon", "coordinates": [[[120.54883183722518, 31.419696896], [120.54851595223654, 31.419606432000002], [120.54883183722518, 31.419606432000002], [120.54883183722518, 31.419696896]]]}}, {"type": "Feature", "properties": {"area_ha": 0.04, "mean": 0.2049}, "geometry": {"type": "Polygon", "coordinates": [[[120.54082941751327, 31.419515968], [120.54051353252464, 31.419696896], [120.54040823752844, 31.419515968], [120.54082941751327, 31.419515968]]]}}, {"type": "Feature", "properties": {"area_ha": 0.0, "mean": null}, "geometry": {"type": "Polygon", "coordinates": [[[120.54935831220622, 31.419968288], [120.5490424272176, 31.419696896], [120.54883183722518, 31.419425504], [120.54935831220622, 31.419968288]]]}}, {"type": "Feature", "properties": {"area_ha": 0.0, "mean": null}, "geometry": {"type": "Polygon", "coordinates": [[[120.54040823752844, 31.419515968], [120.54030294253222, 31.419425504], [120.54040823752844, 31.419425504], [120.54040823752844, 31.419515968]]]}}, {"type": "Feature", "properties": {"area_ha": 0.0, "mean": null}, "geometry": {"type": "Polygon", "coordinates": [[[120.54051353252464, 31.419425504], [120.54040823752844, 31.41933504], [120.54051353252464, 31.41933504], [120.54051353252464, 31.419425504]]]}}, {"type": "Feature", "properties": {"area_ha": 0.01, "mean": 0.166}, "geometry": {"type": "Polygon", "coordinates": [[[120.54061882752086, 31.41933504], [120.54051353252464, 31.419154112], [120.54061882752086, 31.419154112], [120.54061882752086, 31.41933504]]]}}, {"type": "Feature", "properties": {"area_ha": 0.0, "mean": null}, "geometry": {"type": "Polygon", "coordinates": [[[120.55041126216831, 31.418701792], [120.55030596717211, 31.418611328], [120.55041126216831, 31.418611328], [120.55041126216831, 31.418701792]]]}}, {"type": "Feature", "properties": {"area_ha": 0.0, "mean": null}, "geometry": {"type": "Polygon", "coordinates": [[[120.55062185216073, 31.418701792], [120.55051655716453, 31.418611328], [120.55062185216073, 31.418611328], [120.55062185216073, 31.418701792]]]}}, {"type": "Feature", "properties": {"area_ha": 0.48, "mean": 0.1481}, "geometry": {"type": "Polygon", "coordinates": [[[120.5490424272176, 31.41933504], [120.54872654222896, 31.41888272], [120.5491477222138, 31.418249472], [120.54956890219864, 31.419154112], [120.5490424272176, 31.41933504]], [[120.5491477222138, 31.41888272], [120.54935831220622, 31.418973184], [120.54935831220622, 31.41888272], [120.5491477222138, 31.41888272]]]}}, {"type": "Feature", "properties": {"area_ha": 0.07, "mean": 0.1976}, "geometry": {"type": "Polygon", "coordinates": [[[120.56346784169826, 31.418159008], [120.56283607172101, 31.418068544], [120.56294136671721, 31.417887616], [120.56346784169826, 31.418159008]]]}}, {"type": "Feature", "properties": {"area_ha": 0.0, "mean": null}, "geometry": {"type": "Polygon", "coordinates": [[[120.54030294253222, 31.417887616], [120.54019764753602, 31.417797152], [120.54030294253222, 31.417797152], [120.54030294253222, 31.417887616]]]}}, {"type": "Feature", "properties": {"area_ha": 0.0, "mean": null}, "geometry": {"type": "Polygon", "coordinates": [[[120.5615725317665, 31.417344832], [120.56146723677028, 31.417254368000002], [120.5615725317665, 31.417254368000002], [120.5615725317665, 31.417344832]]]}}, {"type": "Feature", "properties": {"area_ha": 0.03, "mean": 0.155}, "geometry": {"type": "Polygon", "coordinates": [[[120.5400923525398, 31.417344832], [120.53977646755118, 31.417344832], [120.5400923525398, 31.417163904], [120.5400923525398, 31.417344832]]]}}, {"type": "Feature", "properties": {"area_ha": 0.0, "mean": null}, "geometry": {"type": "Polygon", "coordinates": [[[120.55167480212282, 31.417344832], [120.55146421213041, 31.417163904], [120.55167480212282, 31.417254368000002], [120.55167480212282, 31.417344832]]]}}, {"type": "Feature", "properties": {"area_ha": 0.0, "mean": null}, "geometry": {"type": "Polygon", "coordinates": [[[120.56146723677028, 31.417254368000002], [120.56136194177408, 31.417163904], [120.56146723677028, 31.417163904], [120.56146723677028, 31.417254368000002]]]}}, {"type": "Feature", "properties": {"area_ha": 27.13, "mean": 0.1858}, "geometry": {"type": "Polygon", "coordinates": [[[120.5468312322972, 31.426753088], [120.54820006724792, 31.426753088], [120.54820006724792, 31.42657216], [120.54841065724034, 31.426481696], [120.54841065724034, 31.426300768], [120.54851595223654, 31.426300768], [120.54862124723276, 31.425757984], [120.54967419719485, 31.426300768], [120.55146421213041, 31.417344832], [120.54946360720243, 31.416982976], [120.54946360720243, 31.421506176], [120.54504121736164, 31.422682208], [120.5468312322972, 31.426753088]], [[120.54841065724034, 31.426300768], [120.54830536224412, 31.426210304], [120.54841065724034, 31.426210304], [120.54841065724034, 31.426300768]], [[120.55083244215315, 31.418339936], [120.55104303214557, 31.418339936], [120.55104303214557, 31.418611328], [120.55083244215315, 31.418339936]], [[120.55020067217589, 31.418611328], [120.55072714715695, 31.418249472], [120.55072714715695, 31.41888272], [120.55020067217589, 31.418611328]], [[120.55009537717969, 31.420601536], [120.55030596717211, 31.420692], [120.55030596717211, 31.420782464000002], [120.55009537717969, 31.420601536]], [[120.55009537717969, 31.420963392], [120.55020067217589, 31.420963392], [120.55020067217589, 31.421053856], [120.55009537717969, 31.420963392]], [[120.55009537717969, 31.418159008], [120.55020067217589, 31.418159008], [120.55020067217589, 31.418339936], [120.55009537717969, 31.418159008]], [[120.54988478718727, 31.418339936], [120.54999008218347, 31.418339936], [120.54999008218347, 31.418520864], [120.54988478718727, 31.418339936]], [[120.54988478718727, 31.41797808], [120.54999008218347, 31.41797808], [120.54999008218347, 31.418068544], [120.54988478718727, 31.41797808]], [[120.54977949219106, 31.420149216], [120.54988478718727, 31.420149216], [120.54988478718727, 31.42023968], [120.54977949219106, 31.420149216]], [[120.54946360720243, 31.421958496000002], [120.54956890219864, 31.421958496000002], [120.54956890219864, 31.42204896], [120.54946360720243, 31.421958496000002]], [[120.54956890219864, 31.42204896], [120.54977949219106, 31.42204896], [120.54977949219106, 31.422229888], [120.54956890219864, 31.42204896]], [[120.54935831220622, 31.422682208], [120.54925301721, 31.421687104], [120.54935831220622, 31.422410816], [120.54977949219106, 31.42250128], [120.54935831220622, 31.422682208]], [[120.54862124723276, 31.42431056], [120.5490424272176, 31.42431056], [120.5490424272176, 31.424581952], [120.54862124723276, 31.42431056]], [[120.54862124723276, 31.421777568], [120.54872654222896, 31.421777568], [120.54883183722518, 31.422139424], [120.54862124723276, 31.421777568]], [[120.54841065724034, 31.42385824], [120.54872654222896, 31.423677312], [120.54862124723276, 31.424039168], [120.54841065724034, 31.42385824]], [[120.54809477225172, 31.425848448], [120.54830536224412, 31.425848448], [120.54830536224412, 31.426029376], [120.54809477225172, 31.425848448]], [[120.54830536224412, 31.426029376], [120.54841065724034, 31.426029376], [120.54841065724034, 31.426119840000002], [120.54830536224412, 31.426029376]], [[120.54756829727066, 31.422320352], [120.54830536224412, 31.421958496000002], [120.54830536224412, 31.422229888], [120.54756829727066, 31.422320352]], [[120.54735770727825, 31.425848448], [120.54746300227445, 31.425848448], [120.54746300227445, 31.425938912], [120.54735770727825, 31.425848448]], [[120.54725241228203, 31.422591744], [120.54735770727825, 31.422591744], [120.54735770727825, 31.422772672], [120.54725241228203, 31.422591744]], [[120.5468312322972, 31.42566752], [120.54704182228961, 31.42566752], [120.54704182228961, 31.425757984], [120.5468312322972, 31.42566752]], [[120.5468312322972, 31.426481696], [120.54693652729341, 31.426481696], [120.54693652729341, 31.42657216], [120.5468312322972, 31.426481696]]]}}, {"type": "Feature", "properties": {"area_ha": 0.04, "mean": 0.1233}, "geometry": {"type": "Polygon", "coordinates": [[[120.55104303214557, 31.41707344], [120.55083244215315, 31.416711584], [120.55104303214557, 31.416711584], [120.55104303214557, 31.41707344]]]}}, {"type": "Feature", "properties": {"area_ha": 0.06, "mean": 0.3339}, "geometry": {"type": "Polygon", "coordinates": [[[120.53851292759667, 31.416892512], [120.53788115761941, 31.416892512], [120.53798645261563, 31.416711584], [120.53851292759667, 31.416892512]]]}}, {"type": "Feature", "properties": {"area_ha": 0.04, "mean": 0.3185}, "geometry": {"type": "Polygon", "coordinates": [[[120.53524878271418, 31.416892512], [120.53503819272176, 31.41662112], [120.5353540777104, 31.416711584], [120.53524878271418, 31.416892512]]]}}, {"type": "Feature", "properties": {"area_ha": 0.04, "mean": 0.3258}, "geometry": {"type": "Polygon", "coordinates": [[[120.53745997763457, 31.416530656], [120.53724938764216, 31.41662112], [120.5366176176649, 31.416440192], [120.53745997763457, 31.416530656]]]}}, {"type": "Feature", "properties": {"area_ha": 0.14, "mean": 0.1364}, "geometry": {"type": "Polygon", "coordinates": [[[120.55199068711146, 31.416802048], [120.55146421213041, 31.416892512], [120.55178009711904, 31.416349728], [120.55199068711146, 31.416802048]]]}}, {"type": "Feature", "properties": {"area_ha": 0.42, "mean": 0.2791}, "geometry": {"type": "Polygon", "coordinates": [[[120.53398524275967, 31.416802048], [120.53177404783928, 31.41662112], [120.53166875284306, 31.416259264], [120.53398524275967, 31.416802048]]]}}, {"type": "Feature", "properties": {"area_ha": 0.0, "mean": null}, "geometry": {"type": "Polygon", "coordinates": [[[120.55167480212282, 31.416349728], [120.55156950712662, 31.416259264], [120.55167480212282, 31.416259264], [120.55167480212282, 31.416349728]]]}}, {"type": "Feature", "properties": {"area_ha": 0.0, "mean": null}, "geometry": {"type": "Polygon", "coordinates": [[[120.53166875284306, 31.416259264], [120.53156345784686, 31.4161688], [120.53166875284306, 31.4161688], [120.53166875284306, 31.416259264]]]}}, {"type": "Feature", "properties": {"area_ha": 0.0, "mean": null}, "geometry": {"type": "Polygon", "coordinates": [[[120.53145816285065, 31.4161688], [120.53135286785444, 31.416078336], [120.53145816285065, 31.416078336], [120.53145816285065, 31.4161688]]]}}, {"type": "Feature", "properties": {"area_ha": 0.0, "mean": null}, "geometry": {"type": "Polygon", "coordinates": [[[120.53135286785444, 31.416078336], [120.53124757285823, 31.415987872], [120.53135286785444, 31.415987872], [120.53135286785444, 31.416078336]]]}}, {"type": "Feature", "properties": {"area_ha": 0.26, "mean": 0.189}, "geometry": {"type": "Polygon", "coordinates": [[[120.53124757285823, 31.415897408], [120.52945755792267, 31.415173696], [120.52924696793025, 31.41481184], [120.53124757285823, 31.415897408]]]}}, {"type": "Feature", "properties": {"area_ha": 5.46, "mean": 0.2789}, "geometry": {"type": "Polygon", "coordinates": [[[120.55209598210766, 31.41662112], [120.55662366694466, 31.415083232], [120.56104605678544, 31.41481184], [120.56104605678544, 31.415354624], [120.55209598210766, 31.41662112]], [[120.55725543692192, 31.415535552], [120.55746602691433, 31.415626016], [120.55746602691433, 31.415535552], [120.55725543692192, 31.415535552]]]}}, {"type": "Feature", "properties": {"area_ha": 0.0, "mean": null}, "geometry": {"type": "Polygon", "coordinates": [[[120.56115135178166, 31.41481184], [120.56104605678544, 31.414721376], [120.56115135178166, 31.414721376], [120.56115135178166, 31.41481184]]]}}, {"type": "Feature", "properties": {"area_ha": 0.0, "mean": null}, "geometry": {"type": "Polygon", "coordinates": [[[120.5273516579985, 31.41345488], [120.52724636300228, 31.413364416], [120.5273516579985, 31.413364416], [120.5273516579985, 31.41345488]]]}}, {"type": "Feature", "properties": {"area_ha": 0.0, "mean": null}, "geometry": {"type": "Polygon", "coordinates": [[[120.52693047801365, 31.413183488], [120.52682518301744, 31.413093024000002], [120.52693047801365, 31.413093024000002], [120.52693047801365, 31.413183488]]]}}, {"type": "Feature", "properties": {"area_ha": 0.01, "mean": 0.2426}, "geometry": {"type": "Polygon", "coordinates": [[[120.5273516579985, 31.413183488], [120.52714106800607, 31.413183488], [120.52703577300986, 31.413093024000002], [120.5273516579985, 31.413183488]]]}}, {"type": "Feature", "properties": {"area_ha": 0.0, "mean": null}, "geometry": {"type": "Polygon", "coordinates": [[[120.52703577300986, 31.413093024000002], [120.52693047801365, 31.41300256], [120.52703577300986, 31.41300256], [120.52703577300986, 31.413093024000002]]]}}, {"type": "Feature", "properties": {"area_ha": 0.16, "mean": 0.2355}, "geometry": {"type": "Polygon", "coordinates": [[[120.52693047801365, 31.412912096], [120.52619341304019, 31.412731168], [120.52608811804397, 31.412278848], [120.52693047801365, 31.412912096]]]}}, {"type": "Feature", "properties": {"area_ha": 0.0, "mean": null}, "geometry": {"type": "Polygon", "coordinates": [[[120.52461398809704, 31.41119328], [120.52450869310084, 31.411102816], [120.52461398809704, 31.411102816], [120.52461398809704, 31.41119328]]]}}, {"type": "Feature", "properties": {"area_ha": 1.55, "mean": 0.3614}, "geometry": {"type": "Polygon", "coordinates": [[[120.52450869310084, 31.411012352], [120.52187631819561, 31.410107712], [120.52198161319181, 31.409022144], [120.52450869310084, 31.411012352]]]}}]}