{"type": "FeatureCollection", "features": [{"type": "Feature", "properties": {"area_ha": 0.0, "mean": null}, "geometry": {"type": "Polygon", "coordinates": [[[120.52134984321457, 31.469723488], [120.52124454821835, 31.469633024], [120.52134984321457, 31.469633024], [120.52134984321457, 31.469723488]]]}}, {"type": "Feature", "properties": {"area_ha": 0.0, "mean": null}, "geometry": {"type": "Polygon", "coordinates": [[[120.52229749818045, 31.469361632000002], [120.52219220318423, 31.469271168000002], [120.52229749818045, 31.469271168000002], [120.52229749818045, 31.469361632000002]]]}}, {"type": "Feature", "properties": {"area_ha": 0.0, "mean": null}, "geometry": {"type": "Polygon", "coordinates": [[[120.52240279317665, 31.469271168000002], [120.52229749818045, 31.469180704], [120.52240279317665, 31.469180704], [120.52240279317665, 31.469271168000002]]]}}, {"type": "Feature", "properties": {"area_ha": 0.0, "mean": null}, "geometry": {"type": "Polygon", "coordinates": [[[120.51892805830175, 31.46909024], [120.51882276330554, 31.468999776], [120.51892805830175, 31.468999776], [120.51892805830175, 31.46909024]]]}}, {"type": "Feature", "properties": {"area_ha": 0.0, "mean": null}, "geometry": {"type": "Polygon", "coordinates": [[[120.52250808817286, 31.46909024], [120.52240279317665, 31.468999776], [120.52250808817286, 31.468999776], [120.52250808817286, 31.46909024]]]}}, {"type": "Feature", "properties": {"area_ha": 0.01, "mean": 0.2412}, "geometry": {"type": "Polygon", "coordinates": [[[120.52956285291889, 31.468999776], [120.52924696793025, 31.468909312], [120.52956285291889, 31.468909312], [120.52956285291889, 31.468999776]]]}}, {"type": "Feature", "properties": {"area_ha": 0.01, "mean": 0.1715}, "geometry": {"type": "Polygon", "coordinates": [[[120.51819099332829, 31.468909312], [120.51798040333587, 31.468818848], [120.51819099332829, 31.468818848], [120.51819099332829, 31.468909312]]]}}, {"type": "Feature", "properties": {"area_ha": 0.0, "mean": null}, "geometry": {"type": "Polygon", "coordinates": [[[120.5228239731615, 31.468276064], [120.52271867816528, 31.4681856], [120.5228239731615, 31.4681856], [120.5228239731615, 31.468276064]]]}}, {"type": "Feature", "properties": {"area_ha": 0.0, "mean": null}, "geometry": {"type": "Polygon", "coordinates": [[[120.52840460796058, 31.468276064], [120.52829931296438, 31.4681856], [120.52840460796058, 31.4681856], [120.52840460796058, 31.468276064]]]}}, {"type": "Feature", "properties": {"area_ha": 0.01, "mean": 0.303}, "geometry": {"type": "Polygon", "coordinates": [[[120.52787813297954, 31.46773328], [120.52766754298712, 31.467642816], [120.52787813297954, 31.467642816], [120.52787813297954, 31.46773328]]]}}, {"type": "Feature", "properties": {"area_ha": 0.0, "mean": null}, "geometry": {"type": "Polygon", "coordinates": [[[120.5273516579985, 31.467642816], [120.52724636300228, 31.467552352000002], [120.5273516579985, 31.467552352000002], [120.5273516579985, 31.467642816]]]}}, {"type": "Feature", "properties": {"area_ha": 0.0, "mean": null}, "geometry": {"type": "Polygon", "coordinates": [[[120.52703577300986, 31.467552352000002], [120.52693047801365, 31.467461888], [120.52703577300986, 31.467461888], [120.52703577300986, 31.467552352000002]]]}}, {"type": "Feature", "properties": {"area_ha": 0.0, "mean": null}, "geometry": {"type": "Polygon", "coordinates": [[[120.52324515314633, 31.467100032], [120.52313985815012, 31.467009568], [120.52324515314633, 31.467009568], [120.52324515314633, 31.467100032]]]}}, {"type": "Feature", "properties": {"area_ha": 0.0, "mean": null}, "geometry": {"type": "Polygon", "coordinates": [[[120.5148215534496, 31.46682864], [120.51471625845338, 31.466738176], [120.5148215534496, 31.466738176], [120.5148215534496, 31.46682864]]]}}, {"type": "Feature", "properties": {"area_ha": 0.0, "mean": null}, "geometry": {"type": "Polygon", "coordinates": [[[120.524087513116, 31.46682864], [120.5239822181198, 31.466738176], [120.524087513116, 31.466738176], [120.524087513116, 31.46682864]]]}}, {"type": "Feature", "properties": {"area_ha": 0.0, "mean": null}, "geometry": {"type": "Polygon", "coordinates": [[[120.51292624351782, 31.466738176], [120.51282094852161, 31.466647712], [120.51292624351782, 31.466647712], [120.51292624351782, 31.466738176]]]}}, {"type": "Feature", "properties": {"area_ha": 0.0, "mean": null}, "geometry": {"type": "Polygon", "coordinates": [[[120.5241928081122, 31.466738176], [120.524087513116, 31.466647712], [120.5241928081122, 31.466647712], [120.5241928081122, 31.466738176]]]}}, {"type": "Feature", "properties": {"area_ha": 0.0, "mean": null}, "geometry": {"type": "Polygon", "coordinates": [[[120.51166270356332, 31.464657504], [120.5115574085671, 31.464567040000002], [120.51166270356332, 31.464567040000002], [120.51166270356332, 31.464657504]]]}}, {"type": "Feature", "properties": {"area_ha": 0.0, "mean": null}, "geometry": {"type": "Polygon", "coordinates": [[[120.52587752805155, 31.464476576], [120.52577223305535, 31.464386112], [120.52587752805155, 31.464386112], [120.52587752805155, 31.464476576]]]}}, {"type": "Feature", "properties": {"area_ha": 0.0, "mean": null}, "geometry": {"type": "Polygon", "coordinates": [[[120.51187329355572, 31.464386112], [120.51176799855952, 31.464295648], [120.51187329355572, 31.464295648], [120.51187329355572, 31.464386112]]]}}, {"type": "Feature", "properties": {"area_ha": 0.0, "mean": null}, "geometry": {"type": "Polygon", "coordinates": [[[120.5398817625474, 31.446202848000002], [120.53977646755118, 31.446112384], [120.5398817625474, 31.446112384], [120.5398817625474, 31.446202848000002]]]}}, {"type": "Feature", "properties": {"area_ha": 0.0, "mean": null}, "geometry": {"type": "Polygon", "coordinates": [[[120.53788115761941, 31.444031712], [120.5377758626232, 31.443941248], [120.53788115761941, 31.443941248], [120.53788115761941, 31.444031712]]]}}, {"type": "Feature", "properties": {"area_ha": 0.0, "mean": null}, "geometry": {"type": "Polygon", "coordinates": [[[120.53851292759667, 31.440955936], [120.53840763260045, 31.440865472], [120.53851292759667, 31.440865472], [120.53851292759667, 31.440955936]]]}}, {"type": "Feature", "properties": {"area_ha": 0.0, "mean": null}, "geometry": {"type": "Polygon", "coordinates": [[[120.56252018673237, 31.439779904], [120.56241489173617, 31.439689440000002], [120.56252018673237, 31.439689440000002], [120.56252018673237, 31.439779904]]]}}, {"type": "Feature", "properties": {"area_ha": 0.12, "mean": 0.3192}, "geometry": {"type": "Polygon", "coordinates": [[[120.58484272592874, 31.43335696], [120.5843162509477, 31.432995104], [120.58494802092494, 31.432995104], [120.58484272592874, 31.43335696]]]}}, {"type": "Feature", "properties": {"area_ha": 0.0, "mean": null}, "geometry": {"type": "Polygon", "coordinates": [[[120.59905755041699, 31.432542784], [120.59895225542078, 31.43245232], [120.59905755041699, 31.43245232], [120.59905755041699, 31.432542784]]]}}, {"type": "Feature", "properties": {"area_ha": 0.0, "mean": null}, "geometry": {"type": "Polygon", "coordinates": [[[120.51798040333587, 31.432090464], [120.51787510833965, 31.432000000000002], [120.51798040333587, 31.432000000000002], [120.51798040333587, 31.432090464]]]}}, {"type": "Feature", "properties": {"area_ha": 0.01, "mean": 0.2004}, "geometry": {"type": "Polygon", "coordinates": [[[120.51787510833965, 31.432000000000002], [120.51776981334345, 31.431819072], [120.51787510833965, 31.431819072], [120.51787510833965, 31.432000000000002]]]}}, {"type": "Feature", "properties": {"area_ha": 0.01, "mean": 0.2796}, "geometry": {"type": "Polygon", "coordinates": [[[120.51808569833207, 31.432000000000002], [120.51798040333587, 31.431819072], [120.51808569833207, 31.431819072], [120.51808569833207, 31.432000000000002]]]}}, {"type": "Feature", "properties": {"area_ha": 0.0, "mean": null}, "geometry": {"type": "Polygon", "coordinates": [[[120.51819099332829, 31.431819072], [120.51808569833207, 31.431728608], [120.51819099332829, 31.431728608], [120.51819099332829, 31.431819072]]]}}, {"type": "Feature", "properties": {"area_ha": 0.01, "mean": 0.1315}, "geometry": {"type": "Polygon", "coordinates": [[[120.59884696042457, 31.431819072], [120.59874166542836, 31.43154768], [120.59884696042457, 31.43154768], [120.59884696042457, 31.431819072]]]}}, {"type": "Feature", "properties": {"area_ha": 0.02, "mean": 0.3422}, "geometry": {"type": "Polygon", "coordinates": [[[120.5184015833207, 31.431728608], [120.51829628832449, 31.43154768], [120.51850687831691, 31.43154768], [120.5184015833207, 31.431728608]]]}}, {"type": "Feature", "properties": {"area_ha": 0.0, "mean": null}, "geometry": {"type": "Polygon", "coordinates": [[[120.51787510833965, 31.43154768], [120.51776981334345, 31.431457216000002], [120.51787510833965, 31.431457216000002], [120.51787510833965, 31.43154768]]]}}, {"type": "Feature", "properties": {"area_ha": 0.0, "mean": null}, "geometry": {"type": "Polygon", "coordinates": [[[120.51776981334345, 31.431457216000002], [120.51766451834723, 31.431366752], [120.51776981334345, 31.431366752], [120.51776981334345, 31.431457216000002]]]}}, {"type": "Feature", "properties": {"area_ha": 0.02, "mean": 0.211}, "geometry": {"type": "Polygon", "coordinates": [[[120.52008630326004, 31.431728608], [120.51998100826384, 31.431276288], [120.52008630326004, 31.431276288], [120.52008630326004, 31.431728608]]]}}, {"type": "Feature", "properties": {"area_ha": 0.09, "mean": 0.3194}, "geometry": {"type": "Polygon", "coordinates": [[[120.51903335329796, 31.431638144], [120.51861217331312, 31.431457216000002], [120.51924394329038, 31.431276288], [120.51903335329796, 31.431638144]]]}}, {"type": "Feature", "properties": {"area_ha": 0.0, "mean": null}, "geometry": {"type": "Polygon", "coordinates": [[[120.59874166542836, 31.431457216000002], [120.59853107543594, 31.431276288], [120.59874166542836, 31.431366752], [120.59874166542836, 31.431457216000002]]]}}, {"type": "Feature", "properties": {"area_ha": 0.03, "mean": 0.1498}, "geometry": {"type": "Polygon", "coordinates": [[[120.59853107543594, 31.431276288], [120.59842578043973, 31.431004896], [120.59863637043215, 31.431004896], [120.59853107543594, 31.431276288]]]}}, {"type": "Feature", "properties": {"area_ha": 0.0, "mean": null}, "geometry": {"type": "Polygon", "coordinates": [[[120.51829628832449, 31.430100256], [120.51819099332829, 31.430009792], [120.51829628832449, 31.430009792], [120.51829628832449, 31.430100256]]]}}, {"type": "Feature", "properties": {"area_ha": 0.01, "mean": 0.1433}, "geometry": {"type": "Polygon", "coordinates": [[[120.52019159825626, 31.430100256], [120.52008630326004, 31.429919328], [120.52019159825626, 31.429919328], [120.52019159825626, 31.430100256]]]}}, {"type": "Feature", "properties": {"area_ha": 0.0, "mean": null}, "geometry": {"type": "Polygon", "coordinates": [[[120.51850687831691, 31.429647936000002], [120.5184015833207, 31.429557472], [120.51850687831691, 31.429557472], [120.51850687831691, 31.429647936000002]]]}}, {"type": "Feature", "properties": {"area_ha": 0.02, "mean": 0.2515}, "geometry": {"type": "Polygon", "coordinates": [[[120.5787356161486, 31.429647936000002], [120.57863032115239, 31.429467008], [120.57884091114481, 31.429467008], [120.5787356161486, 31.429647936000002]]]}}, {"type": "Feature", "properties": {"area_ha": 0.06, "mean": 0.1778}, "geometry": {"type": "Polygon", "coordinates": [[[120.51998100826384, 31.429557472], [120.5194545332828, 31.429376544], [120.51966512327522, 31.429195616], [120.51998100826384, 31.429557472]]]}}, {"type": "Feature", "properties": {"area_ha": 0.0, "mean": null}, "geometry": {"type": "Polygon", "coordinates": [[[120.51977041827142, 31.429195616], [120.51966512327522, 31.429105152], [120.51977041827142, 31.429105152], [120.51977041827142, 31.429195616]]]}}, {"type": "Feature", "properties": {"area_ha": 0.01, "mean": 0.2272}, "geometry": {"type": "Polygon", "coordinates": [[[120.57199673639121, 31.429105152], [120.571891441395, 31.42883376], [120.57199673639121, 31.42883376], [120.57199673639121, 31.429105152]]]}}, {"type": "Feature", "properties": {"area_ha": 0.0, "mean": null}, "geometry": {"type": "Polygon", "coordinates": [[[120.51903335329796, 31.428924224], [120.51892805830175, 31.42883376], [120.51903335329796, 31.42883376], [120.51903335329796, 31.428924224]]]}}, {"type": "Feature", "properties": {"area_ha": 0.04, "mean": 0.1722}, "geometry": {"type": "Polygon", "coordinates": [[[120.51934923828658, 31.42883376], [120.51934923828658, 31.428652832], [120.51977041827142, 31.428743296], [120.51934923828658, 31.42883376]]]}}, {"type": "Feature", "properties": {"area_ha": 0.0, "mean": null}, "geometry": {"type": "Polygon", "coordinates": [[[120.57220732638363, 31.428652832], [120.57210203138742, 31.428562368], [120.57220732638363, 31.428562368], [120.57220732638363, 31.428652832]]]}}, {"type": "Feature", "properties": {"area_ha": 0.09, "mean": 0.2319}, "geometry": {"type": "Polygon", "coordinates": [[[120.5206127782411, 31.428743296], [120.51998100826384, 31.42883376], [120.5206127782411, 31.428471904000002], [120.5206127782411, 31.428743296]]]}}, {"type": "Feature", "properties": {"area_ha": 0.0, "mean": null}, "geometry": {"type": "Polygon", "coordinates": [[[120.57231262137984, 31.428471904000002], [120.57220732638363, 31.42838144], [120.57231262137984, 31.42838144], [120.57231262137984, 31.428471904000002]]]}}, {"type": "Feature", "properties": {"area_ha": 0.02, "mean": 0.1814}, "geometry": {"type": "Polygon", "coordinates": [[[120.51913864829417, 31.428743296], [120.51903335329796, 31.428290976], [120.51913864829417, 31.428290976], [120.51913864829417, 31.428743296]]]}}, {"type": "Feature", "properties": {"area_ha": 0.0, "mean": null}, "geometry": {"type": "Polygon", "coordinates": [[[120.54767359226688, 31.428290976], [120.54756829727066, 31.428200512], [120.54767359226688, 31.428200512], [120.54767359226688, 31.428290976]]]}}, {"type": "Feature", "properties": {"area_ha": 0.01, "mean": 0.1527}, "geometry": {"type": "Polygon", "coordinates": [[[120.5206127782411, 31.428110048], [120.52050748324488, 31.42792912], [120.5206127782411, 31.42792912], [120.5206127782411, 31.428110048]]]}}, {"type": "Feature", "properties": {"area_ha": 0.0, "mean": null}, "geometry": {"type": "Polygon", "coordinates": [[[120.5207180732373, 31.42792912], [120.5206127782411, 31.427838656], [120.5207180732373, 31.427838656], [120.5207180732373, 31.42792912]]]}}, {"type": "Feature", "properties": {"area_ha": 0.0, "mean": null}, "geometry": {"type": "Polygon", "coordinates": [[[120.54051353252464, 31.42792912], [120.54040823752844, 31.427838656], [120.54051353252464, 31.427838656], [120.54051353252464, 31.42792912]]]}}, {"type": "Feature", "properties": {"area_ha": 0.02, "mean": 0.1314}, "geometry": {"type": "Polygon", "coordinates": [[[120.5194545332828, 31.428019584], [120.51924394329038, 31.427838656], [120.5194545332828, 31.427748192], [120.5194545332828, 31.428019584]]]}}, {"type": "Feature", "properties": {"area_ha": 0.0, "mean": null}, "geometry": {"type": "Polygon", "coordinates": [[[120.52040218824868, 31.427748192], [120.52029689325246, 31.427657728], [120.52040218824868, 31.427657728], [120.52040218824868, 31.427748192]]]}}, {"type": "Feature", "properties": {"area_ha": 0.0, "mean": null}, "geometry": {"type": "Polygon", "coordinates": [[[120.54872654222896, 31.427748192], [120.54862124723276, 31.427657728], [120.54872654222896, 31.427657728], [120.54872654222896, 31.427748192]]]}}, {"type": "Feature", "properties": {"area_ha": 0.0, "mean": null}, "geometry": {"type": "Polygon", "coordinates": [[[120.57357616133434, 31.427748192], [120.57347086633814, 31.427657728], [120.57357616133434, 31.427657728], [120.57357616133434, 31.427748192]]]}}, {"type": "Feature", "properties": {"area_ha": 0.01, "mean": 0.204}, "geometry": {"type": "Polygon", "coordinates": [[[120.57378675132676, 31.427657728], [120.57357616133434, 31.427567264], [120.57378675132676, 31.427567264], [120.57378675132676, 31.427657728]]]}}, {"type": "Feature", "properties": {"area_ha": 0.0, "mean": null}, "geometry": {"type": "Polygon", "coordinates": [[[120.57389204632298, 31.427567264], [120.57378675132676, 31.4274768], [120.57389204632298, 31.4274768], [120.57389204632298, 31.427567264]]]}}, {"type": "Feature", "properties": {"area_ha": 0.07, "mean": 0.2105}, "geometry": {"type": "Polygon", "coordinates": [[[120.52156043320699, 31.427657728], [120.52113925322215, 31.4274768], [120.52166572820319, 31.427386336], [120.52156043320699, 31.427657728]]]}}, {"type": "Feature", "properties": {"area_ha": 0.01, "mean": 0.1494}, "geometry": {"type": "Polygon", "coordinates": [[[120.51977041827142, 31.427567264], [120.51966512327522, 31.427386336], [120.51977041827142, 31.427386336], [120.51977041827142, 31.427567264]]]}}, {"type": "Feature", "properties": {"area_ha": 0.0, "mean": null}, "geometry": {"type": "Polygon", "coordinates": [[[120.52303456315391, 31.4274768], [120.5229292681577, 31.427386336], [120.52303456315391, 31.427386336], [120.52303456315391, 31.4274768]]]}}, {"type": "Feature", "properties": {"area_ha": 0.01, "mean": 0.2643}, "geometry": {"type": "Polygon", "coordinates": [[[120.57705089620926, 31.427386336], [120.57673501122062, 31.427295872000002], [120.57705089620926, 31.427295872000002], [120.57705089620926, 31.427386336]]]}}, {"type": "Feature", "properties": {"area_ha": 0.07, "mean": 0.17}, "geometry": {"type": "Polygon", "coordinates": [[[120.52040218824868, 31.427567264], [120.52008630326004, 31.427205408], [120.52050748324488, 31.427295872000002], [120.52040218824868, 31.427567264]]]}}, {"type": "Feature", "properties": {"area_ha": 0.04, "mean": 0.1907}, "geometry": {"type": "Polygon", "coordinates": [[[120.57673501122062, 31.427205408], [120.57589265125095, 31.427295872000002], [120.57589265125095, 31.427205408], [120.57673501122062, 31.427205408]]]}}, {"type": "Feature", "properties": {"area_ha": 0.01, "mean": 0.2489}, "geometry": {"type": "Polygon", "coordinates": [[[120.57568206125853, 31.427205408], [120.57547147126611, 31.427114944], [120.57568206125853, 31.427114944], [120.57568206125853, 31.427205408]]]}}, {"type": "Feature", "properties": {"area_ha": 0.01, "mean": 0.2364}, "geometry": {"type": "Polygon", "coordinates": [[[120.57547147126611, 31.427114944], [120.57515558627749, 31.42702448], [120.57547147126611, 31.42702448], [120.57547147126611, 31.427114944]]]}}, {"type": "Feature", "properties": {"area_ha": 0.01, "mean": 0.2388}, "geometry": {"type": "Polygon", "coordinates": [[[120.57515558627749, 31.42702448], [120.57483970128887, 31.426934016], [120.57515558627749, 31.426934016], [120.57515558627749, 31.42702448]]]}}, {"type": "Feature", "properties": {"area_ha": 0.0, "mean": null}, "geometry": {"type": "Polygon", "coordinates": [[[120.51808569833207, 31.426843552], [120.51798040333587, 31.426753088], [120.51808569833207, 31.426753088], [120.51808569833207, 31.426843552]]]}}, {"type": "Feature", "properties": {"area_ha": 0.0, "mean": null}, "geometry": {"type": "Polygon", "coordinates": [[[120.52903637793784, 31.425848448], [120.52893108294163, 31.425757984], [120.52903637793784, 31.425757984], [120.52903637793784, 31.425848448]]]}}, {"type": "Feature", "properties": {"area_ha": 0.0, "mean": null}, "geometry": {"type": "Polygon", "coordinates": [[[120.57841973115997, 31.425396128], [120.57831443616377, 31.425305664], [120.57841973115997, 31.425305664], [120.57841973115997, 31.425396128]]]}}, {"type": "Feature", "properties": {"area_ha": 0.0, "mean": null}, "geometry": {"type": "Polygon", "coordinates": [[[120.54072412251706, 31.425034272], [120.54061882752086, 31.424943808000002], [120.54072412251706, 31.424943808000002], [120.54072412251706, 31.425034272]]]}}, {"type": "Feature", "properties": {"area_ha": 0.0, "mean": null}, "geometry": {"type": "Polygon", "coordinates": [[[120.54040823752844, 31.424220096], [120.54030294253222, 31.424129632], [120.54040823752844, 31.424129632], [120.54040823752844, 31.424220096]]]}}, {"type": "Feature", "properties": {"area_ha": 0.0, "mean": null}, "geometry": {"type": "Polygon", "coordinates": [[[120.58326330098559, 31.422863136], [120.58315800598939, 31.422772672], [120.58326330098559, 31.422772672], [120.58326330098559, 31.422863136]]]}}, {"type": "Feature", "properties": {"area_ha": 0.0, "mean": null}, "geometry": {"type": "Polygon", "coordinates": [[[120.59337162062168, 31.422682208], [120.59326632562548, 31.422591744], [120.59337162062168, 31.422591744], [120.59337162062168, 31.422682208]]]}}, {"type": "Feature", "properties": {"area_ha": 0.02, "mean": 0.3446}, "geometry": {"type": "Polygon", "coordinates": [[[120.5935822106141, 31.422229888], [120.5934769156179, 31.422320352], [120.59326632562548, 31.422139424], [120.5935822106141, 31.422229888]]]}}, {"type": "Feature", "properties": {"area_ha": 0.0, "mean": null}, "geometry": {"type": "Polygon", "coordinates": [[[120.55051655716453, 31.420963392], [120.55041126216831, 31.420872928], [120.55051655716453, 31.420872928], [120.55051655716453, 31.420963392]]]}}, {"type": "Feature", "properties": {"area_ha": 0.01, "mean": 0.1167}, "geometry": {"type": "Polygon", "coordinates": [[[120.54072412251706, 31.419696896], [120.54051353252464, 31.419515968], [120.54072412251706, 31.419515968], [120.54072412251706, 31.419696896]]]}}, {"type": "Feature", "properties": {"area_ha": 0.01, "mean": 0.1762}, "geometry": {"type": "Polygon", "coordinates": [[[120.55072714715695, 31.419606432000002], [120.55062185216073, 31.41933504], [120.55072714715695, 31.41933504], [120.55072714715695, 31.419606432000002]]]}}, {"type": "Feature", "properties": {"area_ha": 0.04, "mean": 0.1375}, "geometry": {"type": "Polygon", "coordinates": [[[120.54019764753602, 31.417435296], [120.5398817625474, 31.417254368000002], [120.54030294253222, 31.417254368000002], [120.54019764753602, 31.417435296]]]}}, {"type": "Feature", "properties": {"area_ha": 0.0, "mean": null}, "geometry": {"type": "Polygon", "coordinates": [[[120.5398817625474, 31.417163904], [120.53977646755118, 31.41707344], [120.5398817625474, 31.41707344], [120.5398817625474, 31.417163904]]]}}, {"type": "Feature", "properties": {"area_ha": 0.0, "mean": null}, "geometry": {"type": "Polygon", "coordinates": [[[120.55314893206976, 31.416530656], [120.55304363707354, 31.416440192], [120.55314893206976, 31.416440192], [120.55314893206976, 31.416530656]]]}}, {"type": "Feature", "properties": {"area_ha": 0.0, "mean": null}, "geometry": {"type": "Polygon", "coordinates": [[[120.55757132191054, 31.41571648], [120.55746602691433, 31.415626016], [120.55757132191054, 31.415626016], [120.55757132191054, 31.41571648]]]}}, {"type": "Feature", "properties": {"area_ha": 0.01, "mean": 0.1764}, "geometry": {"type": "Polygon", "coordinates": [[[120.53040521288855, 31.415535552], [120.53008932789993, 31.415445088000002], [120.53040521288855, 31.415445088000002], [120.53040521288855, 31.415535552]]]}}, {"type": "Feature", "properties": {"area_ha": 0.0, "mean": null}, "geometry": {"type": "Polygon", "coordinates": [[[120.56094076178924, 31.415354624], [120.56083546679302, 31.41526416], [120.56094076178924, 31.41526416], [120.56094076178924, 31.415354624]]]}}, {"type": "Feature", "properties": {"area_ha": 0.0, "mean": null}, "geometry": {"type": "Polygon", "coordinates": [[[120.52198161319181, 31.410107712], [120.52187631819561, 31.410017248], [120.52198161319181, 31.410017248], [120.52198161319181, 31.410107712]]]}}]}