{"type": "FeatureCollection", "features": [{"type": "Feature", "properties": {"name": "黄埭镇水体边界 (JRC参考+S2 10m细化)"}, "geometry": {"type": "MultiPolygon", "coordinates": [[[[120.52187631819561, 31.410107712], [120.52450869310084, 31.411012352], [120.52198161319181, 31.409022144], [120.52187631819561, 31.410107712]]], [[[120.52461398809704, 31.41119328], [120.52461398809704, 31.411102816], [120.52450869310084, 31.411102816], [120.52461398809704, 31.41119328]]], [[[120.52935226292647, 31.414721376], [120.52598282304777, 31.412188384], [120.52629870803639, 31.412821632], [120.52935226292647, 31.414721376]]], [[[120.53040521288855, 31.415445088000002], [120.52956285291889, 31.414992768], [120.53008932789993, 31.415445088000002], [120.53040521288855, 31.415445088000002]]], [[[120.53335347278241, 31.4252152], [120.53703879764974, 31.42476288], [120.53261640780894, 31.425034272], [120.53335347278241, 31.4252152]]], [[[120.53008932789993, 31.425757984], [120.52850990295678, 31.425938912], [120.5287204929492, 31.426210304], [120.53008932789993, 31.425757984]]], [[[120.51819099332829, 31.427748192], [120.51808569833207, 31.426753088], [120.51755922335103, 31.427114944], [120.51819099332829, 31.427748192]]], [[[120.52345574313874, 31.427567264], [120.52366633313116, 31.427295872000002], [120.52313985815012, 31.427205408], [120.52345574313874, 31.427567264]]], [[[120.52008630326004, 31.431728608], [120.52156043320699, 31.427295872000002], [120.519559828279, 31.427205408], [120.52008630326004, 31.431728608]]], [[[120.51745392835483, 31.433266496], [120.51734863335861, 31.432995104], [120.51682215837756, 31.43335696], [120.51745392835483, 31.433266496]]], [[[120.51692745337377, 31.435528096], [120.51692745337377, 31.434985312000002], [120.51629568339652, 31.435437632], [120.51692745337377, 31.435528096]]], [[[120.49207783426839, 31.452535328], [120.49081429431388, 31.452535328], [120.49165665428356, 31.453078112], [120.49207783426839, 31.452535328]]], [[[120.53524878271418, 31.457963168], [120.53524878271418, 31.457510848000002], [120.53514348771797, 31.457510848000002], [120.53524878271418, 31.457963168]]], [[[120.51071504859743, 31.45823456], [120.51082034359364, 31.458053632000002], [120.50997798362397, 31.457963168], [120.51071504859743, 31.45823456]]], [[[120.53482760272935, 31.460315232], [120.53482760272935, 31.460134304], [120.53472230773313, 31.460134304], [120.53482760272935, 31.460315232]]], [[[120.49492079916604, 31.457239456], [120.49818494404853, 31.46004384], [120.50913562365429, 31.46049616], [120.51218917854436, 31.467009568], [120.52082336823351, 31.470356736], [120.53230052282032, 31.46863792], [120.52461398809704, 31.466104928], [120.5207180732373, 31.469723488], [120.50903032865808, 31.459953376], [120.49492079916604, 31.457239456]]], [[[120.52629870803639, 31.464567040000002], [120.52619341304019, 31.464205184], [120.52566693805915, 31.464476576], [120.52629870803639, 31.464567040000002]]], [[[120.53377465276725, 31.465200288000002], [120.53377465276725, 31.465109824], [120.53366935777105, 31.465109824], [120.53377465276725, 31.465200288000002]]], [[[120.53314288279, 31.466557248], [120.53377465276725, 31.465290752], [120.53282699780137, 31.466285856], [120.53314288279, 31.466557248]]], [[[120.53124757285823, 31.467823744], [120.53135286785444, 31.466738176], [120.52903637793784, 31.466919104000002], [120.53124757285823, 31.467823744]]], [[[120.53261640780894, 31.467461888], [120.53261640780894, 31.467371424], [120.53251111281274, 31.467371424], [120.53261640780894, 31.467461888]]], [[[120.53745997763457, 31.416530656], [120.5366176176649, 31.416440192], [120.53724938764216, 31.41662112], [120.53745997763457, 31.416530656]]], [[[120.54167177748295, 31.417435296], [120.53977646755118, 31.41707344], [120.5412505974981, 31.418159008], [120.54167177748295, 31.417435296]]], [[[120.5411453025019, 31.426119840000002], [120.54104000750569, 31.425577056], [120.54082941751327, 31.42566752], [120.5411453025019, 31.426119840000002]]], [[[120.54104000750569, 31.42838144], [120.54093471250948, 31.42657216], [120.54040823752844, 31.427838656], [120.54104000750569, 31.42838144]]], [[[120.54862124723276, 31.42928608], [120.54830536224412, 31.42883376], [120.5478841822593, 31.429195616], [120.54862124723276, 31.42928608]]], [[[120.54598887232753, 31.43064304], [120.54619946231995, 31.43019072], [120.54588357733131, 31.430100256], [120.54598887232753, 31.43064304]]], [[[120.5411453025019, 31.432361856], [120.54040823752844, 31.431638144], [120.5399870575436, 31.432000000000002], [120.5411453025019, 31.432361856]]], [[[120.53977646755118, 31.435709024], [120.53967117255497, 31.43516624], [120.53946058256255, 31.435256704], [120.53977646755118, 31.435709024]]], [[[120.53903940257771, 31.439689440000002], [120.53893410758151, 31.439146656000002], [120.53872351758909, 31.43923712], [120.53903940257771, 31.439689440000002]]], [[[120.53840763260045, 31.440865472], [120.5388288125853, 31.440955936], [120.53872351758909, 31.440232224], [120.53840763260045, 31.440865472]]], [[[120.53851292759667, 31.442312896], [120.53840763260045, 31.442041504], [120.53819704260805, 31.442131968], [120.53851292759667, 31.442312896]]], [[[120.53840763260045, 31.443036608], [120.53830233760425, 31.442493824], [120.53798645261563, 31.442946144], [120.53840763260045, 31.443036608]]], [[[120.53809174761183, 31.44466496], [120.53809174761183, 31.443398464], [120.5377758626232, 31.443941248], [120.53809174761183, 31.44466496]]], [[[120.53946058256255, 31.445840992], [120.53893410758151, 31.445207744], [120.53861822259287, 31.445388672], [120.53946058256255, 31.445840992]]], [[[120.54135589249432, 31.44602192], [120.54146118749053, 31.445750528], [120.5411453025019, 31.445660064000002], [120.54135589249432, 31.44602192]]], [[[120.54061882752086, 31.446293312], [120.54082941751327, 31.44602192], [120.5400923525398, 31.445931456], [120.54061882752086, 31.446293312]]], [[[120.5377758626232, 31.447469344], [120.53756527263079, 31.446293312], [120.53714409264595, 31.447288416], [120.5377758626232, 31.447469344]]], [[[120.53630173267628, 31.453439968], [120.53619643768006, 31.453168576], [120.53598584768764, 31.45325904], [120.53630173267628, 31.453439968]]], [[[120.53556466770281, 31.456334816000002], [120.53556466770281, 31.456063424], [120.5354593727066, 31.456063424], [120.53556466770281, 31.456334816000002]]], [[[120.5354593727066, 31.456606208], [120.5354593727066, 31.456334816000002], [120.5353540777104, 31.456334816000002], [120.5354593727066, 31.456606208]]], [[[120.5353540777104, 31.457510848000002], [120.5353540777104, 31.457148992], [120.53524878271418, 31.457148992], [120.5353540777104, 31.457510848000002]]], [[[120.56115135178166, 31.41481184], [120.56115135178166, 31.414721376], [120.56104605678544, 31.414721376], [120.56115135178166, 31.41481184]]], [[[120.56146723677028, 31.417254368000002], [120.56146723677028, 31.417163904], [120.56136194177408, 31.417163904], [120.56146723677028, 31.417254368000002]]], [[[120.56146723677028, 31.417254368000002], [120.5615725317665, 31.417344832], [120.5615725317665, 31.417254368000002], [120.56146723677028, 31.417254368000002]]], [[[120.56357313669447, 31.418249472], [120.56294136671721, 31.417887616], [120.56283607172101, 31.418068544], [120.56357313669447, 31.418249472]]], [[[120.56104605678544, 31.41481184], [120.54977949219106, 31.41662112], [120.54304061243367, 31.422139424], [120.56104605678544, 31.41481184]]], [[[120.5935822106141, 31.42250128], [120.5934769156179, 31.422139424], [120.59305573563306, 31.422229888], [120.5935822106141, 31.42250128]]], [[[120.5934769156179, 31.423496384], [120.59337162062168, 31.423224992], [120.59316103062928, 31.423315456], [120.5934769156179, 31.423496384]]], [[[120.5776826661865, 31.427657728], [120.58631685587567, 31.41978736], [120.56999613146323, 31.428924224], [120.5776826661865, 31.427657728]]], [[[120.58020974609553, 31.428290976], [120.57915679613343, 31.426481696], [120.57926209112965, 31.427386336], [120.58020974609553, 31.428290976]]], [[[120.57884091114481, 31.429467008], [120.57852502615619, 31.429105152], [120.57841973115997, 31.429467008], [120.57884091114481, 31.429467008]]], [[[120.59958402539803, 31.431276288], [120.59926814040941, 31.430823968000002], [120.59832048544352, 31.43109536], [120.59958402539803, 31.431276288]]], [[[120.56715316656559, 31.431276288], [120.56736375655801, 31.431004896], [120.56704787156937, 31.430914432], [120.56715316656559, 31.431276288]]], [[[120.60284817028052, 31.43290464], [120.60295346527673, 31.432633248000002], [120.60221640030326, 31.432542784], [120.60284817028052, 31.43290464]]], [[[120.58484272592874, 31.43335696], [120.58494802092494, 31.432995104], [120.5843162509477, 31.432995104], [120.58484272592874, 31.43335696]]], [[[120.60000520538287, 31.43471392], [120.59937343540561, 31.4342616], [120.59926814040941, 31.434623456], [120.60000520538287, 31.43471392]]], [[[120.58294741599697, 31.437699232], [120.58336859598181, 31.437246912], [120.58252623601213, 31.436885056], [120.58294741599697, 31.437699232]]], [[[120.57947268112207, 31.438965728], [120.5798938611069, 31.438513408000002], [120.57905150113723, 31.438603872], [120.57947268112207, 31.438965728]]], [[[120.56273077672479, 31.439689440000002], [120.56252018673237, 31.439418048], [120.56230959673996, 31.439508512], [120.56273077672479, 31.439689440000002]]], [[[120.54977949219106, 31.440865472], [120.54925301721, 31.440775008], [120.5490424272176, 31.441136864], [120.54977949219106, 31.440865472]]]]}}]}