{"type": "FeatureCollection", "features": [{"type": "Feature", "properties": {"area_ha": 0.0, "mean": null}, "geometry": {"type": "Polygon", "coordinates": [[[120.5206127782411, 31.469633024], [120.52050748324488, 31.46954256], [120.5206127782411, 31.46954256], [120.5206127782411, 31.469633024]]]}}, {"type": "Feature", "properties": {"area_ha": 0.0, "mean": null}, "geometry": {"type": "Polygon", "coordinates": [[[120.52040218824868, 31.46954256], [120.52029689325246, 31.469452096], [120.52040218824868, 31.469452096], [120.52040218824868, 31.46954256]]]}}, {"type": "Feature", "properties": {"area_ha": 0.0, "mean": null}, "geometry": {"type": "Polygon", "coordinates": [[[120.52187631819561, 31.46954256], [120.52177102319939, 31.469452096], [120.52187631819561, 31.469452096], [120.52187631819561, 31.46954256]]]}}, {"type": "Feature", "properties": {"area_ha": 0.02, "mean": 0.2927}, "geometry": {"type": "Polygon", "coordinates": [[[120.52019159825626, 31.469452096], [120.51977041827142, 31.469361632000002], [120.52019159825626, 31.469361632000002], [120.52019159825626, 31.469452096]]]}}, {"type": "Feature", "properties": {"area_ha": 0.0, "mean": null}, "geometry": {"type": "Polygon", "coordinates": [[[120.51966512327522, 31.469361632000002], [120.519559828279, 31.469271168000002], [120.51966512327522, 31.469271168000002], [120.51966512327522, 31.469361632000002]]]}}, {"type": "Feature", "properties": {"area_ha": 0.01, "mean": 0.3018}, "geometry": {"type": "Polygon", "coordinates": [[[120.5194545332828, 31.469271168000002], [120.51924394329038, 31.469180704], [120.5194545332828, 31.469180704], [120.5194545332828, 31.469271168000002]]]}}, {"type": "Feature", "properties": {"area_ha": 0.0, "mean": null}, "geometry": {"type": "Polygon", "coordinates": [[[120.51892805830175, 31.46909024], [120.51882276330554, 31.468999776], [120.51892805830175, 31.468999776], [120.51892805830175, 31.46909024]]]}}, {"type": "Feature", "properties": {"area_ha": 0.0, "mean": null}, "geometry": {"type": "Polygon", "coordinates": [[[120.52250808817286, 31.46909024], [120.52240279317665, 31.468999776], [120.52250808817286, 31.468999776], [120.52250808817286, 31.46909024]]]}}, {"type": "Feature", "properties": {"area_ha": 0.01, "mean": 0.2589}, "geometry": {"type": "Polygon", "coordinates": [[[120.51871746830933, 31.468999776], [120.51850687831691, 31.468909312], [120.51871746830933, 31.468909312], [120.51871746830933, 31.468999776]]]}}, {"type": "Feature", "properties": {"area_ha": 0.0, "mean": null}, "geometry": {"type": "Polygon", "coordinates": [[[120.52261338316907, 31.468999776], [120.52250808817286, 31.468909312], [120.52261338316907, 31.468909312], [120.52261338316907, 31.468999776]]]}}, {"type": "Feature", "properties": {"area_ha": 0.0, "mean": null}, "geometry": {"type": "Polygon", "coordinates": [[[120.52935226292647, 31.468999776], [120.52924696793025, 31.468909312], [120.52935226292647, 31.468909312], [120.52935226292647, 31.468999776]]]}}, {"type": "Feature", "properties": {"area_ha": 0.0, "mean": null}, "geometry": {"type": "Polygon", "coordinates": [[[120.52956285291889, 31.468999776], [120.52945755792267, 31.468909312], [120.52956285291889, 31.468909312], [120.52956285291889, 31.468999776]]]}}, {"type": "Feature", "properties": {"area_ha": 0.0, "mean": null}, "geometry": {"type": "Polygon", "coordinates": [[[120.53103698286581, 31.468999776], [120.5309316878696, 31.468909312], [120.53103698286581, 31.468909312], [120.53103698286581, 31.468999776]]]}}, {"type": "Feature", "properties": {"area_ha": 0.0, "mean": null}, "geometry": {"type": "Polygon", "coordinates": [[[120.5184015833207, 31.468909312], [120.51829628832449, 31.468818848], [120.5184015833207, 31.468818848], [120.5184015833207, 31.468909312]]]}}, {"type": "Feature", "properties": {"area_ha": 0.0, "mean": null}, "geometry": {"type": "Polygon", "coordinates": [[[120.51819099332829, 31.468818848], [120.51808569833207, 31.468728384000002], [120.51819099332829, 31.468728384000002], [120.51819099332829, 31.468818848]]]}}, {"type": "Feature", "properties": {"area_ha": 0.0, "mean": null}, "geometry": {"type": "Polygon", "coordinates": [[[120.51798040333587, 31.468728384000002], [120.51787510833965, 31.46863792], [120.51798040333587, 31.46863792], [120.51798040333587, 31.468728384000002]]]}}, {"type": "Feature", "properties": {"area_ha": 0.0, "mean": null}, "geometry": {"type": "Polygon", "coordinates": [[[120.53177404783928, 31.468728384000002], [120.53166875284306, 31.46863792], [120.53177404783928, 31.46863792], [120.53177404783928, 31.468728384000002]]]}}, {"type": "Feature", "properties": {"area_ha": 0.0, "mean": null}, "geometry": {"type": "Polygon", "coordinates": [[[120.51776981334345, 31.46863792], [120.51766451834723, 31.468547456], [120.51776981334345, 31.468547456], [120.51776981334345, 31.46863792]]]}}, {"type": "Feature", "properties": {"area_ha": 0.0, "mean": null}, "geometry": {"type": "Polygon", "coordinates": [[[120.52271867816528, 31.468547456], [120.52261338316907, 31.468456992], [120.52271867816528, 31.468456992], [120.52271867816528, 31.468547456]]]}}, {"type": "Feature", "properties": {"area_ha": 0.0, "mean": null}, "geometry": {"type": "Polygon", "coordinates": [[[120.528615197953, 31.468547456], [120.52850990295678, 31.468456992], [120.528615197953, 31.468456992], [120.528615197953, 31.468547456]]]}}, {"type": "Feature", "properties": {"area_ha": 0.0, "mean": null}, "geometry": {"type": "Polygon", "coordinates": [[[120.51745392835483, 31.468456992], [120.51734863335861, 31.468366528], [120.51745392835483, 31.468366528], [120.51745392835483, 31.468456992]]]}}, {"type": "Feature", "properties": {"area_ha": 0.0, "mean": null}, "geometry": {"type": "Polygon", "coordinates": [[[120.52850990295678, 31.468456992], [120.52840460796058, 31.468366528], [120.52850990295678, 31.468366528], [120.52850990295678, 31.468456992]]]}}, {"type": "Feature", "properties": {"area_ha": 0.0, "mean": null}, "geometry": {"type": "Polygon", "coordinates": [[[120.5172433383624, 31.468366528], [120.51713804336619, 31.468276064], [120.5172433383624, 31.468276064], [120.5172433383624, 31.468366528]]]}}, {"type": "Feature", "properties": {"area_ha": 0.01, "mean": 0.3656}, "geometry": {"type": "Polygon", "coordinates": [[[120.52840460796058, 31.468366528], [120.52829931296438, 31.4681856], [120.52840460796058, 31.4681856], [120.52840460796058, 31.468366528]]]}}, {"type": "Feature", "properties": {"area_ha": 0.0, "mean": null}, "geometry": {"type": "Polygon", "coordinates": [[[120.51713804336619, 31.468276064], [120.51703274836999, 31.4681856], [120.51713804336619, 31.4681856], [120.51713804336619, 31.468276064]]]}}, {"type": "Feature", "properties": {"area_ha": 0.0, "mean": null}, "geometry": {"type": "Polygon", "coordinates": [[[120.52829931296438, 31.468095136000002], [120.52819401796816, 31.468004672], [120.52829931296438, 31.468004672], [120.52829931296438, 31.468095136000002]]]}}, {"type": "Feature", "properties": {"area_ha": 0.0, "mean": null}, "geometry": {"type": "Polygon", "coordinates": [[[120.51661156838514, 31.468004672], [120.51650627338894, 31.467914208], [120.51661156838514, 31.467914208], [120.51661156838514, 31.468004672]]]}}, {"type": "Feature", "properties": {"area_ha": 0.0, "mean": null}, "geometry": {"type": "Polygon", "coordinates": [[[120.52819401796816, 31.468004672], [120.52808872297196, 31.467914208], [120.52819401796816, 31.467914208], [120.52819401796816, 31.468004672]]]}}, {"type": "Feature", "properties": {"area_ha": 0.01, "mean": 0.3001}, "geometry": {"type": "Polygon", "coordinates": [[[120.5229292681577, 31.468004672], [120.5228239731615, 31.467823744], [120.5229292681577, 31.467823744], [120.5229292681577, 31.468004672]]]}}, {"type": "Feature", "properties": {"area_ha": 0.0, "mean": null}, "geometry": {"type": "Polygon", "coordinates": [[[120.51650627338894, 31.467914208], [120.51640097839272, 31.467823744], [120.51650627338894, 31.467823744], [120.51650627338894, 31.467914208]]]}}, {"type": "Feature", "properties": {"area_ha": 0.0, "mean": null}, "geometry": {"type": "Polygon", "coordinates": [[[120.52808872297196, 31.467914208], [120.52798342797574, 31.467823744], [120.52808872297196, 31.467823744], [120.52808872297196, 31.467914208]]]}}, {"type": "Feature", "properties": {"area_ha": 0.01, "mean": 0.3596}, "geometry": {"type": "Polygon", "coordinates": [[[120.52787813297954, 31.46773328], [120.52766754298712, 31.467642816], [120.52787813297954, 31.467642816], [120.52787813297954, 31.46773328]]]}}, {"type": "Feature", "properties": {"area_ha": 0.0, "mean": null}, "geometry": {"type": "Polygon", "coordinates": [[[120.5273516579985, 31.467642816], [120.52724636300228, 31.467552352000002], [120.5273516579985, 31.467552352000002], [120.5273516579985, 31.467642816]]]}}, {"type": "Feature", "properties": {"area_ha": 0.0, "mean": null}, "geometry": {"type": "Polygon", "coordinates": [[[120.52303456315391, 31.467552352000002], [120.5229292681577, 31.467461888], [120.52303456315391, 31.467461888], [120.52303456315391, 31.467552352000002]]]}}, {"type": "Feature", "properties": {"area_ha": 0.01, "mean": 0.2837}, "geometry": {"type": "Polygon", "coordinates": [[[120.52714106800607, 31.467552352000002], [120.52693047801365, 31.467461888], [120.52714106800607, 31.467461888], [120.52714106800607, 31.467552352000002]]]}}, {"type": "Feature", "properties": {"area_ha": 0.01, "mean": 0.3545}, "geometry": {"type": "Polygon", "coordinates": [[[120.52313985815012, 31.46728096], [120.52303456315391, 31.467100032], [120.52313985815012, 31.467100032], [120.52313985815012, 31.46728096]]]}}, {"type": "Feature", "properties": {"area_ha": 0.0, "mean": null}, "geometry": {"type": "Polygon", "coordinates": [[[120.52324515314633, 31.467100032], [120.52313985815012, 31.467009568], [120.52324515314633, 31.467009568], [120.52324515314633, 31.467100032]]]}}, {"type": "Feature", "properties": {"area_ha": 0.0, "mean": null}, "geometry": {"type": "Polygon", "coordinates": [[[120.51524273343442, 31.467009568], [120.51513743843822, 31.466919104000002], [120.51524273343442, 31.466919104000002], [120.51524273343442, 31.467009568]]]}}, {"type": "Feature", "properties": {"area_ha": 0.0, "mean": null}, "geometry": {"type": "Polygon", "coordinates": [[[120.52335044814254, 31.467009568], [120.52324515314633, 31.466919104000002], [120.52335044814254, 31.466919104000002], [120.52335044814254, 31.467009568]]]}}, {"type": "Feature", "properties": {"area_ha": 0.0, "mean": null}, "geometry": {"type": "Polygon", "coordinates": [[[120.5148215534496, 31.46682864], [120.51471625845338, 31.466738176], [120.5148215534496, 31.466738176], [120.5148215534496, 31.46682864]]]}}, {"type": "Feature", "properties": {"area_ha": 0.0, "mean": null}, "geometry": {"type": "Polygon", "coordinates": [[[120.524087513116, 31.46682864], [120.5239822181198, 31.466738176], [120.524087513116, 31.466738176], [120.524087513116, 31.46682864]]]}}, {"type": "Feature", "properties": {"area_ha": 0.0, "mean": null}, "geometry": {"type": "Polygon", "coordinates": [[[120.53272170280516, 31.46682864], [120.53261640780894, 31.466738176], [120.53272170280516, 31.466738176], [120.53272170280516, 31.46682864]]]}}, {"type": "Feature", "properties": {"area_ha": 0.01, "mean": 0.2415}, "geometry": {"type": "Polygon", "coordinates": [[[120.51303153851403, 31.466738176], [120.51282094852161, 31.466647712], [120.51303153851403, 31.466647712], [120.51303153851403, 31.466738176]]]}}, {"type": "Feature", "properties": {"area_ha": 0.0, "mean": null}, "geometry": {"type": "Polygon", "coordinates": [[[120.5241928081122, 31.466738176], [120.524087513116, 31.466647712], [120.5241928081122, 31.466647712], [120.5241928081122, 31.466738176]]]}}, {"type": "Feature", "properties": {"area_ha": 0.0, "mean": null}, "geometry": {"type": "Polygon", "coordinates": [[[120.53282699780137, 31.466557248], [120.53272170280516, 31.466466784], [120.53282699780137, 31.466466784], [120.53282699780137, 31.466557248]]]}}, {"type": "Feature", "properties": {"area_ha": 0.0, "mean": null}, "geometry": {"type": "Polygon", "coordinates": [[[120.52440339810462, 31.466376320000002], [120.52429810310842, 31.466285856], [120.52440339810462, 31.466285856], [120.52440339810462, 31.466376320000002]]]}}, {"type": "Feature", "properties": {"area_ha": 0.0, "mean": null}, "geometry": {"type": "Polygon", "coordinates": [[[120.53293229279758, 31.466285856], [120.53282699780137, 31.466195392], [120.53293229279758, 31.466195392], [120.53293229279758, 31.466285856]]]}}, {"type": "Feature", "properties": {"area_ha": 0.0, "mean": null}, "geometry": {"type": "Polygon", "coordinates": [[[120.53314288279, 31.465924], [120.53303758779379, 31.465833536], [120.53314288279, 31.465833536], [120.53314288279, 31.465924]]]}}, {"type": "Feature", "properties": {"area_ha": 0.0, "mean": null}, "geometry": {"type": "Polygon", "coordinates": [[[120.5332481777862, 31.465833536], [120.53314288279, 31.465743072000002], [120.5332481777862, 31.465743072000002], [120.5332481777862, 31.465833536]]]}}, {"type": "Feature", "properties": {"area_ha": 0.0, "mean": null}, "geometry": {"type": "Polygon", "coordinates": [[[120.53335347278241, 31.465743072000002], [120.5332481777862, 31.465652608], [120.53335347278241, 31.465652608], [120.53335347278241, 31.465743072000002]]]}}, {"type": "Feature", "properties": {"area_ha": 0.0, "mean": null}, "geometry": {"type": "Polygon", "coordinates": [[[120.53345876777863, 31.465562144], [120.53335347278241, 31.46547168], [120.53345876777863, 31.46547168], [120.53345876777863, 31.465562144]]]}}, {"type": "Feature", "properties": {"area_ha": 0.0, "mean": null}, "geometry": {"type": "Polygon", "coordinates": [[[120.53356406277483, 31.46547168], [120.53345876777863, 31.465381216], [120.53356406277483, 31.465381216], [120.53356406277483, 31.46547168]]]}}, {"type": "Feature", "properties": {"area_ha": 0.0, "mean": null}, "geometry": {"type": "Polygon", "coordinates": [[[120.53366935777105, 31.465290752], [120.53356406277483, 31.465200288000002], [120.53366935777105, 31.465200288000002], [120.53366935777105, 31.465290752]]]}}, {"type": "Feature", "properties": {"area_ha": 0.0, "mean": null}, "geometry": {"type": "Polygon", "coordinates": [[[120.53377465276725, 31.464928896], [120.53366935777105, 31.464838432], [120.53377465276725, 31.464838432], [120.53377465276725, 31.464928896]]]}}, {"type": "Feature", "properties": {"area_ha": 0.0, "mean": null}, "geometry": {"type": "Polygon", "coordinates": [[[120.52577223305535, 31.464747968], [120.52566693805915, 31.464657504], [120.52577223305535, 31.464657504], [120.52577223305535, 31.464747968]]]}}, {"type": "Feature", "properties": {"area_ha": 0.0, "mean": null}, "geometry": {"type": "Polygon", "coordinates": [[[120.52587752805155, 31.464476576], [120.52577223305535, 31.464386112], [120.52587752805155, 31.464386112], [120.52587752805155, 31.464476576]]]}}, {"type": "Feature", "properties": {"area_ha": 0.0, "mean": null}, "geometry": {"type": "Polygon", "coordinates": [[[120.53387994776347, 31.464386112], [120.53377465276725, 31.464295648], [120.53387994776347, 31.464295648], [120.53387994776347, 31.464386112]]]}}, {"type": "Feature", "properties": {"area_ha": 0.0, "mean": null}, "geometry": {"type": "Polygon", "coordinates": [[[120.51197858855194, 31.464205184], [120.51187329355572, 31.46411472], [120.51197858855194, 31.46411472], [120.51197858855194, 31.464205184]]]}}, {"type": "Feature", "properties": {"area_ha": 0.0, "mean": null}, "geometry": {"type": "Polygon", "coordinates": [[[120.52619341304019, 31.464205184], [120.52608811804397, 31.46411472], [120.52619341304019, 31.46411472], [120.52619341304019, 31.464205184]]]}}, {"type": "Feature", "properties": {"area_ha": 0.01, "mean": 0.3182}, "geometry": {"type": "Polygon", "coordinates": [[[120.51187329355572, 31.46411472], [120.51166270356332, 31.464024256000002], [120.51187329355572, 31.464024256000002], [120.51187329355572, 31.46411472]]]}}, {"type": "Feature", "properties": {"area_ha": 0.0, "mean": null}, "geometry": {"type": "Polygon", "coordinates": [[[120.51208388354814, 31.46411472], [120.51197858855194, 31.464024256000002], [120.51208388354814, 31.464024256000002], [120.51208388354814, 31.46411472]]]}}, {"type": "Feature", "properties": {"area_ha": 0.01, "mean": 0.2062}, "geometry": {"type": "Polygon", "coordinates": [[[120.53472230773313, 31.460134304], [120.53461701273693, 31.459953376], [120.53472230773313, 31.459953376], [120.53472230773313, 31.460134304]]]}}, {"type": "Feature", "properties": {"area_ha": 0.02, "mean": 0.218}, "geometry": {"type": "Polygon", "coordinates": [[[120.5036602838514, 31.45959152], [120.50313380887036, 31.459501056], [120.5036602838514, 31.459501056], [120.5036602838514, 31.45959152]]]}}, {"type": "Feature", "properties": {"area_ha": 0.0, "mean": null}, "geometry": {"type": "Polygon", "coordinates": [[[120.50376557884762, 31.459501056], [120.5036602838514, 31.459410592], [120.50376557884762, 31.459410592], [120.50376557884762, 31.459501056]]]}}, {"type": "Feature", "properties": {"area_ha": 0.0, "mean": null}, "geometry": {"type": "Polygon", "coordinates": [[[120.50618736376043, 31.459501056], [120.50608206876421, 31.459410592], [120.50618736376043, 31.459410592], [120.50618736376043, 31.459501056]]]}}, {"type": "Feature", "properties": {"area_ha": 0.0, "mean": null}, "geometry": {"type": "Polygon", "coordinates": [[[120.50387087384382, 31.459410592], [120.50376557884762, 31.459320128], [120.50387087384382, 31.459320128], [120.50387087384382, 31.459410592]]]}}, {"type": "Feature", "properties": {"area_ha": 0.0, "mean": null}, "geometry": {"type": "Polygon", "coordinates": [[[120.49681610909781, 31.458596416], [120.49671081410159, 31.458505952], [120.49681610909781, 31.458505952], [120.49681610909781, 31.458596416]]]}}, {"type": "Feature", "properties": {"area_ha": 0.0, "mean": null}, "geometry": {"type": "Polygon", "coordinates": [[[120.50429205382866, 31.458325024], [120.50418675883246, 31.45823456], [120.50429205382866, 31.45823456], [120.50429205382866, 31.458325024]]]}}, {"type": "Feature", "properties": {"area_ha": 0.0, "mean": null}, "geometry": {"type": "Polygon", "coordinates": [[[120.50492382380592, 31.458325024], [120.50481852880971, 31.45823456], [120.50492382380592, 31.45823456], [120.50492382380592, 31.458325024]]]}}, {"type": "Feature", "properties": {"area_ha": 0.0, "mean": null}, "geometry": {"type": "Polygon", "coordinates": [[[120.50481852880971, 31.45823456], [120.5047132338135, 31.458144096], [120.50481852880971, 31.458144096], [120.50481852880971, 31.45823456]]]}}, {"type": "Feature", "properties": {"area_ha": 0.0, "mean": null}, "geometry": {"type": "Polygon", "coordinates": [[[120.5047132338135, 31.458144096], [120.50460793881729, 31.458053632000002], [120.5047132338135, 31.458053632000002], [120.5047132338135, 31.458144096]]]}}, {"type": "Feature", "properties": {"area_ha": 0.01, "mean": 0.3829}, "geometry": {"type": "Polygon", "coordinates": [[[120.50460793881729, 31.458053632000002], [120.50439734882487, 31.457963168], [120.50460793881729, 31.457963168], [120.50460793881729, 31.458053632000002]]]}}, {"type": "Feature", "properties": {"area_ha": 0.01, "mean": 0.1659}, "geometry": {"type": "Polygon", "coordinates": [[[120.53514348771797, 31.458053632000002], [120.53503819272176, 31.457872704], [120.53514348771797, 31.457872704], [120.53514348771797, 31.458053632000002]]]}}, {"type": "Feature", "properties": {"area_ha": 0.0, "mean": null}, "geometry": {"type": "Polygon", "coordinates": [[[120.53524878271418, 31.457601312], [120.53514348771797, 31.457510848000002], [120.53524878271418, 31.457510848000002], [120.53524878271418, 31.457601312]]]}}, {"type": "Feature", "properties": {"area_ha": 0.01, "mean": 0.2197}, "geometry": {"type": "Polygon", "coordinates": [[[120.5353540777104, 31.456968064], [120.53524878271418, 31.456787136], [120.5353540777104, 31.456787136], [120.5353540777104, 31.456968064]]]}}, {"type": "Feature", "properties": {"area_ha": 0.02, "mean": 0.1739}, "geometry": {"type": "Polygon", "coordinates": [[[120.5354593727066, 31.456515744], [120.5353540777104, 31.456153888], [120.5354593727066, 31.456153888], [120.5354593727066, 31.456515744]]]}}, {"type": "Feature", "properties": {"area_ha": 0.0, "mean": null}, "geometry": {"type": "Polygon", "coordinates": [[[120.5035549888552, 31.456153888], [120.50344969385898, 31.456063424], [120.5035549888552, 31.456063424], [120.5035549888552, 31.456153888]]]}}, {"type": "Feature", "properties": {"area_ha": 0.01, "mean": 0.1838}, "geometry": {"type": "Polygon", "coordinates": [[[120.53556466770281, 31.455792032], [120.5354593727066, 31.455611104], [120.53556466770281, 31.455611104], [120.53556466770281, 31.455792032]]]}}, {"type": "Feature", "properties": {"area_ha": 0.09, "mean": 0.3605}, "geometry": {"type": "Polygon", "coordinates": [[[120.50376557884762, 31.45597296], [120.50323910386658, 31.455701568000002], [120.5035549888552, 31.45552064], [120.50376557884762, 31.45597296]]]}}, {"type": "Feature", "properties": {"area_ha": 0.0, "mean": null}, "geometry": {"type": "Polygon", "coordinates": [[[120.49428902918878, 31.455430176], [120.49418373419257, 31.455339712], [120.49428902918878, 31.455339712], [120.49428902918878, 31.455430176]]]}}, {"type": "Feature", "properties": {"area_ha": 0.0, "mean": null}, "geometry": {"type": "Polygon", "coordinates": [[[120.49386784920395, 31.454887392], [120.49376255420773, 31.454796928], [120.49386784920395, 31.454796928], [120.49386784920395, 31.454887392]]]}}, {"type": "Feature", "properties": {"area_ha": 0.0, "mean": null}, "geometry": {"type": "Polygon", "coordinates": [[[120.49365725921153, 31.454616], [120.49355196421531, 31.454525536000002], [120.49365725921153, 31.454525536000002], [120.49365725921153, 31.454616]]]}}, {"type": "Feature", "properties": {"area_ha": 0.0, "mean": null}, "geometry": {"type": "Polygon", "coordinates": [[[120.49302548923427, 31.453892288000002], [120.49292019423807, 31.453801824], [120.49302548923427, 31.453801824], [120.49302548923427, 31.453892288000002]]]}}, {"type": "Feature", "properties": {"area_ha": 0.0, "mean": null}, "geometry": {"type": "Polygon", "coordinates": [[[120.49292019423807, 31.453801824], [120.49281489924185, 31.45371136], [120.49292019423807, 31.45371136], [120.49292019423807, 31.453801824]]]}}, {"type": "Feature", "properties": {"area_ha": 0.0, "mean": null}, "geometry": {"type": "Polygon", "coordinates": [[[120.49270960424565, 31.453439968], [120.49260430924943, 31.453349504000002], [120.49270960424565, 31.453349504000002], [120.49270960424565, 31.453439968]]]}}, {"type": "Feature", "properties": {"area_ha": 0.0, "mean": null}, "geometry": {"type": "Polygon", "coordinates": [[[120.49260430924943, 31.453349504000002], [120.49249901425323, 31.45325904], [120.49260430924943, 31.45325904], [120.49260430924943, 31.453349504000002]]]}}, {"type": "Feature", "properties": {"area_ha": 0.01, "mean": 0.1327}, "geometry": {"type": "Polygon", "coordinates": [[[120.53609114268386, 31.45325904], [120.53598584768764, 31.453078112], [120.53609114268386, 31.453078112], [120.53609114268386, 31.45325904]]]}}, {"type": "Feature", "properties": {"area_ha": 0.01, "mean": 0.251}, "geometry": {"type": "Polygon", "coordinates": [[[120.4922884242608, 31.452987648], [120.4921831292646, 31.45280672], [120.4922884242608, 31.45280672], [120.4922884242608, 31.452987648]]]}}, {"type": "Feature", "properties": {"area_ha": 0.0, "mean": null}, "geometry": {"type": "Polygon", "coordinates": [[[120.53619643768006, 31.452535328], [120.53609114268386, 31.452444864], [120.53619643768006, 31.452444864], [120.53619643768006, 31.452535328]]]}}, {"type": "Feature", "properties": {"area_ha": 0.01, "mean": 0.2125}, "geometry": {"type": "Polygon", "coordinates": [[[120.53630173267628, 31.452083008], [120.53619643768006, 31.45190208], [120.53630173267628, 31.45190208], [120.53630173267628, 31.452083008]]]}}, {"type": "Feature", "properties": {"area_ha": 0.01, "mean": 0.1727}, "geometry": {"type": "Polygon", "coordinates": [[[120.53640702767248, 31.451630688], [120.53630173267628, 31.451359296], [120.53640702767248, 31.451359296], [120.53640702767248, 31.451630688]]]}}, {"type": "Feature", "properties": {"area_ha": 0.01, "mean": 0.1603}, "geometry": {"type": "Polygon", "coordinates": [[[120.5366176176649, 31.450454656], [120.5365123226687, 31.450273728], [120.5366176176649, 31.450273728], [120.5366176176649, 31.450454656]]]}}, {"type": "Feature", "properties": {"area_ha": 0.01, "mean": 0.1776}, "geometry": {"type": "Polygon", "coordinates": [[[120.53714409264595, 31.447740736], [120.53703879764974, 31.447559808], [120.53714409264595, 31.447559808], [120.53714409264595, 31.447740736]]]}}, {"type": "Feature", "properties": {"area_ha": 0.01, "mean": 0.2242}, "geometry": {"type": "Polygon", "coordinates": [[[120.53724938764216, 31.447288416], [120.53714409264595, 31.447017024], [120.53724938764216, 31.447017024], [120.53724938764216, 31.447288416]]]}}, {"type": "Feature", "properties": {"area_ha": 0.01, "mean": 0.1384}, "geometry": {"type": "Polygon", "coordinates": [[[120.53735468263837, 31.446745632], [120.53724938764216, 31.446564704], [120.53735468263837, 31.446564704], [120.53735468263837, 31.446745632]]]}}, {"type": "Feature", "properties": {"area_ha": 0.0, "mean": null}, "geometry": {"type": "Polygon", "coordinates": [[[120.53935528756634, 31.446564704], [120.53924999257013, 31.44647424], [120.53935528756634, 31.44647424], [120.53935528756634, 31.446564704]]]}}, {"type": "Feature", "properties": {"area_ha": 0.0, "mean": null}, "geometry": {"type": "Polygon", "coordinates": [[[120.5377758626232, 31.44647424], [120.53767056762699, 31.446383776], [120.5377758626232, 31.446383776], [120.5377758626232, 31.44647424]]]}}, {"type": "Feature", "properties": {"area_ha": 0.0, "mean": null}, "geometry": {"type": "Polygon", "coordinates": [[[120.53946058256255, 31.44647424], [120.53935528756634, 31.446383776], [120.53946058256255, 31.446383776], [120.53946058256255, 31.44647424]]]}}, {"type": "Feature", "properties": {"area_ha": 0.01, "mean": 0.1732}, "geometry": {"type": "Polygon", "coordinates": [[[120.53840763260045, 31.44647424], [120.53830233760425, 31.446293312], [120.53840763260045, 31.446293312], [120.53840763260045, 31.44647424]]]}}, {"type": "Feature", "properties": {"area_ha": 0.0, "mean": null}, "geometry": {"type": "Polygon", "coordinates": [[[120.53956587755876, 31.446383776], [120.53946058256255, 31.446293312], [120.53956587755876, 31.446293312], [120.53956587755876, 31.446383776]]]}}, {"type": "Feature", "properties": {"area_ha": 0.01, "mean": 0.1512}, "geometry": {"type": "Polygon", "coordinates": [[[120.5398817625474, 31.446202848000002], [120.53967117255497, 31.446112384], [120.5398817625474, 31.446112384], [120.5398817625474, 31.446202848000002]]]}}, {"type": "Feature", "properties": {"area_ha": 0.0, "mean": null}, "geometry": {"type": "Polygon", "coordinates": [[[120.53851292759667, 31.446112384], [120.53840763260045, 31.44602192], [120.53851292759667, 31.44602192], [120.53851292759667, 31.446112384]]]}}, {"type": "Feature", "properties": {"area_ha": 0.0, "mean": null}, "geometry": {"type": "Polygon", "coordinates": [[[120.5399870575436, 31.446112384], [120.5398817625474, 31.44602192], [120.5399870575436, 31.44602192], [120.5399870575436, 31.446112384]]]}}, {"type": "Feature", "properties": {"area_ha": 0.0, "mean": null}, "geometry": {"type": "Polygon", "coordinates": [[[120.53861822259287, 31.44602192], [120.53851292759667, 31.445931456], [120.53861822259287, 31.445931456], [120.53861822259287, 31.44602192]]]}}, {"type": "Feature", "properties": {"area_ha": 0.01, "mean": 0.1683}, "geometry": {"type": "Polygon", "coordinates": [[[120.53935528756634, 31.44602192], [120.53914469757392, 31.445931456], [120.53935528756634, 31.445931456], [120.53935528756634, 31.44602192]]]}}, {"type": "Feature", "properties": {"area_ha": 0.0, "mean": null}, "geometry": {"type": "Polygon", "coordinates": [[[120.53935528756634, 31.445660064000002], [120.53924999257013, 31.4455696], [120.53935528756634, 31.4455696], [120.53935528756634, 31.445660064000002]]]}}, {"type": "Feature", "properties": {"area_ha": 0.0, "mean": null}, "geometry": {"type": "Polygon", "coordinates": [[[120.53924999257013, 31.4455696], [120.53914469757392, 31.445479136], [120.53924999257013, 31.445479136], [120.53924999257013, 31.4455696]]]}}, {"type": "Feature", "properties": {"area_ha": 0.02, "mean": 0.2219}, "geometry": {"type": "Polygon", "coordinates": [[[120.53756527263079, 31.445840992], [120.53745997763457, 31.445388672], [120.53756527263079, 31.445388672], [120.53756527263079, 31.445840992]]]}}, {"type": "Feature", "properties": {"area_ha": 0.0, "mean": null}, "geometry": {"type": "Polygon", "coordinates": [[[120.53798645261563, 31.445298208], [120.53788115761941, 31.445207744], [120.53798645261563, 31.445207744], [120.53798645261563, 31.445298208]]]}}, {"type": "Feature", "properties": {"area_ha": 0.02, "mean": 0.1963}, "geometry": {"type": "Polygon", "coordinates": [[[120.53767056762699, 31.445207744], [120.53756527263079, 31.444845888], [120.53767056762699, 31.444845888], [120.53767056762699, 31.445207744]]]}}, {"type": "Feature", "properties": {"area_ha": 0.01, "mean": 0.1137}, "geometry": {"type": "Polygon", "coordinates": [[[120.53809174761183, 31.444845888], [120.53798645261563, 31.44466496], [120.53809174761183, 31.44466496], [120.53809174761183, 31.444845888]]]}}, {"type": "Feature", "properties": {"area_ha": 0.01, "mean": 0.1861}, "geometry": {"type": "Polygon", "coordinates": [[[120.5377758626232, 31.44466496], [120.53767056762699, 31.444393568], [120.5377758626232, 31.444393568], [120.5377758626232, 31.44466496]]]}}, {"type": "Feature", "properties": {"area_ha": 0.01, "mean": 0.2066}, "geometry": {"type": "Polygon", "coordinates": [[[120.53788115761941, 31.444031712], [120.5377758626232, 31.44376032], [120.53788115761941, 31.44376032], [120.53788115761941, 31.444031712]]]}}, {"type": "Feature", "properties": {"area_ha": 0.01, "mean": 0.2155}, "geometry": {"type": "Polygon", "coordinates": [[[120.53798645261563, 31.443488928], [120.53788115761941, 31.443217536], [120.53798645261563, 31.443217536], [120.53798645261563, 31.443488928]]]}}, {"type": "Feature", "properties": {"area_ha": 0.0, "mean": null}, "geometry": {"type": "Polygon", "coordinates": [[[120.53840763260045, 31.443217536], [120.53830233760425, 31.443127072], [120.53840763260045, 31.443127072], [120.53840763260045, 31.443217536]]]}}, {"type": "Feature", "properties": {"area_ha": 0.01, "mean": 0.1525}, "geometry": {"type": "Polygon", "coordinates": [[[120.53809174761183, 31.44285568], [120.53798645261563, 31.442674752000002], [120.53809174761183, 31.442674752000002], [120.53809174761183, 31.44285568]]]}}, {"type": "Feature", "properties": {"area_ha": 0.0, "mean": null}, "geometry": {"type": "Polygon", "coordinates": [[[120.5491477222138, 31.441317792], [120.5490424272176, 31.441227328], [120.5491477222138, 31.441227328], [120.5491477222138, 31.441317792]]]}}, {"type": "Feature", "properties": {"area_ha": 0.0, "mean": null}, "geometry": {"type": "Polygon", "coordinates": [[[120.53840763260045, 31.441227328], [120.53830233760425, 31.441136864], [120.53840763260045, 31.441136864], [120.53840763260045, 31.441227328]]]}}, {"type": "Feature", "properties": {"area_ha": 0.0, "mean": null}, "geometry": {"type": "Polygon", "coordinates": [[[120.54956890219864, 31.440775008], [120.54946360720243, 31.440684544], [120.54956890219864, 31.440684544], [120.54956890219864, 31.440775008]]]}}, {"type": "Feature", "properties": {"area_ha": 0.02, "mean": 0.2005}, "geometry": {"type": "Polygon", "coordinates": [[[120.53851292759667, 31.440955936], [120.53840763260045, 31.44059408], [120.53851292759667, 31.44059408], [120.53851292759667, 31.440955936]]]}}, {"type": "Feature", "properties": {"area_ha": 0.01, "mean": 0.2036}, "geometry": {"type": "Polygon", "coordinates": [[[120.53861822259287, 31.440322688000002], [120.53851292759667, 31.440051296], [120.53861822259287, 31.440051296], [120.53861822259287, 31.440322688000002]]]}}, {"type": "Feature", "properties": {"area_ha": 0.01, "mean": 0.1789}, "geometry": {"type": "Polygon", "coordinates": [[[120.53872351758909, 31.439689440000002], [120.53861822259287, 31.439508512], [120.53872351758909, 31.439508512], [120.53872351758909, 31.439689440000002]]]}}, {"type": "Feature", "properties": {"area_ha": 0.0, "mean": null}, "geometry": {"type": "Polygon", "coordinates": [[[120.53914469757392, 31.438061088], [120.53903940257771, 31.437970624000002], [120.53914469757392, 31.437970624000002], [120.53914469757392, 31.438061088]]]}}, {"type": "Feature", "properties": {"area_ha": 0.0, "mean": null}, "geometry": {"type": "Polygon", "coordinates": [[[120.53924999257013, 31.437789696], [120.53914469757392, 31.437699232], [120.53924999257013, 31.437699232], [120.53924999257013, 31.437789696]]]}}, {"type": "Feature", "properties": {"area_ha": 0.01, "mean": 0.1407}, "geometry": {"type": "Polygon", "coordinates": [[[120.53946058256255, 31.43607088], [120.53935528756634, 31.435889952], [120.53946058256255, 31.435889952], [120.53946058256255, 31.43607088]]]}}, {"type": "Feature", "properties": {"area_ha": 0.01, "mean": 0.1211}, "geometry": {"type": "Polygon", "coordinates": [[[120.53956587755876, 31.43516624], [120.53946058256255, 31.434894848], [120.53956587755876, 31.434894848], [120.53956587755876, 31.43516624]]]}}, {"type": "Feature", "properties": {"area_ha": 0.01, "mean": 0.165}, "geometry": {"type": "Polygon", "coordinates": [[[120.5398817625474, 31.43290464], [120.53977646755118, 31.432723712], [120.5398817625474, 31.432723712], [120.5398817625474, 31.43290464]]]}}, {"type": "Feature", "properties": {"area_ha": 0.01, "mean": 0.1737}, "geometry": {"type": "Polygon", "coordinates": [[[120.5399870575436, 31.432271392], [120.5398817625474, 31.432090464], [120.5399870575436, 31.432090464], [120.5399870575436, 31.432271392]]]}}, {"type": "Feature", "properties": {"area_ha": 0.0, "mean": null}, "geometry": {"type": "Polygon", "coordinates": [[[120.5194545332828, 31.432180928], [120.51934923828658, 31.432090464], [120.5194545332828, 31.432090464], [120.5194545332828, 31.432180928]]]}}, {"type": "Feature", "properties": {"area_ha": 0.0, "mean": null}, "geometry": {"type": "Polygon", "coordinates": [[[120.54093471250948, 31.432180928], [120.54082941751327, 31.432090464], [120.54093471250948, 31.432090464], [120.54093471250948, 31.432180928]]]}}, {"type": "Feature", "properties": {"area_ha": 0.01, "mean": 0.2132}, "geometry": {"type": "Polygon", "coordinates": [[[120.51987571326764, 31.432090464], [120.51966512327522, 31.432000000000002], [120.51987571326764, 31.432000000000002], [120.51987571326764, 31.432090464]]]}}, {"type": "Feature", "properties": {"area_ha": 0.23, "mean": 0.1413}, "geometry": {"type": "Polygon", "coordinates": [[[120.59905755041699, 31.432633248000002], [120.59884696042457, 31.432542784], [120.59895225542078, 31.431909536], [120.59937343540561, 31.432271392], [120.59905755041699, 31.432633248000002]], [[120.59916284541319, 31.432271392], [120.59926814040941, 31.432361856], [120.59926814040941, 31.432271392], [120.59916284541319, 31.432271392]]]}}, {"type": "Feature", "properties": {"area_ha": 0.0, "mean": null}, "geometry": {"type": "Polygon", "coordinates": [[[120.5400923525398, 31.432000000000002], [120.5399870575436, 31.431909536], [120.5400923525398, 31.431909536], [120.5400923525398, 31.432000000000002]]]}}, {"type": "Feature", "properties": {"area_ha": 0.0, "mean": null}, "geometry": {"type": "Polygon", "coordinates": [[[120.51776981334345, 31.431457216000002], [120.51766451834723, 31.431366752], [120.51776981334345, 31.431366752], [120.51776981334345, 31.431457216000002]]]}}, {"type": "Feature", "properties": {"area_ha": 0.0, "mean": null}, "geometry": {"type": "Polygon", "coordinates": [[[120.59853107543594, 31.431185824], [120.59842578043973, 31.43109536], [120.59853107543594, 31.43109536], [120.59853107543594, 31.431185824]]]}}, {"type": "Feature", "properties": {"area_ha": 0.0, "mean": null}, "geometry": {"type": "Polygon", "coordinates": [[[120.51787510833965, 31.43109536], [120.51776981334345, 31.431004896], [120.51787510833965, 31.431004896], [120.51787510833965, 31.43109536]]]}}, {"type": "Feature", "properties": {"area_ha": 0.0, "mean": null}, "geometry": {"type": "Polygon", "coordinates": [[[120.52008630326004, 31.431004896], [120.51998100826384, 31.430914432], [120.52008630326004, 31.430914432], [120.52008630326004, 31.431004896]]]}}, {"type": "Feature", "properties": {"area_ha": 0.01, "mean": 0.199}, "geometry": {"type": "Polygon", "coordinates": [[[120.51798040333587, 31.430823968000002], [120.51787510833965, 31.43064304], [120.51798040333587, 31.43064304], [120.51798040333587, 31.430823968000002]]]}}, {"type": "Feature", "properties": {"area_ha": 0.0, "mean": null}, "geometry": {"type": "Polygon", "coordinates": [[[120.52019159825626, 31.43064304], [120.52008630326004, 31.430552576], [120.52019159825626, 31.430552576], [120.52019159825626, 31.43064304]]]}}, {"type": "Feature", "properties": {"area_ha": 0.0, "mean": null}, "geometry": {"type": "Polygon", "coordinates": [[[120.51808569833207, 31.430552576], [120.51798040333587, 31.430462112], [120.51808569833207, 31.430462112], [120.51808569833207, 31.430552576]]]}}, {"type": "Feature", "properties": {"area_ha": 0.0, "mean": null}, "geometry": {"type": "Polygon", "coordinates": [[[120.54030294253222, 31.430552576], [120.54019764753602, 31.430462112], [120.54030294253222, 31.430462112], [120.54030294253222, 31.430552576]]]}}, {"type": "Feature", "properties": {"area_ha": 0.01, "mean": 0.282}, "geometry": {"type": "Polygon", "coordinates": [[[120.51819099332829, 31.430371648], [120.51808569833207, 31.430100256], [120.51819099332829, 31.430100256], [120.51819099332829, 31.430371648]]]}}, {"type": "Feature", "properties": {"area_ha": 0.0, "mean": null}, "geometry": {"type": "Polygon", "coordinates": [[[120.54040823752844, 31.430100256], [120.54030294253222, 31.430009792], [120.54040823752844, 31.430009792], [120.54040823752844, 31.430100256]]]}}, {"type": "Feature", "properties": {"area_ha": 0.01, "mean": 0.2106}, "geometry": {"type": "Polygon", "coordinates": [[[120.51829628832449, 31.430100256], [120.51819099332829, 31.429919328], [120.51829628832449, 31.429919328], [120.51829628832449, 31.430100256]]]}}, {"type": "Feature", "properties": {"area_ha": 0.0, "mean": null}, "geometry": {"type": "Polygon", "coordinates": [[[120.5184015833207, 31.429828864], [120.51829628832449, 31.4297384], [120.5184015833207, 31.4297384], [120.5184015833207, 31.429828864]]]}}, {"type": "Feature", "properties": {"area_ha": 0.01, "mean": 0.2863}, "geometry": {"type": "Polygon", "coordinates": [[[120.51850687831691, 31.429647936000002], [120.5184015833207, 31.429467008], [120.51850687831691, 31.429467008], [120.51850687831691, 31.429647936000002]]]}}, {"type": "Feature", "properties": {"area_ha": 0.0, "mean": null}, "geometry": {"type": "Polygon", "coordinates": [[[120.51861217331312, 31.429467008], [120.51850687831691, 31.429376544], [120.51861217331312, 31.429376544], [120.51861217331312, 31.429467008]]]}}, {"type": "Feature", "properties": {"area_ha": 0.0, "mean": null}, "geometry": {"type": "Polygon", "coordinates": [[[120.52029689325246, 31.429467008], [120.52019159825626, 31.429376544], [120.52029689325246, 31.429376544], [120.52029689325246, 31.429467008]]]}}, {"type": "Feature", "properties": {"area_ha": 0.01, "mean": 0.1651}, "geometry": {"type": "Polygon", "coordinates": [[[120.51882276330554, 31.429376544], [120.51861217331312, 31.42928608], [120.51882276330554, 31.42928608], [120.51882276330554, 31.429376544]]]}}, {"type": "Feature", "properties": {"area_ha": 0.01, "mean": 0.1762}, "geometry": {"type": "Polygon", "coordinates": [[[120.51903335329796, 31.42928608], [120.51892805830175, 31.429014688], [120.51903335329796, 31.429014688], [120.51903335329796, 31.42928608]]]}}, {"type": "Feature", "properties": {"area_ha": 0.0, "mean": null}, "geometry": {"type": "Polygon", "coordinates": [[[120.51892805830175, 31.428924224], [120.51882276330554, 31.42883376], [120.51892805830175, 31.42883376], [120.51892805830175, 31.428924224]]]}}, {"type": "Feature", "properties": {"area_ha": 0.0, "mean": null}, "geometry": {"type": "Polygon", "coordinates": [[[120.52082336823351, 31.42883376], [120.5207180732373, 31.428743296], [120.52082336823351, 31.428743296], [120.52082336823351, 31.42883376]]]}}, {"type": "Feature", "properties": {"area_ha": 0.01, "mean": 0.2444}, "geometry": {"type": "Polygon", "coordinates": [[[120.51892805830175, 31.428743296], [120.51882276330554, 31.428562368], [120.51892805830175, 31.428562368], [120.51892805830175, 31.428743296]]]}}, {"type": "Feature", "properties": {"area_ha": 0.0, "mean": null}, "geometry": {"type": "Polygon", "coordinates": [[[120.51903335329796, 31.428471904000002], [120.51892805830175, 31.42838144], [120.51903335329796, 31.42838144], [120.51903335329796, 31.428471904000002]]]}}, {"type": "Feature", "properties": {"area_ha": 0.01, "mean": 0.2445}, "geometry": {"type": "Polygon", "coordinates": [[[120.51913864829417, 31.428290976], [120.51903335329796, 31.428110048], [120.51913864829417, 31.428110048], [120.51913864829417, 31.428290976]]]}}, {"type": "Feature", "properties": {"area_ha": 0.0, "mean": null}, "geometry": {"type": "Polygon", "coordinates": [[[120.5206127782411, 31.428110048], [120.52050748324488, 31.428019584], [120.5206127782411, 31.428019584], [120.5206127782411, 31.428110048]]]}}, {"type": "Feature", "properties": {"area_ha": 0.0, "mean": null}, "geometry": {"type": "Polygon", "coordinates": [[[120.51924394329038, 31.428019584], [120.51913864829417, 31.42792912], [120.51924394329038, 31.42792912], [120.51924394329038, 31.428019584]]]}}, {"type": "Feature", "properties": {"area_ha": 0.0, "mean": null}, "geometry": {"type": "Polygon", "coordinates": [[[120.5207180732373, 31.428019584], [120.5206127782411, 31.42792912], [120.5207180732373, 31.42792912], [120.5207180732373, 31.428019584]]]}}, {"type": "Feature", "properties": {"area_ha": 0.02, "mean": 0.2117}, "geometry": {"type": "Polygon", "coordinates": [[[120.52198161319181, 31.427838656], [120.52156043320699, 31.427748192], [120.52198161319181, 31.427748192], [120.52198161319181, 31.427838656]]]}}, {"type": "Feature", "properties": {"area_ha": 0.01, "mean": 0.2519}, "geometry": {"type": "Polygon", "coordinates": [[[120.51934923828658, 31.427838656], [120.51924394329038, 31.427657728], [120.51934923828658, 31.427657728], [120.51934923828658, 31.427838656]]]}}, {"type": "Feature", "properties": {"area_ha": 0.02, "mean": 0.1883}, "geometry": {"type": "Polygon", "coordinates": [[[120.54051353252464, 31.42792912], [120.54040823752844, 31.427567264], [120.54051353252464, 31.427567264], [120.54051353252464, 31.42792912]]]}}, {"type": "Feature", "properties": {"area_ha": 0.0, "mean": null}, "geometry": {"type": "Polygon", "coordinates": [[[120.51755922335103, 31.427567264], [120.51745392835483, 31.4274768], [120.51755922335103, 31.4274768], [120.51755922335103, 31.427567264]]]}}, {"type": "Feature", "properties": {"area_ha": 0.0, "mean": null}, "geometry": {"type": "Polygon", "coordinates": [[[120.5194545332828, 31.427567264], [120.51934923828658, 31.4274768], [120.5194545332828, 31.4274768], [120.5194545332828, 31.427567264]]]}}, {"type": "Feature", "properties": {"area_ha": 0.0, "mean": null}, "geometry": {"type": "Polygon", "coordinates": [[[120.52208690818803, 31.427567264], [120.52198161319181, 31.4274768], [120.52208690818803, 31.4274768], [120.52208690818803, 31.427567264]]]}}, {"type": "Feature", "properties": {"area_ha": 0.01, "mean": 0.1849}, "geometry": {"type": "Polygon", "coordinates": [[[120.51987571326764, 31.427386336], [120.51966512327522, 31.427295872000002], [120.51987571326764, 31.427295872000002], [120.51987571326764, 31.427386336]]]}}, {"type": "Feature", "properties": {"area_ha": 0.0, "mean": null}, "geometry": {"type": "Polygon", "coordinates": [[[120.52008630326004, 31.427295872000002], [120.51998100826384, 31.427205408], [120.52008630326004, 31.427205408], [120.52008630326004, 31.427295872000002]]]}}, {"type": "Feature", "properties": {"area_ha": 0.0, "mean": null}, "geometry": {"type": "Polygon", "coordinates": [[[120.52324515314633, 31.427295872000002], [120.52313985815012, 31.427205408], [120.52324515314633, 31.427205408], [120.52324515314633, 31.427295872000002]]]}}, {"type": "Feature", "properties": {"area_ha": 0.0, "mean": null}, "geometry": {"type": "Polygon", "coordinates": [[[120.54061882752086, 31.427295872000002], [120.54051353252464, 31.427205408], [120.54061882752086, 31.427205408], [120.54061882752086, 31.427295872000002]]]}}, {"type": "Feature", "properties": {"area_ha": 0.02, "mean": 0.1267}, "geometry": {"type": "Polygon", "coordinates": [[[120.57652442122821, 31.427295872000002], [120.57610324124337, 31.427205408], [120.57652442122821, 31.427205408], [120.57652442122821, 31.427295872000002]]]}}, {"type": "Feature", "properties": {"area_ha": 0.0, "mean": null}, "geometry": {"type": "Polygon", "coordinates": [[[120.57684030621684, 31.427295872000002], [120.57673501122062, 31.427205408], [120.57684030621684, 31.427205408], [120.57684030621684, 31.427295872000002]]]}}, {"type": "Feature", "properties": {"area_ha": 0.0, "mean": null}, "geometry": {"type": "Polygon", "coordinates": [[[120.52019159825626, 31.427205408], [120.52008630326004, 31.427114944], [120.52019159825626, 31.427114944], [120.52019159825626, 31.427205408]]]}}, {"type": "Feature", "properties": {"area_ha": 0.0, "mean": null}, "geometry": {"type": "Polygon", "coordinates": [[[120.52124454821835, 31.427205408], [120.52113925322215, 31.427114944], [120.52124454821835, 31.427114944], [120.52124454821835, 31.427205408]]]}}, {"type": "Feature", "properties": {"area_ha": 0.01, "mean": 0.1819}, "geometry": {"type": "Polygon", "coordinates": [[[120.57589265125095, 31.427205408], [120.57568206125853, 31.427114944], [120.57589265125095, 31.427114944], [120.57589265125095, 31.427205408]]]}}, {"type": "Feature", "properties": {"area_ha": 0.01, "mean": 0.1864}, "geometry": {"type": "Polygon", "coordinates": [[[120.52050748324488, 31.427114944], [120.52029689325246, 31.42702448], [120.52050748324488, 31.42702448], [120.52050748324488, 31.427114944]]]}}, {"type": "Feature", "properties": {"area_ha": 0.0, "mean": null}, "geometry": {"type": "Polygon", "coordinates": [[[120.57547147126611, 31.427114944], [120.57536617626991, 31.42702448], [120.57547147126611, 31.42702448], [120.57547147126611, 31.427114944]]]}}, {"type": "Feature", "properties": {"area_ha": 0.01, "mean": 0.1555}, "geometry": {"type": "Polygon", "coordinates": [[[120.51829628832449, 31.427205408], [120.51819099332829, 31.426934016], [120.51829628832449, 31.426934016], [120.51829628832449, 31.427205408]]]}}, {"type": "Feature", "properties": {"area_ha": 0.0, "mean": null}, "geometry": {"type": "Polygon", "coordinates": [[[120.54072412251706, 31.42702448], [120.54061882752086, 31.426934016], [120.54072412251706, 31.426934016], [120.54072412251706, 31.42702448]]]}}, {"type": "Feature", "properties": {"area_ha": 0.0, "mean": null}, "geometry": {"type": "Polygon", "coordinates": [[[120.54735770727825, 31.42702448], [120.54725241228203, 31.426934016], [120.54735770727825, 31.426934016], [120.54735770727825, 31.42702448]]]}}, {"type": "Feature", "properties": {"area_ha": 0.0, "mean": null}, "geometry": {"type": "Polygon", "coordinates": [[[120.57526088127369, 31.42702448], [120.57515558627749, 31.426934016], [120.57526088127369, 31.426934016], [120.57526088127369, 31.42702448]]]}}, {"type": "Feature", "properties": {"area_ha": 0.0, "mean": null}, "geometry": {"type": "Polygon", "coordinates": [[[120.52956285291889, 31.426753088], [120.52945755792267, 31.426662624], [120.52956285291889, 31.426662624], [120.52956285291889, 31.426753088]]]}}, {"type": "Feature", "properties": {"area_ha": 0.0, "mean": null}, "geometry": {"type": "Polygon", "coordinates": [[[120.52935226292647, 31.42657216], [120.52924696793025, 31.426481696], [120.52935226292647, 31.426481696], [120.52935226292647, 31.42657216]]]}}, {"type": "Feature", "properties": {"area_ha": 0.02, "mean": 0.1048}, "geometry": {"type": "Polygon", "coordinates": [[[120.54082941751327, 31.426029376], [120.54072412251706, 31.42566752], [120.54082941751327, 31.42566752], [120.54082941751327, 31.426029376]]]}}, {"type": "Feature", "properties": {"area_ha": 0.0, "mean": null}, "geometry": {"type": "Polygon", "coordinates": [[[120.53114227786202, 31.425757984], [120.53103698286581, 31.42566752], [120.53114227786202, 31.42566752], [120.53114227786202, 31.425757984]]]}}, {"type": "Feature", "properties": {"area_ha": 0.0, "mean": null}, "geometry": {"type": "Polygon", "coordinates": [[[120.54072412251706, 31.425124736], [120.54061882752086, 31.425034272], [120.54072412251706, 31.425034272], [120.54072412251706, 31.425124736]]]}}, {"type": "Feature", "properties": {"area_ha": 0.0, "mean": null}, "geometry": {"type": "Polygon", "coordinates": [[[120.54061882752086, 31.424943808000002], [120.54051353252464, 31.424853344], [120.54061882752086, 31.424853344], [120.54061882752086, 31.424943808000002]]]}}, {"type": "Feature", "properties": {"area_ha": 0.0, "mean": null}, "geometry": {"type": "Polygon", "coordinates": [[[120.54051353252464, 31.424672416], [120.54040823752844, 31.424581952], [120.54051353252464, 31.424581952], [120.54051353252464, 31.424672416]]]}}, {"type": "Feature", "properties": {"area_ha": 0.01, "mean": 0.1192}, "geometry": {"type": "Polygon", "coordinates": [[[120.53577525769524, 31.424581952], [120.53556466770281, 31.424491488], [120.53577525769524, 31.424491488], [120.53577525769524, 31.424581952]]]}}, {"type": "Feature", "properties": {"area_ha": 0.0, "mean": null}, "geometry": {"type": "Polygon", "coordinates": [[[120.5365123226687, 31.424581952], [120.53640702767248, 31.424491488], [120.5365123226687, 31.424491488], [120.5365123226687, 31.424581952]]]}}, {"type": "Feature", "properties": {"area_ha": 0.0, "mean": null}, "geometry": {"type": "Polygon", "coordinates": [[[120.54135589249432, 31.424220096], [120.5412505974981, 31.424129632], [120.54135589249432, 31.424129632], [120.54135589249432, 31.424220096]]]}}, {"type": "Feature", "properties": {"area_ha": 0.01, "mean": 0.1399}, "geometry": {"type": "Polygon", "coordinates": [[[120.54040823752844, 31.424129632], [120.54030294253222, 31.423948704], [120.54040823752844, 31.423948704], [120.54040823752844, 31.424129632]]]}}, {"type": "Feature", "properties": {"area_ha": 0.0, "mean": null}, "geometry": {"type": "Polygon", "coordinates": [[[120.58157858104624, 31.424039168], [120.58147328605004, 31.423948704], [120.58157858104624, 31.423948704], [120.58157858104624, 31.424039168]]]}}, {"type": "Feature", "properties": {"area_ha": 0.0, "mean": null}, "geometry": {"type": "Polygon", "coordinates": [[[120.5822103510235, 31.423677312], [120.5821050560273, 31.423586848], [120.5822103510235, 31.423586848], [120.5822103510235, 31.423677312]]]}}, {"type": "Feature", "properties": {"area_ha": 0.0, "mean": null}, "geometry": {"type": "Polygon", "coordinates": [[[120.54040823752844, 31.42340592], [120.54030294253222, 31.423315456], [120.54040823752844, 31.423315456], [120.54040823752844, 31.42340592]]]}}, {"type": "Feature", "properties": {"area_ha": 0.01, "mean": 0.4074}, "geometry": {"type": "Polygon", "coordinates": [[[120.54272472744503, 31.423044064], [120.54261943244883, 31.422772672], [120.54272472744503, 31.422772672], [120.54272472744503, 31.423044064]]]}}, {"type": "Feature", "properties": {"area_ha": 0.0, "mean": null}, "geometry": {"type": "Polygon", "coordinates": [[[120.54051353252464, 31.422682208], [120.54040823752844, 31.422591744], [120.54051353252464, 31.422591744], [120.54051353252464, 31.422682208]]]}}, {"type": "Feature", "properties": {"area_ha": 0.0, "mean": null}, "geometry": {"type": "Polygon", "coordinates": [[[120.54283002244125, 31.422682208], [120.54272472744503, 31.422591744], [120.54283002244125, 31.422591744], [120.54283002244125, 31.422682208]]]}}, {"type": "Feature", "properties": {"area_ha": 0.0, "mean": null}, "geometry": {"type": "Polygon", "coordinates": [[[120.54061882752086, 31.42250128], [120.54051353252464, 31.422410816], [120.54061882752086, 31.422410816], [120.54061882752086, 31.42250128]]]}}, {"type": "Feature", "properties": {"area_ha": 0.0, "mean": null}, "geometry": {"type": "Polygon", "coordinates": [[[120.54293531743745, 31.42250128], [120.54283002244125, 31.422410816], [120.54293531743745, 31.422410816], [120.54293531743745, 31.42250128]]]}}, {"type": "Feature", "properties": {"area_ha": 0.0, "mean": null}, "geometry": {"type": "Polygon", "coordinates": [[[120.54072412251706, 31.422320352], [120.54061882752086, 31.422229888], [120.54072412251706, 31.422229888], [120.54072412251706, 31.422320352]]]}}, {"type": "Feature", "properties": {"area_ha": 0.0, "mean": null}, "geometry": {"type": "Polygon", "coordinates": [[[120.58400036595907, 31.42204896], [120.58389507096285, 31.421958496000002], [120.58400036595907, 31.421958496000002], [120.58400036595907, 31.42204896]]]}}, {"type": "Feature", "properties": {"area_ha": 0.0, "mean": null}, "geometry": {"type": "Polygon", "coordinates": [[[120.58410566095527, 31.421958496000002], [120.58400036595907, 31.421868032], [120.58410566095527, 31.421868032], [120.58410566095527, 31.421958496000002]]]}}, {"type": "Feature", "properties": {"area_ha": 0.0, "mean": null}, "geometry": {"type": "Polygon", "coordinates": [[[120.54093471250948, 31.421868032], [120.54082941751327, 31.421777568], [120.54093471250948, 31.421777568], [120.54093471250948, 31.421868032]]]}}, {"type": "Feature", "properties": {"area_ha": 0.01, "mean": 0.2271}, "geometry": {"type": "Polygon", "coordinates": [[[120.5844215459439, 31.421868032], [120.58410566095527, 31.421777568], [120.5844215459439, 31.421777568], [120.5844215459439, 31.421868032]]]}}, {"type": "Feature", "properties": {"area_ha": 0.0, "mean": null}, "geometry": {"type": "Polygon", "coordinates": [[[120.58452684094011, 31.421777568], [120.5844215459439, 31.421687104], [120.58452684094011, 31.421687104], [120.58452684094011, 31.421777568]]]}}, {"type": "Feature", "properties": {"area_ha": 0.0, "mean": null}, "geometry": {"type": "Polygon", "coordinates": [[[120.54104000750569, 31.421687104], [120.54093471250948, 31.42159664], [120.54104000750569, 31.42159664], [120.54104000750569, 31.421687104]]]}}, {"type": "Feature", "properties": {"area_ha": 0.0, "mean": null}, "geometry": {"type": "Polygon", "coordinates": [[[120.58600097088704, 31.420782464000002], [120.58589567589082, 31.420692], [120.58600097088704, 31.420692], [120.58600097088704, 31.420782464000002]]]}}, {"type": "Feature", "properties": {"area_ha": 0.0, "mean": null}, "geometry": {"type": "Polygon", "coordinates": [[[120.5411453025019, 31.420420608], [120.54104000750569, 31.420330144], [120.5411453025019, 31.420330144], [120.5411453025019, 31.420420608]]]}}, {"type": "Feature", "properties": {"area_ha": 0.03, "mean": 0.1294}, "geometry": {"type": "Polygon", "coordinates": [[[120.58663274086429, 31.420601536], [120.58631685587567, 31.420330144], [120.58652744586809, 31.42023968], [120.58663274086429, 31.420601536]]]}}, {"type": "Feature", "properties": {"area_ha": 0.0, "mean": null}, "geometry": {"type": "Polygon", "coordinates": [[[120.54104000750569, 31.420149216], [120.54093471250948, 31.420058752], [120.54104000750569, 31.420058752], [120.54104000750569, 31.420149216]]]}}, {"type": "Feature", "properties": {"area_ha": 0.0, "mean": null}, "geometry": {"type": "Polygon", "coordinates": [[[120.54082941751327, 31.419877824], [120.54072412251706, 31.41978736], [120.54082941751327, 31.41978736], [120.54082941751327, 31.419877824]]]}}, {"type": "Feature", "properties": {"area_ha": 0.0, "mean": null}, "geometry": {"type": "Polygon", "coordinates": [[[120.54051353252464, 31.41933504], [120.54040823752844, 31.419244576], [120.54051353252464, 31.419244576], [120.54051353252464, 31.41933504]]]}}, {"type": "Feature", "properties": {"area_ha": 0.0, "mean": null}, "geometry": {"type": "Polygon", "coordinates": [[[120.54061882752086, 31.419154112], [120.54051353252464, 31.419063648], [120.54061882752086, 31.419063648], [120.54061882752086, 31.419154112]]]}}, {"type": "Feature", "properties": {"area_ha": 0.01, "mean": 0.3102}, "geometry": {"type": "Polygon", "coordinates": [[[120.52198161319181, 31.410017248], [120.52187631819561, 31.40983632], [120.52198161319181, 31.40983632], [120.52198161319181, 31.410017248]]]}}, {"type": "Feature", "properties": {"area_ha": 0.0, "mean": null}, "geometry": {"type": "Polygon", "coordinates": [[[120.52219220318423, 31.409203072], [120.52208690818803, 31.409112608], [120.52219220318423, 31.409112608], [120.52219220318423, 31.409203072]]]}}]}