{"type": "FeatureCollection", "features": [{"type": "Feature", "properties": {"name": "黄埭镇水体边界 (JRC参考+S2 10m细化)"}, "geometry": {"type": "MultiPolygon", "coordinates": [[[[120.52187631819561, 31.40893168], [120.52198161319181, 31.409022144], [120.52198161319181, 31.40893168], [120.52187631819561, 31.40893168]]], [[[120.52208690818803, 31.409112608], [120.52208690818803, 31.409022144], [120.52198161319181, 31.409022144], [120.52208690818803, 31.409112608]]], [[[120.52208690818803, 31.409112608], [120.52187631819561, 31.410017248], [120.52429810310842, 31.410831424], [120.52208690818803, 31.409112608]]], [[[120.52440339810462, 31.411012352], [120.52440339810462, 31.410921888], [120.52429810310842, 31.410921888], [120.52440339810462, 31.411012352]]], [[[120.52440339810462, 31.411012352], [120.52450869310084, 31.411102816], [120.52450869310084, 31.411012352], [120.52440339810462, 31.411012352]]], [[[120.52703577300986, 31.41300256], [120.52598282304777, 31.412278848], [120.52608811804397, 31.41255024], [120.52703577300986, 31.41300256]]], [[[120.5149268484458, 31.4139072], [120.5148215534496, 31.413545344], [120.51461096345717, 31.413635808], [120.5149268484458, 31.4139072]]], [[[120.53145816285065, 31.416078336], [120.52703577300986, 31.413093024000002], [120.52945755792267, 31.415173696], [120.53145816285065, 31.416078336]]], [[[120.51682215837756, 31.41933504], [120.51671686338135, 31.418973184], [120.51650627338894, 31.419063648], [120.51682215837756, 31.41933504]]], [[[120.51829628832449, 31.4274768], [120.51829628832449, 31.42657216], [120.51745392835483, 31.427205408], [120.51829628832449, 31.4274768]]], [[[120.52356103813496, 31.4274768], [120.52366633313116, 31.427295872000002], [120.5229292681577, 31.427386336], [120.52356103813496, 31.4274768]]], [[[120.52008630326004, 31.431909536], [120.52198161319181, 31.427386336], [120.51934923828658, 31.4274768], [120.52008630326004, 31.431909536]]], [[[120.51755922335103, 31.433176032], [120.51734863335861, 31.43290464], [120.51692745337377, 31.433085568], [120.51755922335103, 31.433176032]]], [[[120.51692745337377, 31.435709024], [120.51703274836999, 31.435075776], [120.51629568339652, 31.435256704], [120.51692745337377, 31.435709024]]], [[[120.49176194927976, 31.451178368], [120.49165665428356, 31.450997440000002], [120.49144606429114, 31.451087904], [120.49176194927976, 31.451178368]]], [[[120.49207783426839, 31.452535328], [120.49081429431388, 31.452535328], [120.49165665428356, 31.453078112], [120.49207783426839, 31.452535328]]], [[[120.50376557884762, 31.45597296], [120.5035549888552, 31.45552064], [120.50323910386658, 31.455611104], [120.50376557884762, 31.45597296]]], [[[120.51071504859743, 31.45823456], [120.51082034359364, 31.458053632000002], [120.50997798362397, 31.457963168], [120.51071504859743, 31.45823456]]], [[[120.49818494404853, 31.46004384], [120.50913562365429, 31.46049616], [120.51218917854436, 31.467009568], [120.52082336823351, 31.470356736], [120.53230052282032, 31.46863792], [120.52461398809704, 31.466104928], [120.5207180732373, 31.469723488], [120.50903032865808, 31.459953376], [120.49492079916604, 31.457239456], [120.49818494404853, 31.46004384]]], [[[120.52629870803639, 31.464567040000002], [120.52619341304019, 31.46411472], [120.52566693805915, 31.464476576], [120.52629870803639, 31.464567040000002]]], [[[120.53230052282032, 31.416711584], [120.53240581781654, 31.416530656], [120.53145816285065, 31.4161688], [120.53230052282032, 31.416711584]]], [[[120.53809174761183, 31.42476288], [120.53819704260805, 31.424581952], [120.5377758626232, 31.424491488], [120.53809174761183, 31.42476288]]], [[[120.53735468263837, 31.424943808000002], [120.53745997763457, 31.42476288], [120.53693350265353, 31.424672416], [120.53735468263837, 31.424943808000002]]], [[[120.53609114268386, 31.425124736], [120.5366176176649, 31.424581952], [120.53282699780137, 31.424943808000002], [120.53609114268386, 31.425124736]]], [[[120.53019462289613, 31.425757984], [120.52903637793784, 31.42566752], [120.5287204929492, 31.426210304], [120.53019462289613, 31.425757984]]], [[[120.5388288125853, 31.441227328], [120.53872351758909, 31.439960832], [120.53830233760425, 31.441136864], [120.5388288125853, 31.441227328]]], [[[120.5377758626232, 31.447559808], [120.53840763260045, 31.44195104], [120.53798645261563, 31.442674752000002], [120.5377758626232, 31.447559808]]], [[[120.53682820765732, 31.450454656], [120.5367229126611, 31.450183264], [120.5365123226687, 31.450273728], [120.53682820765732, 31.450454656]]], [[[120.5366176176649, 31.451630688], [120.5365123226687, 31.451268832], [120.53630173267628, 31.451359296], [120.5366176176649, 31.451630688]]], [[[120.5365123226687, 31.452444864], [120.53640702767248, 31.451811616], [120.53619643768006, 31.45190208], [120.5365123226687, 31.452444864]]], [[[120.53630173267628, 31.453439968], [120.53619643768006, 31.452987648], [120.53598584768764, 31.453078112], [120.53630173267628, 31.453439968]]], [[[120.53556466770281, 31.456334816000002], [120.53566996269902, 31.45552064], [120.5354593727066, 31.455611104], [120.53556466770281, 31.456334816000002]]], [[[120.5353540777104, 31.457510848000002], [120.5354593727066, 31.456696672], [120.53524878271418, 31.456787136], [120.5353540777104, 31.457510848000002]]], [[[120.53524878271418, 31.458053632000002], [120.53524878271418, 31.457510848000002], [120.53514348771797, 31.457510848000002], [120.53524878271418, 31.458053632000002]]], [[[120.53493289772555, 31.459772448], [120.53493289772555, 31.459410592], [120.53472230773313, 31.459501056], [120.53493289772555, 31.459772448]]], [[[120.53482760272935, 31.460315232], [120.53482760272935, 31.459862912000002], [120.53461701273693, 31.459953376], [120.53482760272935, 31.460315232]]], [[[120.53472230773313, 31.46049616], [120.53472230773313, 31.460405696000002], [120.53461701273693, 31.460405696000002], [120.53472230773313, 31.46049616]]], [[[120.53398524275967, 31.464567040000002], [120.53398524275967, 31.464205184], [120.53377465276725, 31.464295648], [120.53398524275967, 31.464567040000002]]], [[[120.53377465276725, 31.46547168], [120.53387994776347, 31.464747968], [120.53282699780137, 31.466195392], [120.53377465276725, 31.46547168]]], [[[120.53124757285823, 31.46773328], [120.53124757285823, 31.466647712], [120.53029991789235, 31.467100032], [120.53124757285823, 31.46773328]]], [[[120.53008932789993, 31.46773328], [120.53019462289613, 31.467190496], [120.52903637793784, 31.466919104000002], [120.53008932789993, 31.46773328]]], [[[120.55125362213799, 31.418430400000002], [120.55051655716453, 31.416530656], [120.54261943244883, 31.422772672], [120.55125362213799, 31.418430400000002]]], [[[120.54230354746021, 31.422410816], [120.53967117255497, 31.41707344], [120.5411453025019, 31.420420608], [120.54230354746021, 31.422410816]]], [[[120.58663274086429, 31.420601536], [120.58631685587567, 31.41978736], [120.5821050560273, 31.422320352], [120.58663274086429, 31.420601536]]], [[[120.58242094101593, 31.42340592], [120.58199976103108, 31.42250128], [120.58052563108416, 31.42385824], [120.58242094101593, 31.42340592]]], [[[120.53903940257771, 31.424491488], [120.53893410758151, 31.42431056], [120.53872351758909, 31.424401024], [120.53903940257771, 31.424491488]]], [[[120.57968327111449, 31.425486592], [120.58042033608795, 31.42431056], [120.57483970128887, 31.426300768], [120.57968327111449, 31.425486592]]], [[[120.58042033608795, 31.42838144], [120.57936738612585, 31.426662624], [120.57926209112965, 31.427295872000002], [120.58042033608795, 31.42838144]]], [[[120.54061882752086, 31.430281184000002], [120.54051353252464, 31.429919328], [120.54030294253222, 31.430009792], [120.54061882752086, 31.430281184000002]]], [[[120.54051353252464, 31.430733504], [120.54040823752844, 31.430371648], [120.54019764753602, 31.430462112], [120.54051353252464, 31.430733504]]], [[[120.59842578043973, 31.431276288], [120.59853107543594, 31.43109536], [120.5982151904473, 31.431004896], [120.59842578043973, 31.431276288]]], [[[120.59937343540561, 31.43154768], [120.59926814040941, 31.431276288], [120.59905755041699, 31.431366752], [120.59937343540561, 31.43154768]]], [[[120.5412505974981, 31.432361856], [120.54040823752844, 31.431457216000002], [120.5398817625474, 31.432090464], [120.5412505974981, 31.432361856]]], [[[120.59937343540561, 31.43245232], [120.59905755041699, 31.431909536], [120.59874166542836, 31.432090464], [120.59937343540561, 31.43245232]]], [[[120.53977646755118, 31.435709024], [120.53967117255497, 31.434804384], [120.53946058256255, 31.434894848], [120.53977646755118, 31.435709024]]], [[[120.53967117255497, 31.43607088], [120.53956587755876, 31.435799488], [120.53935528756634, 31.435889952], [120.53967117255497, 31.43607088]]], [[[120.53946058256255, 31.438061088], [120.53946058256255, 31.437518304], [120.53914469757392, 31.437699232], [120.53946058256255, 31.438061088]]], [[[120.53903940257771, 31.439689440000002], [120.53893410758151, 31.438965728], [120.53861822259287, 31.439508512], [120.53903940257771, 31.439689440000002]]], [[[120.56294136671721, 31.439689440000002], [120.56230959673996, 31.439327584], [120.56220430174375, 31.439689440000002], [120.56294136671721, 31.439689440000002]]], [[[120.54967419719485, 31.441317792], [120.54988478718727, 31.440684544], [120.5491477222138, 31.440775008], [120.54967419719485, 31.441317792]]], [[[120.53946058256255, 31.445931456], [120.53893410758151, 31.445207744], [120.53861822259287, 31.445298208], [120.53946058256255, 31.445931456]]], [[[120.54146118749053, 31.446112384], [120.54156648248674, 31.445931456], [120.5399870575436, 31.445931456], [120.54146118749053, 31.446112384]]]]}}]}