{"type": "FeatureCollection", "features": [{"type": "Feature", "properties": {"area_ha": 0.0, "mean": null}, "geometry": {"type": "Polygon", "coordinates": [[[120.54072412251706, 31.474699008], [120.54061882752086, 31.474608544000002], [120.54072412251706, 31.474608544000002], [120.54072412251706, 31.474699008]]]}}, {"type": "Feature", "properties": {"area_ha": 0.0, "mean": null}, "geometry": {"type": "Polygon", "coordinates": [[[120.53967117255497, 31.473975296], [120.53956587755876, 31.473884832], [120.53967117255497, 31.473884832], [120.53967117255497, 31.473975296]]]}}, {"type": "Feature", "properties": {"area_ha": 0.0, "mean": null}, "geometry": {"type": "Polygon", "coordinates": [[[120.53924999257013, 31.473070656], [120.53914469757392, 31.472980192], [120.53924999257013, 31.472980192], [120.53924999257013, 31.473070656]]]}}, {"type": "Feature", "properties": {"area_ha": 0.0, "mean": null}, "geometry": {"type": "Polygon", "coordinates": [[[120.53745997763457, 31.47180416], [120.53735468263837, 31.471713696000002], [120.53745997763457, 31.471713696000002], [120.53745997763457, 31.47180416]]]}}, {"type": "Feature", "properties": {"area_ha": 0.0, "mean": null}, "geometry": {"type": "Polygon", "coordinates": [[[120.53756527263079, 31.470809056], [120.53745997763457, 31.470718592], [120.53756527263079, 31.470718592], [120.53756527263079, 31.470809056]]]}}, {"type": "Feature", "properties": {"area_ha": 0.0, "mean": null}, "geometry": {"type": "Polygon", "coordinates": [[[120.5309316878696, 31.468999776], [120.5308263928734, 31.468909312], [120.5309316878696, 31.468909312], [120.5309316878696, 31.468999776]]]}}, {"type": "Feature", "properties": {"area_ha": 0.0, "mean": null}, "geometry": {"type": "Polygon", "coordinates": [[[120.52714106800607, 31.467552352000002], [120.52703577300986, 31.467461888], [120.52714106800607, 31.467461888], [120.52714106800607, 31.467552352000002]]]}}, {"type": "Feature", "properties": {"area_ha": 0.0, "mean": null}, "geometry": {"type": "Polygon", "coordinates": [[[120.5241928081122, 31.466647712], [120.524087513116, 31.466557248], [120.5241928081122, 31.466557248], [120.5241928081122, 31.466647712]]]}}, {"type": "Feature", "properties": {"area_ha": 0.0, "mean": null}, "geometry": {"type": "Polygon", "coordinates": [[[120.52429810310842, 31.466466784], [120.5241928081122, 31.466376320000002], [120.52429810310842, 31.466376320000002], [120.52429810310842, 31.466466784]]]}}, {"type": "Feature", "properties": {"area_ha": 0.0, "mean": null}, "geometry": {"type": "Polygon", "coordinates": [[[120.59863637043215, 31.431004896], [120.59853107543594, 31.430914432], [120.59863637043215, 31.430914432], [120.59863637043215, 31.431004896]]]}}, {"type": "Feature", "properties": {"area_ha": 0.01, "mean": 0.1076}, "geometry": {"type": "Polygon", "coordinates": [[[120.59905755041699, 31.430914432], [120.59884696042457, 31.430914432], [120.59863637043215, 31.430823968000002], [120.59905755041699, 31.430914432]]]}}, {"type": "Feature", "properties": {"area_ha": 0.0, "mean": null}, "geometry": {"type": "Polygon", "coordinates": [[[120.54735770727825, 31.42702448], [120.54725241228203, 31.426934016], [120.54735770727825, 31.426934016], [120.54735770727825, 31.42702448]]]}}, {"type": "Feature", "properties": {"area_ha": 0.03, "mean": 0.1636}, "geometry": {"type": "Polygon", "coordinates": [[[120.58410566095527, 31.420149216], [120.58378977596665, 31.420058752], [120.58389507096285, 31.419877824], [120.58410566095527, 31.420149216]]]}}, {"type": "Feature", "properties": {"area_ha": 0.01, "mean": 0.1901}, "geometry": {"type": "Polygon", "coordinates": [[[120.59442457058378, 31.411826528], [120.59421398059136, 31.411826528], [120.59389809560274, 31.411736064], [120.59442457058378, 31.411826528]]]}}, {"type": "Feature", "properties": {"area_ha": 0.04, "mean": 0.1896}, "geometry": {"type": "Polygon", "coordinates": [[[120.59631988051555, 31.409745856], [120.59600399552691, 31.409564928], [120.59621458551933, 31.409474464], [120.59631988051555, 31.409745856]]]}}, {"type": "Feature", "properties": {"area_ha": 0.0, "mean": null}, "geometry": {"type": "Polygon", "coordinates": [[[120.59705694548902, 31.409112608], [120.5969516504928, 31.409022144], [120.59705694548902, 31.409022144], [120.59705694548902, 31.409112608]]]}}, {"type": "Feature", "properties": {"area_ha": 0.06, "mean": 0.1914}, "geometry": {"type": "Polygon", "coordinates": [[[120.5968463554966, 31.409203072], [120.59621458551933, 31.409022144], [120.59631988051555, 31.408841216], [120.5968463554966, 31.409203072]]]}}, {"type": "Feature", "properties": {"area_ha": 0.0, "mean": null}, "geometry": {"type": "Polygon", "coordinates": [[[120.54704182228961, 31.39536208], [120.54693652729341, 31.395271616], [120.54704182228961, 31.395271616], [120.54704182228961, 31.39536208]]]}}, {"type": "Feature", "properties": {"area_ha": 0.0, "mean": null}, "geometry": {"type": "Polygon", "coordinates": [[[120.54704182228961, 31.395000224], [120.54693652729341, 31.39490976], [120.54704182228961, 31.39490976], [120.54704182228961, 31.395000224]]]}}]}