{"type": "FeatureCollection", "features": [{"type": "Feature", "properties": {"area_ha": 0.0, "mean": null}, "geometry": {"type": "Polygon", "coordinates": [[[120.54072412251706, 31.474699008], [120.54061882752086, 31.474608544000002], [120.54072412251706, 31.474608544000002], [120.54072412251706, 31.474699008]]]}}, {"type": "Feature", "properties": {"area_ha": 0.0, "mean": null}, "geometry": {"type": "Polygon", "coordinates": [[[120.5400923525398, 31.474246688], [120.5399870575436, 31.474156224], [120.5400923525398, 31.474156224], [120.5400923525398, 31.474246688]]]}}, {"type": "Feature", "properties": {"area_ha": 0.0, "mean": null}, "geometry": {"type": "Polygon", "coordinates": [[[120.53724938764216, 31.471713696000002], [120.53714409264595, 31.471623232000002], [120.53724938764216, 31.471623232000002], [120.53724938764216, 31.471713696000002]]]}}, {"type": "Feature", "properties": {"area_ha": 0.0, "mean": null}, "geometry": {"type": "Polygon", "coordinates": [[[120.53756527263079, 31.470809056], [120.53745997763457, 31.470718592], [120.53756527263079, 31.470718592], [120.53756527263079, 31.470809056]]]}}, {"type": "Feature", "properties": {"area_ha": 0.0, "mean": null}, "geometry": {"type": "Polygon", "coordinates": [[[120.5309316878696, 31.468999776], [120.5308263928734, 31.468909312], [120.5309316878696, 31.468909312], [120.5309316878696, 31.468999776]]]}}, {"type": "Feature", "properties": {"area_ha": 0.0, "mean": null}, "geometry": {"type": "Polygon", "coordinates": [[[120.52840460796058, 31.468276064], [120.52829931296438, 31.4681856], [120.52840460796058, 31.4681856], [120.52840460796058, 31.468276064]]]}}, {"type": "Feature", "properties": {"area_ha": 0.01, "mean": 0.1446}, "geometry": {"type": "Polygon", "coordinates": [[[120.52787813297954, 31.46773328], [120.52766754298712, 31.467642816], [120.52787813297954, 31.467642816], [120.52787813297954, 31.46773328]]]}}, {"type": "Feature", "properties": {"area_ha": 0.0, "mean": null}, "geometry": {"type": "Polygon", "coordinates": [[[120.5241928081122, 31.466647712], [120.524087513116, 31.466557248], [120.5241928081122, 31.466557248], [120.5241928081122, 31.466647712]]]}}, {"type": "Feature", "properties": {"area_ha": 0.01, "mean": 0.1808}, "geometry": {"type": "Polygon", "coordinates": [[[120.52429810310842, 31.466557248], [120.5241928081122, 31.466376320000002], [120.52429810310842, 31.466376320000002], [120.52429810310842, 31.466557248]]]}}, {"type": "Feature", "properties": {"area_ha": 0.0, "mean": null}, "geometry": {"type": "Polygon", "coordinates": [[[120.52440339810462, 31.466376320000002], [120.52429810310842, 31.466285856], [120.52440339810462, 31.466285856], [120.52440339810462, 31.466376320000002]]]}}, {"type": "Feature", "properties": {"area_ha": 0.02, "mean": 0.1823}, "geometry": {"type": "Polygon", "coordinates": [[[120.59916284541319, 31.431004896], [120.59884696042457, 31.430823968000002], [120.59916284541319, 31.430914432], [120.59916284541319, 31.431004896]]]}}, {"type": "Feature", "properties": {"area_ha": 0.0, "mean": null}, "geometry": {"type": "Polygon", "coordinates": [[[120.54830536224412, 31.426934016], [120.54820006724792, 31.426843552], [120.54830536224412, 31.426843552], [120.54830536224412, 31.426934016]]]}}, {"type": "Feature", "properties": {"area_ha": 0.0, "mean": null}, "geometry": {"type": "Polygon", "coordinates": [[[120.54841065724034, 31.426300768], [120.54830536224412, 31.426210304], [120.54841065724034, 31.426210304], [120.54841065724034, 31.426300768]]]}}, {"type": "Feature", "properties": {"area_ha": 0.04, "mean": 0.2259}, "geometry": {"type": "Polygon", "coordinates": [[[120.5411453025019, 31.424943808000002], [120.54072412251706, 31.425034272], [120.54082941751327, 31.424853344], [120.5411453025019, 31.424943808000002]]]}}, {"type": "Feature", "properties": {"area_ha": 11.61, "mean": 0.2029}, "geometry": {"type": "Polygon", "coordinates": [[[120.54777888726308, 31.428290976], [120.54504121736164, 31.424039168], [120.54514651235785, 31.422682208], [120.5490424272176, 31.424129632], [120.54777888726308, 31.428290976]], [[120.54777888726308, 31.426210304], [120.5479894772555, 31.426391232], [120.5479894772555, 31.426210304], [120.54777888726308, 31.426210304]], [[120.5468312322972, 31.426119840000002], [120.54693652729341, 31.426300768], [120.54693652729341, 31.426119840000002], [120.5468312322972, 31.426119840000002]], [[120.54777888726308, 31.4252152], [120.5479894772555, 31.425396128], [120.5479894772555, 31.4252152], [120.54777888726308, 31.4252152]], [[120.54735770727825, 31.425124736], [120.54756829727066, 31.4252152], [120.54756829727066, 31.425124736], [120.54735770727825, 31.425124736]]]}}, {"type": "Feature", "properties": {"area_ha": 0.96, "mean": 0.193}, "geometry": {"type": "Polygon", "coordinates": [[[120.5867380358605, 31.42023968], [120.58400036595907, 31.41978736], [120.58694862585293, 31.419606432000002], [120.5867380358605, 31.42023968]]]}}, {"type": "Feature", "properties": {"area_ha": 0.02, "mean": 0.1334}, "geometry": {"type": "Polygon", "coordinates": [[[120.59495104556483, 31.412369312], [120.5946351605762, 31.412278848], [120.59484575056861, 31.412188384], [120.59495104556483, 31.412369312]]]}}, {"type": "Feature", "properties": {"area_ha": 0.0, "mean": null}, "geometry": {"type": "Polygon", "coordinates": [[[120.59442457058378, 31.412278848], [120.59431927558757, 31.412188384], [120.59442457058378, 31.412188384], [120.59442457058378, 31.412278848]]]}}, {"type": "Feature", "properties": {"area_ha": 0.0, "mean": null}, "geometry": {"type": "Polygon", "coordinates": [[[120.59452986557999, 31.412188384], [120.59442457058378, 31.41209792], [120.59452986557999, 31.41209792], [120.59452986557999, 31.412188384]]]}}, {"type": "Feature", "properties": {"area_ha": 0.02, "mean": 0.1548}, "geometry": {"type": "Polygon", "coordinates": [[[120.59452986557999, 31.411826528], [120.59431927558757, 31.411826528], [120.59421398059136, 31.4116456], [120.59452986557999, 31.411826528]]]}}, {"type": "Feature", "properties": {"area_ha": 0.0, "mean": null}, "geometry": {"type": "Polygon", "coordinates": [[[120.59410868559515, 31.411736064], [120.59400339059894, 31.4116456], [120.59410868559515, 31.4116456], [120.59410868559515, 31.411736064]]]}}, {"type": "Feature", "properties": {"area_ha": 0.0, "mean": null}, "geometry": {"type": "Polygon", "coordinates": [[[120.59621458551933, 31.40983632], [120.59610929052313, 31.409745856], [120.59621458551933, 31.409745856], [120.59621458551933, 31.40983632]]]}}, {"type": "Feature", "properties": {"area_ha": 0.02, "mean": 0.2061}, "geometry": {"type": "Polygon", "coordinates": [[[120.59631988051555, 31.409745856], [120.59610929052313, 31.409474464], [120.59631988051555, 31.409564928], [120.59631988051555, 31.409745856]]]}}, {"type": "Feature", "properties": {"area_ha": 0.43, "mean": 0.1619}, "geometry": {"type": "Polygon", "coordinates": [[[120.58958100075816, 31.410469568], [120.58926511576952, 31.40983632], [120.58937041076574, 31.409112608], [120.58979159075058, 31.409293536], [120.58958100075816, 31.410469568]], [[120.58947570576194, 31.409564928], [120.58958100075816, 31.409655392], [120.58958100075816, 31.409564928], [120.58947570576194, 31.409564928]]]}}, {"type": "Feature", "properties": {"area_ha": 0.0, "mean": null}, "geometry": {"type": "Polygon", "coordinates": [[[120.58979159075058, 31.409112608], [120.58968629575436, 31.409022144], [120.58979159075058, 31.409022144], [120.58979159075058, 31.409112608]]]}}, {"type": "Feature", "properties": {"area_ha": 0.0, "mean": null}, "geometry": {"type": "Polygon", "coordinates": [[[120.58947570576194, 31.40893168], [120.58937041076574, 31.408841216], [120.58947570576194, 31.408841216], [120.58947570576194, 31.40893168]]]}}, {"type": "Feature", "properties": {"area_ha": 0.13, "mean": 0.2183}, "geometry": {"type": "Polygon", "coordinates": [[[120.5968463554966, 31.409293536], [120.59631988051555, 31.408841216], [120.59705694548902, 31.40893168], [120.5968463554966, 31.409293536]]]}}, {"type": "Feature", "properties": {"area_ha": 0.06, "mean": 0.1349}, "geometry": {"type": "Polygon", "coordinates": [[[120.59000218074299, 31.408841216], [120.58958100075816, 31.408569824], [120.5901074757392, 31.408660288], [120.59000218074299, 31.408841216]]]}}, {"type": "Feature", "properties": {"area_ha": 0.08, "mean": 0.2379}, "geometry": {"type": "Polygon", "coordinates": [[[120.5468312322972, 31.395090688], [120.54662064230477, 31.394728832], [120.54725241228203, 31.395090688], [120.5468312322972, 31.395090688]]]}}]}