{"type": "FeatureCollection", "features": [{"type": "Feature", "properties": {"name": "黄埭镇水体边界 (JRC参考+S2 10m细化)"}, "geometry": {"type": "MultiPolygon", "coordinates": [[[[120.5468312322972, 31.395543008], [120.54725241228203, 31.395090688], [120.54662064230477, 31.394728832], [120.5468312322972, 31.395543008]]], [[[120.58694862585293, 31.419606432000002], [120.58400036595907, 31.41978736], [120.5867380358605, 31.42023968], [120.58694862585293, 31.419606432000002]]], [[[120.54514651235785, 31.422682208], [120.54504121736164, 31.424039168], [120.5490424272176, 31.424129632], [120.54514651235785, 31.422682208]]], [[[120.54082941751327, 31.424853344], [120.54072412251706, 31.425034272], [120.5411453025019, 31.424943808000002], [120.54082941751327, 31.424853344]]], [[[120.5241928081122, 31.466376320000002], [120.524087513116, 31.466647712], [120.52840460796058, 31.4681856], [120.5241928081122, 31.466376320000002]]], [[[120.52850990295678, 31.46863792], [120.5287204929492, 31.469633024], [120.53219522782412, 31.468728384000002], [120.52850990295678, 31.46863792]]], [[[120.53893410758151, 31.471080448000002], [120.5367229126611, 31.470628128], [120.5388288125853, 31.471442304], [120.53893410758151, 31.471080448000002]]], [[[120.53903940257771, 31.471442304], [120.53946058256255, 31.473884832], [120.54040823752844, 31.472166016], [120.53903940257771, 31.471442304]]], [[[120.59705694548902, 31.40893168], [120.59621458551933, 31.40893168], [120.5968463554966, 31.409293536], [120.59705694548902, 31.40893168]]], [[[120.59000218074299, 31.408569824], [120.58937041076574, 31.408841216], [120.58968629575436, 31.410469568], [120.59000218074299, 31.408569824]]], [[[120.59621458551933, 31.409474464], [120.59600399552691, 31.409564928], [120.59631988051555, 31.409745856], [120.59621458551933, 31.409474464]]], [[[120.60105815534496, 31.411283744], [120.60084756535254, 31.411374208], [120.60116345034118, 31.411555136], [120.60105815534496, 31.411283744]]], [[[120.59400339059894, 31.4116456], [120.59368750561032, 31.412007456], [120.59452986557999, 31.411826528], [120.59400339059894, 31.4116456]]], [[[120.59484575056861, 31.412188384], [120.5946351605762, 31.412278848], [120.59495104556483, 31.412369312], [120.59484575056861, 31.412188384]]], [[[120.59863637043215, 31.430823968000002], [120.59853107543594, 31.431004896], [120.59916284541319, 31.430914432], [120.59863637043215, 31.430823968000002]]]]}}]}