{"type": "FeatureCollection", "features": [{"type": "Feature", "properties": {"area_ha": 0.0, "mean": null}, "geometry": {"type": "Polygon", "coordinates": [[[120.5229292681577, 31.467914208], [120.5228239731615, 31.467823744], [120.5229292681577, 31.467823744], [120.5229292681577, 31.467914208]]]}}, {"type": "Feature", "properties": {"area_ha": 0.0, "mean": null}, "geometry": {"type": "Polygon", "coordinates": [[[120.52313985815012, 31.467190496], [120.52303456315391, 31.467100032], [120.52313985815012, 31.467100032], [120.52313985815012, 31.467190496]]]}}, {"type": "Feature", "properties": {"area_ha": 0.0, "mean": null}, "geometry": {"type": "Polygon", "coordinates": [[[120.51187329355572, 31.46411472], [120.51176799855952, 31.464024256000002], [120.51187329355572, 31.464024256000002], [120.51187329355572, 31.46411472]]]}}, {"type": "Feature", "properties": {"area_ha": 0.0, "mean": null}, "geometry": {"type": "Polygon", "coordinates": [[[120.53788115761941, 31.447378880000002], [120.5377758626232, 31.447288416], [120.53788115761941, 31.447288416], [120.53788115761941, 31.447378880000002]]]}}, {"type": "Feature", "properties": {"area_ha": 0.0, "mean": null}, "geometry": {"type": "Polygon", "coordinates": [[[120.53756527263079, 31.445479136], [120.53745997763457, 31.445388672], [120.53756527263079, 31.445388672], [120.53756527263079, 31.445479136]]]}}, {"type": "Feature", "properties": {"area_ha": 0.0, "mean": null}, "geometry": {"type": "Polygon", "coordinates": [[[120.5377758626232, 31.444484032000002], [120.53767056762699, 31.444393568], [120.5377758626232, 31.444393568], [120.5377758626232, 31.444484032000002]]]}}, {"type": "Feature", "properties": {"area_ha": 0.0, "mean": null}, "geometry": {"type": "Polygon", "coordinates": [[[120.53861822259287, 31.44014176], [120.53851292759667, 31.440051296], [120.53861822259287, 31.440051296], [120.53861822259287, 31.44014176]]]}}, {"type": "Feature", "properties": {"area_ha": 0.02, "mean": 0.1365}, "geometry": {"type": "Polygon", "coordinates": [[[120.59895225542078, 31.43290464], [120.59884696042457, 31.432723712], [120.59905755041699, 31.432723712], [120.59895225542078, 31.43290464]]]}}, {"type": "Feature", "properties": {"area_ha": 0.0, "mean": null}, "geometry": {"type": "Polygon", "coordinates": [[[120.59853107543594, 31.431185824], [120.59842578043973, 31.43109536], [120.59853107543594, 31.43109536], [120.59853107543594, 31.431185824]]]}}, {"type": "Feature", "properties": {"area_ha": 0.0, "mean": null}, "geometry": {"type": "Polygon", "coordinates": [[[120.59842578043973, 31.43109536], [120.59832048544352, 31.431004896], [120.59842578043973, 31.431004896], [120.59842578043973, 31.43109536]]]}}, {"type": "Feature", "properties": {"area_ha": 0.0, "mean": null}, "geometry": {"type": "Polygon", "coordinates": [[[120.59853107543594, 31.431004896], [120.59842578043973, 31.430914432], [120.59853107543594, 31.430914432], [120.59853107543594, 31.431004896]]]}}, {"type": "Feature", "properties": {"area_ha": 0.0, "mean": null}, "geometry": {"type": "Polygon", "coordinates": [[[120.59863637043215, 31.430914432], [120.59853107543594, 31.430823968000002], [120.59863637043215, 31.430823968000002], [120.59863637043215, 31.430914432]]]}}, {"type": "Feature", "properties": {"area_ha": 0.0, "mean": null}, "geometry": {"type": "Polygon", "coordinates": [[[120.51850687831691, 31.429557472], [120.5184015833207, 31.429467008], [120.51850687831691, 31.429467008], [120.51850687831691, 31.429557472]]]}}, {"type": "Feature", "properties": {"area_ha": 0.0, "mean": null}, "geometry": {"type": "Polygon", "coordinates": [[[120.51882276330554, 31.42928608], [120.51871746830933, 31.429195616], [120.51882276330554, 31.429195616], [120.51882276330554, 31.42928608]]]}}, {"type": "Feature", "properties": {"area_ha": 0.0, "mean": null}, "geometry": {"type": "Polygon", "coordinates": [[[120.51892805830175, 31.429195616], [120.51882276330554, 31.429105152], [120.51892805830175, 31.429105152], [120.51892805830175, 31.429195616]]]}}, {"type": "Feature", "properties": {"area_ha": 0.0, "mean": null}, "geometry": {"type": "Polygon", "coordinates": [[[120.51892805830175, 31.428924224], [120.51882276330554, 31.42883376], [120.51892805830175, 31.42883376], [120.51892805830175, 31.428924224]]]}}, {"type": "Feature", "properties": {"area_ha": 0.0, "mean": null}, "geometry": {"type": "Polygon", "coordinates": [[[120.57199673639121, 31.428924224], [120.571891441395, 31.42883376], [120.57199673639121, 31.42883376], [120.57199673639121, 31.428924224]]]}}, {"type": "Feature", "properties": {"area_ha": 0.0, "mean": null}, "geometry": {"type": "Polygon", "coordinates": [[[120.51892805830175, 31.428652832], [120.51882276330554, 31.428562368], [120.51892805830175, 31.428562368], [120.51892805830175, 31.428652832]]]}}, {"type": "Feature", "properties": {"area_ha": 0.0, "mean": null}, "geometry": {"type": "Polygon", "coordinates": [[[120.51903335329796, 31.428471904000002], [120.51892805830175, 31.42838144], [120.51903335329796, 31.42838144], [120.51903335329796, 31.428471904000002]]]}}, {"type": "Feature", "properties": {"area_ha": 0.0, "mean": null}, "geometry": {"type": "Polygon", "coordinates": [[[120.5207180732373, 31.428019584], [120.5206127782411, 31.42792912], [120.5207180732373, 31.42792912], [120.5207180732373, 31.428019584]]]}}, {"type": "Feature", "properties": {"area_ha": 0.0, "mean": null}, "geometry": {"type": "Polygon", "coordinates": [[[120.5194545332828, 31.427567264], [120.51934923828658, 31.4274768], [120.5194545332828, 31.4274768], [120.5194545332828, 31.427567264]]]}}, {"type": "Feature", "properties": {"area_ha": 0.0, "mean": null}, "geometry": {"type": "Polygon", "coordinates": [[[120.54072412251706, 31.42702448], [120.54061882752086, 31.426934016], [120.54072412251706, 31.426934016], [120.54072412251706, 31.42702448]]]}}, {"type": "Feature", "properties": {"area_ha": 0.0, "mean": null}, "geometry": {"type": "Polygon", "coordinates": [[[120.53566996269902, 31.424581952], [120.53556466770281, 31.424491488], [120.53566996269902, 31.424491488], [120.53566996269902, 31.424581952]]]}}]}