{"type": "FeatureCollection", "features": [{"type": "Feature", "properties": {"area_ha": 0.0, "mean": null}, "geometry": {"type": "Polygon", "coordinates": [[[120.51987571326764, 31.469452096], [120.51977041827142, 31.469361632000002], [120.51987571326764, 31.469361632000002], [120.51987571326764, 31.469452096]]]}}, {"type": "Feature", "properties": {"area_ha": 0.01, "mean": 0.3539}, "geometry": {"type": "Polygon", "coordinates": [[[120.53061580288097, 31.46909024], [120.53040521288855, 31.468999776], [120.53061580288097, 31.468999776], [120.53061580288097, 31.46909024]]]}}, {"type": "Feature", "properties": {"area_ha": 0.0, "mean": null}, "geometry": {"type": "Polygon", "coordinates": [[[120.52935226292647, 31.468999776], [120.52924696793025, 31.468909312], [120.52935226292647, 31.468909312], [120.52935226292647, 31.468999776]]]}}, {"type": "Feature", "properties": {"area_ha": 0.0, "mean": null}, "geometry": {"type": "Polygon", "coordinates": [[[120.53103698286581, 31.468999776], [120.5309316878696, 31.468909312], [120.53103698286581, 31.468909312], [120.53103698286581, 31.468999776]]]}}, {"type": "Feature", "properties": {"area_ha": 0.0, "mean": null}, "geometry": {"type": "Polygon", "coordinates": [[[120.52819401796816, 31.468004672], [120.52808872297196, 31.467914208], [120.52819401796816, 31.467914208], [120.52819401796816, 31.468004672]]]}}, {"type": "Feature", "properties": {"area_ha": 0.0, "mean": null}, "geometry": {"type": "Polygon", "coordinates": [[[120.51650627338894, 31.467914208], [120.51640097839272, 31.467823744], [120.51650627338894, 31.467823744], [120.51650627338894, 31.467914208]]]}}, {"type": "Feature", "properties": {"area_ha": 0.0, "mean": null}, "geometry": {"type": "Polygon", "coordinates": [[[120.52703577300986, 31.467552352000002], [120.52693047801365, 31.467461888], [120.52703577300986, 31.467461888], [120.52703577300986, 31.467552352000002]]]}}, {"type": "Feature", "properties": {"area_ha": 0.0, "mean": null}, "geometry": {"type": "Polygon", "coordinates": [[[120.53019462289613, 31.467371424], [120.53008932789993, 31.46728096], [120.53019462289613, 31.46728096], [120.53019462289613, 31.467371424]]]}}, {"type": "Feature", "properties": {"area_ha": 0.0, "mean": null}, "geometry": {"type": "Polygon", "coordinates": [[[120.5239822181198, 31.466919104000002], [120.52387692312358, 31.46682864], [120.5239822181198, 31.46682864], [120.5239822181198, 31.466919104000002]]]}}, {"type": "Feature", "properties": {"area_ha": 0.0, "mean": null}, "geometry": {"type": "Polygon", "coordinates": [[[120.5148215534496, 31.46682864], [120.51471625845338, 31.466738176], [120.5148215534496, 31.466738176], [120.5148215534496, 31.46682864]]]}}, {"type": "Feature", "properties": {"area_ha": 0.0, "mean": null}, "geometry": {"type": "Polygon", "coordinates": [[[120.51292624351782, 31.466738176], [120.51282094852161, 31.466647712], [120.51292624351782, 31.466647712], [120.51292624351782, 31.466738176]]]}}, {"type": "Feature", "properties": {"area_ha": 0.0, "mean": null}, "geometry": {"type": "Polygon", "coordinates": [[[120.52587752805155, 31.464476576], [120.52577223305535, 31.464386112], [120.52587752805155, 31.464386112], [120.52587752805155, 31.464476576]]]}}, {"type": "Feature", "properties": {"area_ha": 0.0, "mean": null}, "geometry": {"type": "Polygon", "coordinates": [[[120.5036602838514, 31.45959152], [120.5035549888552, 31.459501056], [120.5036602838514, 31.459501056], [120.5036602838514, 31.45959152]]]}}, {"type": "Feature", "properties": {"area_ha": 0.0, "mean": null}, "geometry": {"type": "Polygon", "coordinates": [[[120.53756527263079, 31.445750528], [120.53745997763457, 31.445660064000002], [120.53756527263079, 31.445660064000002], [120.53756527263079, 31.445750528]]]}}, {"type": "Feature", "properties": {"area_ha": 0.0, "mean": null}, "geometry": {"type": "Polygon", "coordinates": [[[120.53788115761941, 31.444031712], [120.5377758626232, 31.443941248], [120.53788115761941, 31.443941248], [120.53788115761941, 31.444031712]]]}}, {"type": "Feature", "properties": {"area_ha": 0.0, "mean": null}, "geometry": {"type": "Polygon", "coordinates": [[[120.53861822259287, 31.440413152], [120.53851292759667, 31.440322688000002], [120.53861822259287, 31.440322688000002], [120.53861822259287, 31.440413152]]]}}, {"type": "Feature", "properties": {"area_ha": 0.0, "mean": null}, "geometry": {"type": "Polygon", "coordinates": [[[120.56252018673237, 31.439779904], [120.56241489173617, 31.439689440000002], [120.56252018673237, 31.439689440000002], [120.56252018673237, 31.439779904]]]}}, {"type": "Feature", "properties": {"area_ha": 0.0, "mean": null}, "geometry": {"type": "Polygon", "coordinates": [[[120.56241489173617, 31.439418048], [120.56230959673996, 31.439327584], [120.56241489173617, 31.439327584], [120.56241489173617, 31.439418048]]]}}, {"type": "Feature", "properties": {"area_ha": 0.14, "mean": 0.3132}, "geometry": {"type": "Polygon", "coordinates": [[[120.58452684094011, 31.43335696], [120.5843162509477, 31.432995104], [120.58494802092494, 31.432995104], [120.58452684094011, 31.43335696]]]}}, {"type": "Feature", "properties": {"area_ha": 0.0, "mean": null}, "geometry": {"type": "Polygon", "coordinates": [[[120.51808569833207, 31.432361856], [120.51798040333587, 31.432271392], [120.51808569833207, 31.432271392], [120.51808569833207, 31.432361856]]]}}, {"type": "Feature", "properties": {"area_ha": 0.0, "mean": null}, "geometry": {"type": "Polygon", "coordinates": [[[120.51977041827142, 31.432000000000002], [120.51966512327522, 31.431909536], [120.51977041827142, 31.431909536], [120.51977041827142, 31.432000000000002]]]}}, {"type": "Feature", "properties": {"area_ha": 0.01, "mean": 0.2634}, "geometry": {"type": "Polygon", "coordinates": [[[120.51787510833965, 31.432090464], [120.51776981334345, 31.431819072], [120.51787510833965, 31.431819072], [120.51787510833965, 31.432090464]]]}}, {"type": "Feature", "properties": {"area_ha": 0.0, "mean": null}, "geometry": {"type": "Polygon", "coordinates": [[[120.51987571326764, 31.431909536], [120.51977041827142, 31.431819072], [120.51987571326764, 31.431819072], [120.51987571326764, 31.431909536]]]}}, {"type": "Feature", "properties": {"area_ha": 0.01, "mean": 0.1149}, "geometry": {"type": "Polygon", "coordinates": [[[120.51882276330554, 31.431909536], [120.51871746830933, 31.431728608], [120.51882276330554, 31.431728608], [120.51882276330554, 31.431909536]]]}}, {"type": "Feature", "properties": {"area_ha": 0.0, "mean": null}, "geometry": {"type": "Polygon", "coordinates": [[[120.51998100826384, 31.431819072], [120.51987571326764, 31.431728608], [120.51998100826384, 31.431728608], [120.51998100826384, 31.431819072]]]}}, {"type": "Feature", "properties": {"area_ha": 0.02, "mean": 0.1348}, "geometry": {"type": "Polygon", "coordinates": [[[120.52008630326004, 31.431457216000002], [120.51987571326764, 31.43154768], [120.51987571326764, 31.431366752], [120.52008630326004, 31.431457216000002]]]}}, {"type": "Feature", "properties": {"area_ha": 0.0, "mean": null}, "geometry": {"type": "Polygon", "coordinates": [[[120.51776981334345, 31.431457216000002], [120.51766451834723, 31.431366752], [120.51776981334345, 31.431366752], [120.51776981334345, 31.431457216000002]]]}}, {"type": "Feature", "properties": {"area_ha": 0.0, "mean": null}, "geometry": {"type": "Polygon", "coordinates": [[[120.59863637043215, 31.431004896], [120.59853107543594, 31.430914432], [120.59863637043215, 31.430914432], [120.59863637043215, 31.431004896]]]}}, {"type": "Feature", "properties": {"area_ha": 0.01, "mean": 0.1121}, "geometry": {"type": "Polygon", "coordinates": [[[120.52008630326004, 31.430552576], [120.51998100826384, 31.430371648], [120.52008630326004, 31.430371648], [120.52008630326004, 31.430552576]]]}}, {"type": "Feature", "properties": {"area_ha": 0.0, "mean": null}, "geometry": {"type": "Polygon", "coordinates": [[[120.51819099332829, 31.430371648], [120.51808569833207, 31.430281184000002], [120.51819099332829, 31.430281184000002], [120.51819099332829, 31.430371648]]]}}, {"type": "Feature", "properties": {"area_ha": 0.01, "mean": 0.1324}, "geometry": {"type": "Polygon", "coordinates": [[[120.51892805830175, 31.430281184000002], [120.51871746830933, 31.43019072], [120.51892805830175, 31.43019072], [120.51892805830175, 31.430281184000002]]]}}, {"type": "Feature", "properties": {"area_ha": 0.0, "mean": null}, "geometry": {"type": "Polygon", "coordinates": [[[120.519559828279, 31.43019072], [120.5194545332828, 31.430100256], [120.519559828279, 31.430100256], [120.519559828279, 31.43019072]]]}}, {"type": "Feature", "properties": {"area_ha": 0.0, "mean": null}, "geometry": {"type": "Polygon", "coordinates": [[[120.51829628832449, 31.430100256], [120.51819099332829, 31.430009792], [120.51829628832449, 31.430009792], [120.51829628832449, 31.430100256]]]}}, {"type": "Feature", "properties": {"area_ha": 0.0, "mean": null}, "geometry": {"type": "Polygon", "coordinates": [[[120.52019159825626, 31.430009792], [120.52008630326004, 31.429919328], [120.52019159825626, 31.429919328], [120.52019159825626, 31.430009792]]]}}, {"type": "Feature", "properties": {"area_ha": 0.0, "mean": null}, "geometry": {"type": "Polygon", "coordinates": [[[120.51850687831691, 31.429647936000002], [120.5184015833207, 31.429557472], [120.51850687831691, 31.429557472], [120.51850687831691, 31.429647936000002]]]}}, {"type": "Feature", "properties": {"area_ha": 0.0, "mean": null}, "geometry": {"type": "Polygon", "coordinates": [[[120.51861217331312, 31.429467008], [120.51850687831691, 31.429376544], [120.51861217331312, 31.429376544], [120.51861217331312, 31.429467008]]]}}, {"type": "Feature", "properties": {"area_ha": 0.01, "mean": 0.2453}, "geometry": {"type": "Polygon", "coordinates": [[[120.57199673639121, 31.429105152], [120.571891441395, 31.42883376], [120.57199673639121, 31.42883376], [120.57199673639121, 31.429105152]]]}}, {"type": "Feature", "properties": {"area_ha": 0.0, "mean": null}, "geometry": {"type": "Polygon", "coordinates": [[[120.5207180732373, 31.428924224], [120.5206127782411, 31.42883376], [120.5207180732373, 31.42883376], [120.5207180732373, 31.428924224]]]}}, {"type": "Feature", "properties": {"area_ha": 0.0, "mean": null}, "geometry": {"type": "Polygon", "coordinates": [[[120.57220732638363, 31.428652832], [120.57210203138742, 31.428562368], [120.57220732638363, 31.428562368], [120.57220732638363, 31.428652832]]]}}, {"type": "Feature", "properties": {"area_ha": 1.12, "mean": 0.2337}, "geometry": {"type": "Polygon", "coordinates": [[[120.52040218824868, 31.429195616], [120.5194545332828, 31.429828864], [120.51892805830175, 31.429195616], [120.51913864829417, 31.42838144], [120.52040218824868, 31.429195616]]]}}, {"type": "Feature", "properties": {"area_ha": 0.01, "mean": 0.2707}, "geometry": {"type": "Polygon", "coordinates": [[[120.57231262137984, 31.428562368], [120.57220732638363, 31.42838144], [120.57231262137984, 31.42838144], [120.57231262137984, 31.428562368]]]}}, {"type": "Feature", "properties": {"area_ha": 0.06, "mean": 0.1423}, "geometry": {"type": "Polygon", "coordinates": [[[120.52019159825626, 31.428562368], [120.51987571326764, 31.42838144], [120.52019159825626, 31.428200512], [120.52019159825626, 31.428562368]]]}}, {"type": "Feature", "properties": {"area_ha": 0.02, "mean": 0.4115}, "geometry": {"type": "Polygon", "coordinates": [[[120.49334137422291, 31.428110048], [120.49302548923427, 31.428019584], [120.49323607922669, 31.42792912], [120.49334137422291, 31.428110048]]]}}, {"type": "Feature", "properties": {"area_ha": 0.05, "mean": 0.1968}, "geometry": {"type": "Polygon", "coordinates": [[[120.5194545332828, 31.428019584], [120.51934923828658, 31.427748192], [120.51987571326764, 31.428110048], [120.5194545332828, 31.428019584]]]}}, {"type": "Feature", "properties": {"area_ha": 0.0, "mean": null}, "geometry": {"type": "Polygon", "coordinates": [[[120.54872654222896, 31.427748192], [120.54862124723276, 31.427657728], [120.54872654222896, 31.427657728], [120.54872654222896, 31.427748192]]]}}, {"type": "Feature", "properties": {"area_ha": 0.0, "mean": null}, "geometry": {"type": "Polygon", "coordinates": [[[120.57357616133434, 31.427748192], [120.57347086633814, 31.427657728], [120.57357616133434, 31.427657728], [120.57357616133434, 31.427748192]]]}}, {"type": "Feature", "properties": {"area_ha": 0.01, "mean": 0.1842}, "geometry": {"type": "Polygon", "coordinates": [[[120.52324515314633, 31.427657728], [120.52303456315391, 31.427567264], [120.52324515314633, 31.427567264], [120.52324515314633, 31.427657728]]]}}, {"type": "Feature", "properties": {"area_ha": 0.0, "mean": null}, "geometry": {"type": "Polygon", "coordinates": [[[120.57368145633056, 31.427657728], [120.57357616133434, 31.427567264], [120.57368145633056, 31.427567264], [120.57368145633056, 31.427657728]]]}}, {"type": "Feature", "properties": {"area_ha": 0.04, "mean": 0.2638}, "geometry": {"type": "Polygon", "coordinates": [[[120.52145513821077, 31.427567264], [120.52103395822593, 31.4274768], [120.52156043320699, 31.427386336], [120.52145513821077, 31.427567264]]]}}, {"type": "Feature", "properties": {"area_ha": 0.0, "mean": null}, "geometry": {"type": "Polygon", "coordinates": [[[120.52303456315391, 31.4274768], [120.5229292681577, 31.427386336], [120.52303456315391, 31.427386336], [120.52303456315391, 31.4274768]]]}}, {"type": "Feature", "properties": {"area_ha": 0.0, "mean": null}, "geometry": {"type": "Polygon", "coordinates": [[[120.57694560121304, 31.427386336], [120.57684030621684, 31.427295872000002], [120.57694560121304, 31.427295872000002], [120.57694560121304, 31.427386336]]]}}, {"type": "Feature", "properties": {"area_ha": 0.03, "mean": 0.1914}, "geometry": {"type": "Polygon", "coordinates": [[[120.576419126232, 31.427205408], [120.57589265125095, 31.427295872000002], [120.57589265125095, 31.427205408], [120.576419126232, 31.427205408]]]}}, {"type": "Feature", "properties": {"area_ha": 0.01, "mean": 0.2373}, "geometry": {"type": "Polygon", "coordinates": [[[120.57684030621684, 31.427295872000002], [120.57652442122821, 31.427205408], [120.57684030621684, 31.427205408], [120.57684030621684, 31.427295872000002]]]}}, {"type": "Feature", "properties": {"area_ha": 0.01, "mean": 0.3089}, "geometry": {"type": "Polygon", "coordinates": [[[120.57578735625474, 31.427205408], [120.57547147126611, 31.427114944], [120.57578735625474, 31.427114944], [120.57578735625474, 31.427205408]]]}}, {"type": "Feature", "properties": {"area_ha": 0.24, "mean": 0.2537}, "geometry": {"type": "Polygon", "coordinates": [[[120.52040218824868, 31.42702448], [120.52019159825626, 31.427657728], [120.519559828279, 31.427386336], [120.52040218824868, 31.42702448]]]}}, {"type": "Feature", "properties": {"area_ha": 0.01, "mean": 0.1611}, "geometry": {"type": "Polygon", "coordinates": [[[120.51998100826384, 31.427114944], [120.51977041827142, 31.42702448], [120.51998100826384, 31.42702448], [120.51998100826384, 31.427114944]]]}}, {"type": "Feature", "properties": {"area_ha": 0.01, "mean": 0.266}, "geometry": {"type": "Polygon", "coordinates": [[[120.57547147126611, 31.42702448], [120.57515558627749, 31.42702448], [120.57483970128887, 31.426934016], [120.57547147126611, 31.42702448]]]}}, {"type": "Feature", "properties": {"area_ha": 0.0, "mean": null}, "geometry": {"type": "Polygon", "coordinates": [[[120.51808569833207, 31.426843552], [120.51798040333587, 31.426753088], [120.51808569833207, 31.426753088], [120.51808569833207, 31.426843552]]]}}, {"type": "Feature", "properties": {"area_ha": 0.0, "mean": null}, "geometry": {"type": "Polygon", "coordinates": [[[120.52903637793784, 31.425848448], [120.52893108294163, 31.425757984], [120.52903637793784, 31.425757984], [120.52903637793784, 31.425848448]]]}}, {"type": "Feature", "properties": {"area_ha": 0.0, "mean": null}, "geometry": {"type": "Polygon", "coordinates": [[[120.5446200373768, 31.425577056], [120.5445147423806, 31.425486592], [120.5446200373768, 31.425486592], [120.5446200373768, 31.425577056]]]}}, {"type": "Feature", "properties": {"area_ha": 0.0, "mean": null}, "geometry": {"type": "Polygon", "coordinates": [[[120.5445147423806, 31.425486592], [120.54440944738438, 31.425396128], [120.5445147423806, 31.425396128], [120.5445147423806, 31.425486592]]]}}, {"type": "Feature", "properties": {"area_ha": 0.0, "mean": null}, "geometry": {"type": "Polygon", "coordinates": [[[120.53503819272176, 31.424672416], [120.53493289772555, 31.424581952], [120.53503819272176, 31.424581952], [120.53503819272176, 31.424672416]]]}}, {"type": "Feature", "properties": {"area_ha": 0.0, "mean": null}, "geometry": {"type": "Polygon", "coordinates": [[[120.53619643768006, 31.424491488], [120.53609114268386, 31.424401024], [120.53619643768006, 31.424401024], [120.53619643768006, 31.424491488]]]}}, {"type": "Feature", "properties": {"area_ha": 0.0, "mean": null}, "geometry": {"type": "Polygon", "coordinates": [[[120.59337162062168, 31.422682208], [120.59326632562548, 31.422591744], [120.59337162062168, 31.422591744], [120.59337162062168, 31.422682208]]]}}, {"type": "Feature", "properties": {"area_ha": 0.02, "mean": 0.327}, "geometry": {"type": "Polygon", "coordinates": [[[120.5935822106141, 31.422320352], [120.59337162062168, 31.422410816], [120.59337162062168, 31.422229888], [120.5935822106141, 31.422320352]]]}}, {"type": "Feature", "properties": {"area_ha": 0.0, "mean": null}, "geometry": {"type": "Polygon", "coordinates": [[[120.59337162062168, 31.422229888], [120.59326632562548, 31.422139424], [120.59337162062168, 31.422139424], [120.59337162062168, 31.422229888]]]}}, {"type": "Feature", "properties": {"area_ha": 0.0, "mean": null}, "geometry": {"type": "Polygon", "coordinates": [[[120.5843162509477, 31.421777568], [120.58421095595148, 31.421687104], [120.5843162509477, 31.421687104], [120.5843162509477, 31.421777568]]]}}, {"type": "Feature", "properties": {"area_ha": 0.02, "mean": 0.2102}, "geometry": {"type": "Polygon", "coordinates": [[[120.54082941751327, 31.419696896], [120.54051353252464, 31.419425504], [120.54072412251706, 31.419425504], [120.54082941751327, 31.419696896]]]}}, {"type": "Feature", "properties": {"area_ha": 0.01, "mean": 0.2848}, "geometry": {"type": "Polygon", "coordinates": [[[120.5398817625474, 31.417435296], [120.53977646755118, 31.417163904], [120.5398817625474, 31.417163904], [120.5398817625474, 31.417435296]]]}}, {"type": "Feature", "properties": {"area_ha": 0.0, "mean": null}, "geometry": {"type": "Polygon", "coordinates": [[[120.54019764753602, 31.417254368000002], [120.5400923525398, 31.417163904], [120.54019764753602, 31.417163904], [120.54019764753602, 31.417254368000002]]]}}, {"type": "Feature", "properties": {"area_ha": 0.01, "mean": 0.428}, "geometry": {"type": "Polygon", "coordinates": [[[120.55767661690675, 31.41571648], [120.55746602691433, 31.415626016], [120.55767661690675, 31.415626016], [120.55767661690675, 31.41571648]]]}}, {"type": "Feature", "properties": {"area_ha": 0.0, "mean": null}, "geometry": {"type": "Polygon", "coordinates": [[[120.56094076178924, 31.415354624], [120.56083546679302, 31.41526416], [120.56094076178924, 31.41526416], [120.56094076178924, 31.415354624]]]}}, {"type": "Feature", "properties": {"area_ha": 0.0, "mean": null}, "geometry": {"type": "Polygon", "coordinates": [[[120.56115135178166, 31.41481184], [120.56104605678544, 31.414721376], [120.56115135178166, 31.414721376], [120.56115135178166, 31.41481184]]]}}, {"type": "Feature", "properties": {"area_ha": 0.0, "mean": null}, "geometry": {"type": "Polygon", "coordinates": [[[120.52198161319181, 31.410107712], [120.52187631819561, 31.410017248], [120.52198161319181, 31.410017248], [120.52198161319181, 31.410107712]]]}}]}