{"type": "FeatureCollection", "features": [{"type": "Feature", "properties": {"area_ha": 0.0, "mean": null}, "geometry": {"type": "Polygon", "coordinates": [[[120.53103698286581, 31.468999776], [120.5309316878696, 31.468909312], [120.53103698286581, 31.468909312], [120.53103698286581, 31.468999776]]]}}, {"type": "Feature", "properties": {"area_ha": 0.0, "mean": null}, "geometry": {"type": "Polygon", "coordinates": [[[120.52703577300986, 31.467552352000002], [120.52693047801365, 31.467461888], [120.52703577300986, 31.467461888], [120.52703577300986, 31.467552352000002]]]}}, {"type": "Feature", "properties": {"area_ha": 0.0, "mean": null}, "geometry": {"type": "Polygon", "coordinates": [[[120.53756527263079, 31.445750528], [120.53745997763457, 31.445660064000002], [120.53756527263079, 31.445660064000002], [120.53756527263079, 31.445750528]]]}}, {"type": "Feature", "properties": {"area_ha": 0.14, "mean": 0.3132}, "geometry": {"type": "Polygon", "coordinates": [[[120.58452684094011, 31.43335696], [120.5843162509477, 31.432995104], [120.58494802092494, 31.432995104], [120.58452684094011, 31.43335696]]]}}, {"type": "Feature", "properties": {"area_ha": 0.0, "mean": null}, "geometry": {"type": "Polygon", "coordinates": [[[120.51808569833207, 31.432361856], [120.51798040333587, 31.432271392], [120.51808569833207, 31.432271392], [120.51808569833207, 31.432361856]]]}}, {"type": "Feature", "properties": {"area_ha": 0.01, "mean": 0.2634}, "geometry": {"type": "Polygon", "coordinates": [[[120.51787510833965, 31.432090464], [120.51776981334345, 31.431819072], [120.51787510833965, 31.431819072], [120.51787510833965, 31.432090464]]]}}, {"type": "Feature", "properties": {"area_ha": 0.0, "mean": null}, "geometry": {"type": "Polygon", "coordinates": [[[120.51987571326764, 31.431909536], [120.51977041827142, 31.431819072], [120.51987571326764, 31.431819072], [120.51987571326764, 31.431909536]]]}}, {"type": "Feature", "properties": {"area_ha": 0.01, "mean": 0.2629}, "geometry": {"type": "Polygon", "coordinates": [[[120.52008630326004, 31.431728608], [120.51998100826384, 31.431457216000002], [120.52008630326004, 31.431457216000002], [120.52008630326004, 31.431728608]]]}}, {"type": "Feature", "properties": {"area_ha": 0.0, "mean": null}, "geometry": {"type": "Polygon", "coordinates": [[[120.51819099332829, 31.430371648], [120.51808569833207, 31.430281184000002], [120.51819099332829, 31.430281184000002], [120.51819099332829, 31.430371648]]]}}, {"type": "Feature", "properties": {"area_ha": 0.0, "mean": null}, "geometry": {"type": "Polygon", "coordinates": [[[120.51934923828658, 31.430100256], [120.51924394329038, 31.430009792], [120.51934923828658, 31.430009792], [120.51934923828658, 31.430100256]]]}}, {"type": "Feature", "properties": {"area_ha": 0.0, "mean": null}, "geometry": {"type": "Polygon", "coordinates": [[[120.52019159825626, 31.430009792], [120.52008630326004, 31.429919328], [120.52019159825626, 31.429919328], [120.52019159825626, 31.430009792]]]}}, {"type": "Feature", "properties": {"area_ha": 0.0, "mean": null}, "geometry": {"type": "Polygon", "coordinates": [[[120.51850687831691, 31.429647936000002], [120.5184015833207, 31.429557472], [120.51850687831691, 31.429557472], [120.51850687831691, 31.429647936000002]]]}}, {"type": "Feature", "properties": {"area_ha": 0.0, "mean": null}, "geometry": {"type": "Polygon", "coordinates": [[[120.51903335329796, 31.429195616], [120.51892805830175, 31.429105152], [120.51903335329796, 31.429105152], [120.51903335329796, 31.429195616]]]}}, {"type": "Feature", "properties": {"area_ha": 0.05, "mean": 0.2463}, "geometry": {"type": "Polygon", "coordinates": [[[120.52029689325246, 31.42928608], [120.51998100826384, 31.42883376], [120.52019159825626, 31.42883376], [120.52029689325246, 31.42928608]]]}}, {"type": "Feature", "properties": {"area_ha": 0.01, "mean": 0.2453}, "geometry": {"type": "Polygon", "coordinates": [[[120.57199673639121, 31.429105152], [120.571891441395, 31.42883376], [120.57199673639121, 31.42883376], [120.57199673639121, 31.429105152]]]}}, {"type": "Feature", "properties": {"area_ha": 0.01, "mean": 0.29}, "geometry": {"type": "Polygon", "coordinates": [[[120.51903335329796, 31.428924224], [120.51892805830175, 31.428743296], [120.51903335329796, 31.428743296], [120.51903335329796, 31.428924224]]]}}, {"type": "Feature", "properties": {"area_ha": 0.26, "mean": 0.2739}, "geometry": {"type": "Polygon", "coordinates": [[[120.51998100826384, 31.429467008], [120.519559828279, 31.429195616], [120.51913864829417, 31.429105152], [120.51903335329796, 31.42838144], [120.51998100826384, 31.429467008]]]}}, {"type": "Feature", "properties": {"area_ha": 0.0, "mean": null}, "geometry": {"type": "Polygon", "coordinates": [[[120.52008630326004, 31.428562368], [120.51987571326764, 31.42838144], [120.52008630326004, 31.428471904000002], [120.52008630326004, 31.428562368]]]}}, {"type": "Feature", "properties": {"area_ha": 0.01, "mean": 0.2707}, "geometry": {"type": "Polygon", "coordinates": [[[120.57231262137984, 31.428562368], [120.57220732638363, 31.42838144], [120.57231262137984, 31.42838144], [120.57231262137984, 31.428562368]]]}}, {"type": "Feature", "properties": {"area_ha": 0.01, "mean": 0.1775}, "geometry": {"type": "Polygon", "coordinates": [[[120.5194545332828, 31.428200512], [120.51924394329038, 31.428110048], [120.5194545332828, 31.428110048], [120.5194545332828, 31.428200512]]]}}, {"type": "Feature", "properties": {"area_ha": 0.0, "mean": null}, "geometry": {"type": "Polygon", "coordinates": [[[120.51977041827142, 31.428200512], [120.51966512327522, 31.428110048], [120.51977041827142, 31.428110048], [120.51977041827142, 31.428200512]]]}}, {"type": "Feature", "properties": {"area_ha": 0.0, "mean": null}, "geometry": {"type": "Polygon", "coordinates": [[[120.49313078423049, 31.428110048], [120.49302548923427, 31.428019584], [120.49313078423049, 31.428019584], [120.49313078423049, 31.428110048]]]}}, {"type": "Feature", "properties": {"area_ha": 0.01, "mean": 0.2795}, "geometry": {"type": "Polygon", "coordinates": [[[120.5206127782411, 31.428110048], [120.52050748324488, 31.42792912], [120.5206127782411, 31.42792912], [120.5206127782411, 31.428110048]]]}}, {"type": "Feature", "properties": {"area_ha": 0.0, "mean": null}, "geometry": {"type": "Polygon", "coordinates": [[[120.5207180732373, 31.42792912], [120.5206127782411, 31.427838656], [120.5207180732373, 31.427838656], [120.5207180732373, 31.42792912]]]}}, {"type": "Feature", "properties": {"area_ha": 0.0, "mean": null}, "geometry": {"type": "Polygon", "coordinates": [[[120.51966512327522, 31.428019584], [120.51934923828658, 31.427748192], [120.51966512327522, 31.42792912], [120.51966512327522, 31.428019584]]]}}, {"type": "Feature", "properties": {"area_ha": 0.0, "mean": null}, "geometry": {"type": "Polygon", "coordinates": [[[120.52082336823351, 31.427838656], [120.5207180732373, 31.427748192], [120.52082336823351, 31.427748192], [120.52082336823351, 31.427838656]]]}}, {"type": "Feature", "properties": {"area_ha": 0.0, "mean": null}, "geometry": {"type": "Polygon", "coordinates": [[[120.57357616133434, 31.427748192], [120.57347086633814, 31.427657728], [120.57357616133434, 31.427657728], [120.57357616133434, 31.427748192]]]}}, {"type": "Feature", "properties": {"area_ha": 0.04, "mean": 0.2638}, "geometry": {"type": "Polygon", "coordinates": [[[120.52145513821077, 31.427567264], [120.52103395822593, 31.4274768], [120.52156043320699, 31.427386336], [120.52145513821077, 31.427567264]]]}}, {"type": "Feature", "properties": {"area_ha": 0.0, "mean": null}, "geometry": {"type": "Polygon", "coordinates": [[[120.57694560121304, 31.427386336], [120.57684030621684, 31.427295872000002], [120.57694560121304, 31.427295872000002], [120.57694560121304, 31.427386336]]]}}, {"type": "Feature", "properties": {"area_ha": 0.02, "mean": 0.1976}, "geometry": {"type": "Polygon", "coordinates": [[[120.5763138312358, 31.427295872000002], [120.57589265125095, 31.427205408], [120.5763138312358, 31.427205408], [120.5763138312358, 31.427295872000002]]]}}, {"type": "Feature", "properties": {"area_ha": 0.0, "mean": null}, "geometry": {"type": "Polygon", "coordinates": [[[120.57673501122062, 31.427295872000002], [120.57662971622442, 31.427205408], [120.57673501122062, 31.427205408], [120.57673501122062, 31.427295872000002]]]}}, {"type": "Feature", "properties": {"area_ha": 0.27, "mean": 0.2794}, "geometry": {"type": "Polygon", "coordinates": [[[120.52050748324488, 31.42792912], [120.52019159825626, 31.427657728], [120.519559828279, 31.4274768], [120.52029689325246, 31.427114944], [120.52050748324488, 31.42792912]], [[120.52019159825626, 31.427567264], [120.52029689325246, 31.427657728], [120.52029689325246, 31.427567264], [120.52019159825626, 31.427567264]]]}}, {"type": "Feature", "properties": {"area_ha": 0.01, "mean": 0.2577}, "geometry": {"type": "Polygon", "coordinates": [[[120.57568206125853, 31.427205408], [120.57547147126611, 31.427114944], [120.57568206125853, 31.427114944], [120.57568206125853, 31.427205408]]]}}, {"type": "Feature", "properties": {"area_ha": 0.0, "mean": null}, "geometry": {"type": "Polygon", "coordinates": [[[120.51987571326764, 31.427114944], [120.51977041827142, 31.42702448], [120.51987571326764, 31.42702448], [120.51987571326764, 31.427114944]]]}}, {"type": "Feature", "properties": {"area_ha": 0.01, "mean": 0.2606}, "geometry": {"type": "Polygon", "coordinates": [[[120.57547147126611, 31.427114944], [120.57515558627749, 31.42702448], [120.57547147126611, 31.42702448], [120.57547147126611, 31.427114944]]]}}, {"type": "Feature", "properties": {"area_ha": 0.01, "mean": 0.2435}, "geometry": {"type": "Polygon", "coordinates": [[[120.57505029128127, 31.42702448], [120.57483970128887, 31.426934016], [120.57505029128127, 31.426934016], [120.57505029128127, 31.42702448]]]}}, {"type": "Feature", "properties": {"area_ha": 0.0, "mean": null}, "geometry": {"type": "Polygon", "coordinates": [[[120.5445147423806, 31.425486592], [120.54440944738438, 31.425396128], [120.5445147423806, 31.425396128], [120.5445147423806, 31.425486592]]]}}, {"type": "Feature", "properties": {"area_ha": 0.0, "mean": null}, "geometry": {"type": "Polygon", "coordinates": [[[120.59337162062168, 31.422682208], [120.59326632562548, 31.422591744], [120.59337162062168, 31.422591744], [120.59337162062168, 31.422682208]]]}}, {"type": "Feature", "properties": {"area_ha": 0.0, "mean": null}, "geometry": {"type": "Polygon", "coordinates": [[[120.5935822106141, 31.422410816], [120.5934769156179, 31.422320352], [120.5935822106141, 31.422320352], [120.5935822106141, 31.422410816]]]}}, {"type": "Feature", "properties": {"area_ha": 0.0, "mean": null}, "geometry": {"type": "Polygon", "coordinates": [[[120.5934769156179, 31.422320352], [120.59337162062168, 31.422229888], [120.5934769156179, 31.422229888], [120.5934769156179, 31.422320352]]]}}, {"type": "Feature", "properties": {"area_ha": 0.02, "mean": 0.245}, "geometry": {"type": "Polygon", "coordinates": [[[120.54072412251706, 31.419696896], [120.54051353252464, 31.419515968], [120.54072412251706, 31.419425504], [120.54072412251706, 31.419696896]]]}}, {"type": "Feature", "properties": {"area_ha": 0.01, "mean": 0.2848}, "geometry": {"type": "Polygon", "coordinates": [[[120.5398817625474, 31.417435296], [120.53977646755118, 31.417163904], [120.5398817625474, 31.417163904], [120.5398817625474, 31.417435296]]]}}, {"type": "Feature", "properties": {"area_ha": 0.0, "mean": null}, "geometry": {"type": "Polygon", "coordinates": [[[120.55767661690675, 31.41571648], [120.55757132191054, 31.415626016], [120.55767661690675, 31.415626016], [120.55767661690675, 31.41571648]]]}}, {"type": "Feature", "properties": {"area_ha": 0.0, "mean": null}, "geometry": {"type": "Polygon", "coordinates": [[[120.56094076178924, 31.415354624], [120.56083546679302, 31.41526416], [120.56094076178924, 31.41526416], [120.56094076178924, 31.415354624]]]}}]}