{"type": "FeatureCollection", "features": [{"type": "Feature", "properties": {"area_ha": 0.0, "mean": null}, "geometry": {"type": "Polygon", "coordinates": [[[120.52050748324488, 31.46954256], [120.52040218824868, 31.469452096], [120.52050748324488, 31.469452096], [120.52050748324488, 31.46954256]]]}}, {"type": "Feature", "properties": {"area_ha": 0.0, "mean": null}, "geometry": {"type": "Polygon", "coordinates": [[[120.52029689325246, 31.469452096], [120.52019159825626, 31.469361632000002], [120.52029689325246, 31.469361632000002], [120.52029689325246, 31.469452096]]]}}, {"type": "Feature", "properties": {"area_ha": 0.0, "mean": null}, "geometry": {"type": "Polygon", "coordinates": [[[120.52250808817286, 31.46909024], [120.52240279317665, 31.468999776], [120.52250808817286, 31.468999776], [120.52250808817286, 31.46909024]]]}}, {"type": "Feature", "properties": {"area_ha": 0.0, "mean": null}, "geometry": {"type": "Polygon", "coordinates": [[[120.5309316878696, 31.468999776], [120.5308263928734, 31.468909312], [120.5309316878696, 31.468909312], [120.5309316878696, 31.468999776]]]}}, {"type": "Feature", "properties": {"area_ha": 0.0, "mean": null}, "geometry": {"type": "Polygon", "coordinates": [[[120.51734863335861, 31.468366528], [120.5172433383624, 31.468276064], [120.51734863335861, 31.468276064], [120.51734863335861, 31.468366528]]]}}, {"type": "Feature", "properties": {"area_ha": 0.0, "mean": null}, "geometry": {"type": "Polygon", "coordinates": [[[120.5228239731615, 31.468276064], [120.52271867816528, 31.4681856], [120.5228239731615, 31.4681856], [120.5228239731615, 31.468276064]]]}}, {"type": "Feature", "properties": {"area_ha": 0.0, "mean": null}, "geometry": {"type": "Polygon", "coordinates": [[[120.52840460796058, 31.468276064], [120.52829931296438, 31.4681856], [120.52840460796058, 31.4681856], [120.52840460796058, 31.468276064]]]}}, {"type": "Feature", "properties": {"area_ha": 0.0, "mean": null}, "geometry": {"type": "Polygon", "coordinates": [[[120.5229292681577, 31.467914208], [120.5228239731615, 31.467823744], [120.5229292681577, 31.467823744], [120.5229292681577, 31.467914208]]]}}, {"type": "Feature", "properties": {"area_ha": 0.01, "mean": 0.1446}, "geometry": {"type": "Polygon", "coordinates": [[[120.52787813297954, 31.46773328], [120.52766754298712, 31.467642816], [120.52787813297954, 31.467642816], [120.52787813297954, 31.46773328]]]}}, {"type": "Feature", "properties": {"area_ha": 0.0, "mean": null}, "geometry": {"type": "Polygon", "coordinates": [[[120.52303456315391, 31.467552352000002], [120.5229292681577, 31.467461888], [120.52303456315391, 31.467461888], [120.52303456315391, 31.467552352000002]]]}}, {"type": "Feature", "properties": {"area_ha": 0.0, "mean": null}, "geometry": {"type": "Polygon", "coordinates": [[[120.52313985815012, 31.467190496], [120.52303456315391, 31.467100032], [120.52313985815012, 31.467100032], [120.52313985815012, 31.467190496]]]}}, {"type": "Feature", "properties": {"area_ha": 0.0, "mean": null}, "geometry": {"type": "Polygon", "coordinates": [[[120.52324515314633, 31.467100032], [120.52313985815012, 31.467009568], [120.52324515314633, 31.467009568], [120.52324515314633, 31.467100032]]]}}, {"type": "Feature", "properties": {"area_ha": 0.01, "mean": 0.1706}, "geometry": {"type": "Polygon", "coordinates": [[[120.5241928081122, 31.466738176], [120.524087513116, 31.466557248], [120.5241928081122, 31.466557248], [120.5241928081122, 31.466738176]]]}}, {"type": "Feature", "properties": {"area_ha": 0.01, "mean": 0.1808}, "geometry": {"type": "Polygon", "coordinates": [[[120.52429810310842, 31.466557248], [120.5241928081122, 31.466376320000002], [120.52429810310842, 31.466376320000002], [120.52429810310842, 31.466557248]]]}}, {"type": "Feature", "properties": {"area_ha": 0.0, "mean": null}, "geometry": {"type": "Polygon", "coordinates": [[[120.52440339810462, 31.466376320000002], [120.52429810310842, 31.466285856], [120.52440339810462, 31.466285856], [120.52440339810462, 31.466376320000002]]]}}, {"type": "Feature", "properties": {"area_ha": 0.0, "mean": null}, "geometry": {"type": "Polygon", "coordinates": [[[120.49365725921153, 31.454616], [120.49355196421531, 31.454525536000002], [120.49365725921153, 31.454525536000002], [120.49365725921153, 31.454616]]]}}, {"type": "Feature", "properties": {"area_ha": 0.02, "mean": 0.1823}, "geometry": {"type": "Polygon", "coordinates": [[[120.59916284541319, 31.431004896], [120.59884696042457, 31.430823968000002], [120.59916284541319, 31.430914432], [120.59916284541319, 31.431004896]]]}}, {"type": "Feature", "properties": {"area_ha": 0.0, "mean": null}, "geometry": {"type": "Polygon", "coordinates": [[[120.54830536224412, 31.426934016], [120.54820006724792, 31.426843552], [120.54830536224412, 31.426843552], [120.54830536224412, 31.426934016]]]}}, {"type": "Feature", "properties": {"area_ha": 0.0, "mean": null}, "geometry": {"type": "Polygon", "coordinates": [[[120.54841065724034, 31.426300768], [120.54830536224412, 31.426210304], [120.54841065724034, 31.426210304], [120.54841065724034, 31.426300768]]]}}, {"type": "Feature", "properties": {"area_ha": 0.04, "mean": 0.2259}, "geometry": {"type": "Polygon", "coordinates": [[[120.5411453025019, 31.424943808000002], [120.54072412251706, 31.425034272], [120.54082941751327, 31.424853344], [120.5411453025019, 31.424943808000002]]]}}, {"type": "Feature", "properties": {"area_ha": 11.61, "mean": 0.2029}, "geometry": {"type": "Polygon", "coordinates": [[[120.54777888726308, 31.428290976], [120.54504121736164, 31.424039168], [120.54514651235785, 31.422682208], [120.5490424272176, 31.424129632], [120.54777888726308, 31.428290976]], [[120.54777888726308, 31.426210304], [120.5479894772555, 31.426391232], [120.5479894772555, 31.426210304], [120.54777888726308, 31.426210304]], [[120.5468312322972, 31.426119840000002], [120.54693652729341, 31.426300768], [120.54693652729341, 31.426119840000002], [120.5468312322972, 31.426119840000002]], [[120.54777888726308, 31.4252152], [120.5479894772555, 31.425396128], [120.5479894772555, 31.4252152], [120.54777888726308, 31.4252152]], [[120.54735770727825, 31.425124736], [120.54756829727066, 31.4252152], [120.54756829727066, 31.425124736], [120.54735770727825, 31.425124736]]]}}, {"type": "Feature", "properties": {"area_ha": 0.7, "mean": 0.1815}, "geometry": {"type": "Polygon", "coordinates": [[[120.58621156087946, 31.420511072], [120.5843162509477, 31.420872928], [120.58631685587567, 31.41978736], [120.58621156087946, 31.420511072]]]}}]}