{"type": "FeatureCollection", "features": [{"type": "Feature", "properties": {"area_ha": 0.0, "mean": null}, "geometry": {"type": "Polygon", "coordinates": [[[120.52050748324488, 31.46954256], [120.52040218824868, 31.469452096], [120.52050748324488, 31.469452096], [120.52050748324488, 31.46954256]]]}}, {"type": "Feature", "properties": {"area_ha": 0.0, "mean": null}, "geometry": {"type": "Polygon", "coordinates": [[[120.52029689325246, 31.469452096], [120.52019159825626, 31.469361632000002], [120.52029689325246, 31.469361632000002], [120.52029689325246, 31.469452096]]]}}, {"type": "Feature", "properties": {"area_ha": 0.0, "mean": null}, "geometry": {"type": "Polygon", "coordinates": [[[120.52250808817286, 31.46909024], [120.52240279317665, 31.468999776], [120.52250808817286, 31.468999776], [120.52250808817286, 31.46909024]]]}}, {"type": "Feature", "properties": {"area_ha": 0.0, "mean": null}, "geometry": {"type": "Polygon", "coordinates": [[[120.5309316878696, 31.468999776], [120.5308263928734, 31.468909312], [120.5309316878696, 31.468909312], [120.5309316878696, 31.468999776]]]}}, {"type": "Feature", "properties": {"area_ha": 0.0, "mean": null}, "geometry": {"type": "Polygon", "coordinates": [[[120.51734863335861, 31.468366528], [120.5172433383624, 31.468276064], [120.51734863335861, 31.468276064], [120.51734863335861, 31.468366528]]]}}, {"type": "Feature", "properties": {"area_ha": 0.0, "mean": null}, "geometry": {"type": "Polygon", "coordinates": [[[120.5229292681577, 31.467914208], [120.5228239731615, 31.467823744], [120.5229292681577, 31.467823744], [120.5229292681577, 31.467914208]]]}}, {"type": "Feature", "properties": {"area_ha": 0.0, "mean": null}, "geometry": {"type": "Polygon", "coordinates": [[[120.52714106800607, 31.467552352000002], [120.52703577300986, 31.467461888], [120.52714106800607, 31.467461888], [120.52714106800607, 31.467552352000002]]]}}, {"type": "Feature", "properties": {"area_ha": 0.0, "mean": null}, "geometry": {"type": "Polygon", "coordinates": [[[120.52313985815012, 31.467190496], [120.52303456315391, 31.467100032], [120.52313985815012, 31.467100032], [120.52313985815012, 31.467190496]]]}}, {"type": "Feature", "properties": {"area_ha": 0.0, "mean": null}, "geometry": {"type": "Polygon", "coordinates": [[[120.52324515314633, 31.467100032], [120.52313985815012, 31.467009568], [120.52324515314633, 31.467009568], [120.52324515314633, 31.467100032]]]}}, {"type": "Feature", "properties": {"area_ha": 0.0, "mean": null}, "geometry": {"type": "Polygon", "coordinates": [[[120.5241928081122, 31.466647712], [120.524087513116, 31.466557248], [120.5241928081122, 31.466557248], [120.5241928081122, 31.466647712]]]}}, {"type": "Feature", "properties": {"area_ha": 0.0, "mean": null}, "geometry": {"type": "Polygon", "coordinates": [[[120.52429810310842, 31.466466784], [120.5241928081122, 31.466376320000002], [120.52429810310842, 31.466376320000002], [120.52429810310842, 31.466466784]]]}}, {"type": "Feature", "properties": {"area_ha": 0.0, "mean": null}, "geometry": {"type": "Polygon", "coordinates": [[[120.49302548923427, 31.453892288000002], [120.49292019423807, 31.453801824], [120.49302548923427, 31.453801824], [120.49302548923427, 31.453892288000002]]]}}, {"type": "Feature", "properties": {"area_ha": 0.0, "mean": null}, "geometry": {"type": "Polygon", "coordinates": [[[120.59863637043215, 31.431004896], [120.59853107543594, 31.430914432], [120.59863637043215, 31.430914432], [120.59863637043215, 31.431004896]]]}}, {"type": "Feature", "properties": {"area_ha": 0.01, "mean": 0.1076}, "geometry": {"type": "Polygon", "coordinates": [[[120.59905755041699, 31.430914432], [120.59884696042457, 31.430914432], [120.59863637043215, 31.430823968000002], [120.59905755041699, 31.430914432]]]}}, {"type": "Feature", "properties": {"area_ha": 0.0, "mean": null}, "geometry": {"type": "Polygon", "coordinates": [[[120.54735770727825, 31.42702448], [120.54725241228203, 31.426934016], [120.54735770727825, 31.426934016], [120.54735770727825, 31.42702448]]]}}]}