{"type": "FeatureCollection", "features": [{"type": "Feature", "properties": {"name": "黄埭镇水体边界 (JRC参考+S2 10m细化)"}, "geometry": {"type": "MultiPolygon", "coordinates": [[[[120.58621156087946, 31.420511072], [120.58631685587567, 31.41978736], [120.5843162509477, 31.420872928], [120.58621156087946, 31.420511072]]], [[[120.5490424272176, 31.424129632], [120.54514651235785, 31.422682208], [120.54504121736164, 31.424039168], [120.5490424272176, 31.424129632]]], [[[120.5411453025019, 31.424943808000002], [120.54082941751327, 31.424853344], [120.54072412251706, 31.425034272], [120.5411453025019, 31.424943808000002]]], [[[120.59916284541319, 31.430914432], [120.59863637043215, 31.430823968000002], [120.59853107543594, 31.431004896], [120.59916284541319, 31.430914432]]], [[[120.49386784920395, 31.454796928], [120.49197253927218, 31.45325904], [120.49186724427597, 31.453530432], [120.49386784920395, 31.454796928]]], [[[120.5127156535254, 31.466919104000002], [120.5114521135709, 31.46501936], [120.51134681857468, 31.466014464], [120.5127156535254, 31.466919104000002]]], [[[120.52840460796058, 31.4681856], [120.51524273343442, 31.467371424], [120.51513743843822, 31.468276064], [120.52840460796058, 31.4681856]]], [[[120.5320899328279, 31.46863792], [120.52850990295678, 31.46863792], [120.5287204929492, 31.469361632000002], [120.5320899328279, 31.46863792]]]]}}]}