{"type": "FeatureCollection", "features": [{"type": "Feature", "properties": {"name": "黄埭镇水体边界 (JRC参考+S2 10m细化)"}, "geometry": {"type": "MultiPolygon", "coordinates": [[[[120.5172433383624, 31.407212864], [120.51640097839272, 31.407031936], [120.51713804336619, 31.407484256], [120.5172433383624, 31.407212864]]], [[[120.51903335329796, 31.40757472], [120.51776981334345, 31.407393792], [120.51892805830175, 31.407755648], [120.51903335329796, 31.40757472]]], [[[120.52082336823351, 31.408298432], [120.52177102319939, 31.41028864], [120.5241928081122, 31.41028864], [120.52082336823351, 31.408298432]]], [[[120.51345271849887, 31.411102816], [120.51387389848371, 31.410921888], [120.51355801349507, 31.410740960000002], [120.51345271849887, 31.411102816]]], [[[120.52429810310842, 31.412731168], [120.52492987308568, 31.41255024], [120.52482457808946, 31.412369312], [120.52429810310842, 31.412731168]]], [[[120.51513743843822, 31.413364416], [120.51461096345717, 31.413635808], [120.51524273343442, 31.413635808], [120.51513743843822, 31.413364416]]], [[[120.52545634806673, 31.41209792], [120.53166875284306, 31.416892512], [120.5275622479909, 31.411374208], [120.52545634806673, 31.41209792]]], [[[120.53072109787719, 31.414269056000002], [120.53040521288855, 31.414178592], [120.53061580288097, 31.414449984], [120.53072109787719, 31.414269056000002]]], [[[120.52566693805915, 31.41571648], [120.52650929802881, 31.415897408], [120.52619341304019, 31.41481184], [120.52566693805915, 31.41571648]]], [[[120.53714409264595, 31.416078336], [120.53461701273693, 31.416802048], [120.5354593727066, 31.416982976], [120.53693350265353, 31.41662112], [120.53714409264595, 31.416078336]]], [[[120.51671686338135, 31.41888272], [120.51650627338894, 31.418973184], [120.51692745337377, 31.41933504], [120.51671686338135, 31.41888272]]], [[[120.51755922335103, 31.422410816], [120.51734863335861, 31.42250128], [120.51766451834723, 31.422591744], [120.51755922335103, 31.422410816]]], [[[120.5377758626232, 31.424581952], [120.53756527263079, 31.424672416], [120.53788115761941, 31.42476288], [120.5377758626232, 31.424581952]]], [[[120.53409053775589, 31.424672416], [120.53345876777863, 31.4252152], [120.53714409264595, 31.42476288], [120.53409053775589, 31.424672416]]], [[[120.52903637793784, 31.426300768], [120.53029991789235, 31.425938912], [120.52850990295678, 31.425938912], [120.52903637793784, 31.426300768]]], [[[120.51850687831691, 31.426210304], [120.51766451834723, 31.426843552], [120.51829628832449, 31.42792912], [120.51850687831691, 31.426210304]]], [[[120.52313985815012, 31.427205408], [120.52345574313874, 31.427657728], [120.52377162812738, 31.427295872000002], [120.52313985815012, 31.427205408]]], [[[120.51924394329038, 31.427657728], [120.52019159825626, 31.431819072], [120.52187631819561, 31.427386336], [120.51924394329038, 31.427657728]]], [[[120.51755922335103, 31.432814176], [120.51692745337377, 31.432814176], [120.51713804336619, 31.434352064], [120.51755922335103, 31.432814176]]], [[[120.51587450341168, 31.435528096], [120.51713804336619, 31.43561856], [120.51713804336619, 31.434804384], [120.51587450341168, 31.435528096]]], [[[120.53924999257013, 31.436794592000002], [120.53956587755876, 31.436885056], [120.53946058256255, 31.436704128], [120.53924999257013, 31.436794592000002]]], [[[120.53893410758151, 31.439418048], [120.53840763260045, 31.440051296], [120.5388288125853, 31.441408256], [120.53893410758151, 31.439418048]]], [[[120.53840763260045, 31.441860576], [120.53767056762699, 31.443941248], [120.53788115761941, 31.447469344], [120.53840763260045, 31.441860576]]], [[[120.53893410758151, 31.445207744], [120.53861822259287, 31.445298208], [120.53946058256255, 31.445931456], [120.53893410758151, 31.445207744]]], [[[120.5365123226687, 31.450183264], [120.53682820765732, 31.450454656], [120.5367229126611, 31.4500928], [120.5365123226687, 31.450183264]]], [[[120.53619643768006, 31.451721152], [120.5365123226687, 31.452444864], [120.5365123226687, 31.451178368], [120.53619643768006, 31.451721152]]], [[[120.53619643768006, 31.452716256000002], [120.53598584768764, 31.45280672], [120.53630173267628, 31.453439968], [120.53619643768006, 31.452716256000002]]], [[[120.53566996269902, 31.455339712], [120.5354593727066, 31.455430176], [120.53556466770281, 31.45778224], [120.53566996269902, 31.455339712]]], [[[120.53493289772555, 31.4591392], [120.53451171774071, 31.460224768], [120.53503819272176, 31.459772448], [120.53493289772555, 31.4591392]]], [[[120.53419583275209, 31.462034048], [120.53472230773313, 31.46185312], [120.53461701273693, 31.461219872], [120.53419583275209, 31.462034048]]], [[[120.52556164306293, 31.464476576], [120.52629870803639, 31.464567040000002], [120.52619341304019, 31.464024256000002], [120.52556164306293, 31.464476576]]], [[[120.53398524275967, 31.46411472], [120.53272170280516, 31.466285856], [120.53335347278241, 31.46728096], [120.53398524275967, 31.46411472]]], [[[120.53156345784686, 31.466557248], [120.52893108294163, 31.466919104000002], [120.53135286785444, 31.467914208], [120.53156345784686, 31.466557248]]], [[[120.524087513116, 31.466557248], [120.53156345784686, 31.471170912], [120.53914469757392, 31.471080448000002], [120.524087513116, 31.466557248]]], [[[120.54304061243367, 31.396538112], [120.54672593730099, 31.398709248], [120.54546239734648, 31.393371872], [120.54304061243367, 31.396538112]]], [[[120.54188236747537, 31.396447648], [120.54261943244883, 31.396809504], [120.54272472744503, 31.396538112], [120.54188236747537, 31.396447648]]], [[[120.55272775208492, 31.399794816], [120.55209598210766, 31.400156672], [120.55272775208492, 31.40078992], [120.55272775208492, 31.399794816]]], [[[120.55041126216831, 31.40124224], [120.55072714715695, 31.401332704], [120.55093773714935, 31.401061312], [120.55041126216831, 31.40124224]]], [[[120.55314893206976, 31.402508736], [120.55462306201669, 31.401875488], [120.55346481705838, 31.40078992], [120.55314893206976, 31.402508736]]], [[[120.55209598210766, 31.40395616], [120.55199068711146, 31.404227552000002], [120.5525171620925, 31.404137088], [120.55209598210766, 31.40395616]]], [[[120.55630778195604, 31.405403584000002], [120.5526224570887, 31.404498944], [120.55314893206976, 31.405494048], [120.5558866019712, 31.40576544], [120.55630778195604, 31.405403584000002]]], [[[120.55841368188021, 31.40802704], [120.55883486186505, 31.408117504], [120.55872956686885, 31.407936576], [120.55841368188021, 31.40802704]]], [[[120.55978251683094, 31.40802704], [120.55915074685367, 31.409655392], [120.55672896194086, 31.409203072], [120.55788720689917, 31.41255024], [120.56315195670963, 31.408117504], [120.55978251683094, 31.40802704]]], [[[120.56241489173617, 31.411464672], [120.56220430174375, 31.411555136], [120.56252018673237, 31.411736064], [120.56241489173617, 31.411464672]]], [[[120.56294136671721, 31.412369312], [120.56125664677786, 31.41300256], [120.56315195670963, 31.413635808], [120.56294136671721, 31.412369312]]], [[[120.55209598210766, 31.412821632], [120.5524118670963, 31.413364416], [120.55272775208492, 31.413093024000002], [120.55209598210766, 31.412821632]]], [[[120.54293531743745, 31.418792256], [120.55188539211524, 31.416892512], [120.56125664677786, 31.414449984], [120.54293531743745, 31.418792256]]], [[[120.54314590742987, 31.410198176], [120.53967117255497, 31.416892512], [120.54230354746021, 31.42340592], [120.54314590742987, 31.410198176]]], [[[120.5617831217589, 31.42204896], [120.56136194177408, 31.421958496000002], [120.5616778267627, 31.422229888], [120.5617831217589, 31.42204896]]], [[[120.54767359226688, 31.428924224], [120.54756829727066, 31.429195616], [120.54862124723276, 31.428924224], [120.54767359226688, 31.428924224]]], [[[120.54030294253222, 31.430009792], [120.54061882752086, 31.430281184000002], [120.54051353252464, 31.429919328], [120.54030294253222, 31.430009792]]], [[[120.54514651235785, 31.430552576], [120.54598887232753, 31.430733504], [120.54630475731615, 31.430100256], [120.54514651235785, 31.430552576]]], [[[120.54040823752844, 31.430371648], [120.54019764753602, 31.430462112], [120.54051353252464, 31.430733504], [120.54040823752844, 31.430371648]]], [[[120.54504121736164, 31.431004896], [120.54472533237302, 31.430914432], [120.54472533237302, 31.431366752], [120.54504121736164, 31.431004896]]], [[[120.54419885739196, 31.431457216000002], [120.54377767740714, 31.431457216000002], [120.54409356239576, 31.431638144], [120.54419885739196, 31.431457216000002]]], [[[120.5433564974223, 31.431638144], [120.54367238241092, 31.431728608], [120.54356708741471, 31.43154768], [120.5433564974223, 31.431638144]]], [[[120.53977646755118, 31.432542784], [120.54135589249432, 31.432361856], [120.54030294253222, 31.431366752], [120.53977646755118, 31.432542784]]], [[[120.53967117255497, 31.434532992], [120.53946058256255, 31.434623456], [120.53977646755118, 31.435709024], [120.53967117255497, 31.434532992]]], [[[120.55988781182715, 31.437337376000002], [120.56030899181198, 31.437518304], [120.56009840181956, 31.437246912], [120.55988781182715, 31.437337376000002]]], [[[120.54872654222896, 31.440775008], [120.55030596717211, 31.440413152], [120.55020067217589, 31.440232224], [120.54872654222896, 31.440775008]]], [[[120.54156648248674, 31.445750528], [120.5399870575436, 31.445931456], [120.54146118749053, 31.446112384], [120.54156648248674, 31.445750528]]], [[[120.54325120242609, 31.467823744], [120.54356708741471, 31.467914208], [120.5434617924185, 31.46773328], [120.54325120242609, 31.467823744]]], [[[120.54251413745261, 31.46954256], [120.54293531743745, 31.469633024], [120.54283002244125, 31.469452096], [120.54251413745261, 31.46954256]]], [[[120.53946058256255, 31.470718592], [120.53935528756634, 31.47089952], [120.53977646755118, 31.47089952], [120.53946058256255, 31.470718592]]], [[[120.5412505974981, 31.471532768], [120.54082941751327, 31.471442304], [120.5411453025019, 31.471894624], [120.5412505974981, 31.471532768]]], [[[120.5433564974223, 31.475332256], [120.54314590742987, 31.475332256], [120.5433564974223, 31.47542272], [120.5433564974223, 31.475332256]]], [[[120.55493894700531, 31.475603648], [120.55546542198636, 31.475784576000002], [120.55525483199393, 31.47542272], [120.55493894700531, 31.475603648]]], [[[120.56094076178924, 31.476870144], [120.56146723677028, 31.477141536], [120.56146723677028, 31.477051072000002], [120.56094076178924, 31.476870144]]], [[[120.57947268112207, 31.404770336], [120.57820914116755, 31.404046624], [120.57905150113723, 31.405041728], [120.57947268112207, 31.404770336]]], [[[120.58515861091736, 31.405403584000002], [120.58568508589842, 31.406036832], [120.58705392084913, 31.405584512], [120.58515861091736, 31.405403584000002]]], [[[120.58189446603488, 31.405855904], [120.58115740106142, 31.405674976], [120.58178917103866, 31.406036832], [120.58189446603488, 31.405855904]]], [[[120.58315800598939, 31.40667008], [120.58357918597423, 31.40621776], [120.58315800598939, 31.406127296], [120.58315800598939, 31.40667008]]], [[[120.58589567589082, 31.40667008], [120.58621156087946, 31.406760544], [120.58610626588325, 31.406579616000002], [120.58589567589082, 31.40667008]]], [[[120.58178917103866, 31.407212864], [120.58157858104624, 31.407303328], [120.58189446603488, 31.407484256], [120.58178917103866, 31.407212864]]], [[[120.58684333085671, 31.406579616000002], [120.5844215459439, 31.407484256], [120.58715921584535, 31.408750752], [120.58684333085671, 31.406579616000002]]], [[[120.58273682600455, 31.410107712], [120.57894620614103, 31.411012352], [120.58315800598939, 31.412731168], [120.58273682600455, 31.410107712]]], [[[120.58178917103866, 31.4139072], [120.58315800598939, 31.413816736], [120.58273682600455, 31.41300256], [120.58178917103866, 31.4139072]]], [[[120.58473743093253, 31.421868032], [120.58715921584535, 31.420149216], [120.58084151607278, 31.414902304], [120.58473743093253, 31.421868032]]], [[[120.58473743093253, 31.423496384], [120.58400036595907, 31.42431056], [120.58494802092494, 31.424401024], [120.58473743093253, 31.423496384]]], [[[120.58484272592874, 31.42476288], [120.58505331592116, 31.4252152], [120.585474495906, 31.424853344], [120.58484272592874, 31.42476288]]], [[[120.57957797611827, 31.428200512], [120.58042033608795, 31.428471904000002], [120.57999915610311, 31.42792912], [120.57957797611827, 31.428200512]]], [[[120.57799855117514, 31.428562368], [120.57810384617135, 31.429557472], [120.57905150113723, 31.429376544], [120.57799855117514, 31.428562368]]], [[[120.57915679613343, 31.431366752], [120.57968327111449, 31.43154768], [120.57947268112207, 31.431185824], [120.57915679613343, 31.431366752]]], [[[120.56420490667172, 31.432271392], [120.56473138165278, 31.432361856], [120.56473138165278, 31.432271392], [120.56420490667172, 31.432271392]]], [[[120.56230959673996, 31.43923712], [120.56220430174375, 31.439689440000002], [120.56304666171343, 31.439779904], [120.56230959673996, 31.43923712]]], [[[120.58357918597423, 31.43923712], [120.58347389097801, 31.439418048], [120.58526390591358, 31.44014176], [120.58357918597423, 31.43923712]]], [[[120.56336254670205, 31.440232224], [120.56346784169826, 31.440955936], [120.56409961167552, 31.440503616], [120.56336254670205, 31.440232224]]], [[[120.58494802092494, 31.441408256], [120.58600097088704, 31.442131968], [120.5867380358605, 31.441498720000002], [120.58494802092494, 31.441408256]]], [[[120.56610021660349, 31.443850784000002], [120.56683728157695, 31.444031712], [120.5662055115997, 31.443669856], [120.56610021660349, 31.443850784000002]]], [[[120.56673198658075, 31.447288416], [120.56588962661107, 31.447197952], [120.56641610159213, 31.447650272], [120.56673198658075, 31.447288416]]], [[[120.58168387604246, 31.453801824], [120.58042033608795, 31.453892288000002], [120.58157858104624, 31.453982752], [120.58168387604246, 31.453801824]]], [[[120.58389507096285, 31.453530432], [120.5810521060652, 31.454616], [120.58378977596665, 31.453982752], [120.58389507096285, 31.453530432]]], [[[120.58389507096285, 31.454254144], [120.58421095595148, 31.454344608], [120.58410566095527, 31.45416368], [120.58389507096285, 31.454254144]]], [[[120.5684167065201, 31.454435072], [120.56873259150872, 31.454525536000002], [120.56862729651252, 31.454344608], [120.5684167065201, 31.454435072]]], [[[120.57610324124337, 31.469633024], [120.57547147126611, 31.46954256], [120.57599794624716, 31.469813952], [120.57610324124337, 31.469633024]]], [[[120.57810384617135, 31.469813952], [120.5763138312358, 31.469723488], [120.57799855117514, 31.470085344], [120.57810384617135, 31.469813952]]], [[[120.57736678119788, 31.470809056], [120.57515558627749, 31.471080448000002], [120.57789325617892, 31.471623232000002], [120.57736678119788, 31.470809056]]], [[[120.57262850636846, 31.471261376], [120.5729443913571, 31.471532768], [120.5730496863533, 31.47135184], [120.57262850636846, 31.471261376]]], [[[120.58368448097043, 31.47135184], [120.58378977596665, 31.471442304], [120.58378977596665, 31.47135184], [120.58368448097043, 31.47135184]]], [[[120.58368448097043, 31.471442304], [120.57936738612585, 31.471170912], [120.5798938611069, 31.47316112], [120.58368448097043, 31.471442304]]], [[[120.56494197164518, 31.475241792000002], [120.56525785663382, 31.475513184], [120.5651525616376, 31.475151328], [120.56494197164518, 31.475241792000002]]], [[[120.56230959673996, 31.476870144], [120.56262548172859, 31.477051072000002], [120.56262548172859, 31.476960608000002], [120.56230959673996, 31.476870144]]], [[[120.58810687081123, 31.398437856], [120.58726451084155, 31.399071104], [120.58768569082639, 31.401061312], [120.58810687081123, 31.398437856]]], [[[120.58600097088704, 31.402237344], [120.58663274086429, 31.402961056], [120.58642215087188, 31.402056416], [120.58600097088704, 31.402237344]]], [[[120.58947570576194, 31.406398688], [120.58989688574678, 31.406579616000002], [120.58979159075058, 31.406308224], [120.58947570576194, 31.406398688]]], [[[120.59052865572404, 31.406941472], [120.58915982077332, 31.409384], [120.59484575056861, 31.408660288], [120.59052865572404, 31.406941472]]], [[[120.58758039583017, 31.408750752], [120.58736980583775, 31.408841216], [120.58768569082639, 31.40893168], [120.58758039583017, 31.408750752]]], [[[120.59263455564822, 31.411283744], [120.59200278567097, 31.411826528], [120.59284514564064, 31.411826528], [120.59263455564822, 31.411283744]]], [[[120.5924239656558, 31.412459776], [120.59273985064443, 31.41255024], [120.59263455564822, 31.412369312], [120.5924239656558, 31.412459776]]], [[[120.59273985064443, 31.412821632], [120.59326632562548, 31.412731168], [120.59284514564064, 31.412640704], [120.59273985064443, 31.412821632]]], [[[120.59368750561032, 31.413635808], [120.5934769156179, 31.413726272], [120.59400339059894, 31.413997664], [120.59368750561032, 31.413635808]]], [[[120.58642215087188, 31.42431056], [120.58694862585293, 31.424943808000002], [120.58758039583017, 31.423677312], [120.58642215087188, 31.42431056]]], [[[120.59495104556483, 31.424129632], [120.59442457058378, 31.424853344], [120.59495104556483, 31.42566752], [120.59495104556483, 31.424129632]]], [[[120.58600097088704, 31.426210304], [120.5867380358605, 31.426119840000002], [120.58663274086429, 31.42566752], [120.58600097088704, 31.426210304]]], [[[120.59316103062928, 31.426481696], [120.59400339059894, 31.426119840000002], [120.59326632562548, 31.426210304], [120.59316103062928, 31.426481696]]], [[[120.58842275579985, 31.426119840000002], [120.58736980583775, 31.425938912], [120.58768569082639, 31.426753088], [120.58842275579985, 31.426119840000002]]], [[[120.59221337566339, 31.426481696], [120.59179219567855, 31.426210304], [120.59200278567097, 31.426843552], [120.59221337566339, 31.426481696]]], [[[120.5889492307809, 31.426481696], [120.5888439357847, 31.426753088], [120.58947570576194, 31.426662624], [120.5889492307809, 31.426481696]]], [[[120.58979159075058, 31.427295872000002], [120.59052865572404, 31.427657728], [120.59031806573162, 31.42702448], [120.58979159075058, 31.427295872000002]]], [[[120.58789628081881, 31.42838144], [120.58852805079606, 31.428562368], [120.58842275579985, 31.428200512], [120.58789628081881, 31.42838144]]], [[[120.5867380358605, 31.429195616], [120.58652744586809, 31.42928608], [120.58684333085671, 31.429376544], [120.5867380358605, 31.429195616]]], [[[120.58726451084155, 31.4297384], [120.58758039583017, 31.429919328], [120.58747510083397, 31.429647936000002], [120.58726451084155, 31.4297384]]], [[[120.59337162062168, 31.431457216000002], [120.59442457058378, 31.431819072], [120.5946351605762, 31.431276288], [120.59337162062168, 31.431457216000002]]], [[[120.59631988051555, 31.434985312000002], [120.59452986557999, 31.434894848], [120.59621458551933, 31.435347168], [120.59631988051555, 31.434985312000002]]], [[[120.5923186706596, 31.438603872], [120.59273985064443, 31.439146656000002], [120.59284514564064, 31.4387848], [120.5923186706596, 31.438603872]]], [[[120.59516163555725, 31.440051296], [120.59537222554967, 31.439779904], [120.5947404555724, 31.439870368], [120.59516163555725, 31.440051296]]], [[[120.5934769156179, 31.440051296], [120.59158160568613, 31.440232224], [120.59295044063686, 31.440322688000002], [120.5934769156179, 31.440051296]]], [[[120.59094983570887, 31.440232224], [120.58852805079606, 31.441136864], [120.59137101569371, 31.442041504], [120.59094983570887, 31.440232224]]], [[[120.59326632562548, 31.441498720000002], [120.59368750561032, 31.441770112], [120.59389809560274, 31.441498720000002], [120.59326632562548, 31.441498720000002]]], [[[120.58589567589082, 31.447740736], [120.58758039583017, 31.447017024], [120.58652744586809, 31.44647424], [120.58589567589082, 31.447740736]]], [[[120.59031806573162, 31.449188160000002], [120.59052865572404, 31.449459552], [120.59063395072025, 31.449278624], [120.59031806573162, 31.449188160000002]]], [[[120.58715921584535, 31.449007232], [120.58705392084913, 31.449369088], [120.58789628081881, 31.44964048], [120.58715921584535, 31.449007232]]], [[[120.58800157581501, 31.45144976], [120.58705392084913, 31.45144976], [120.58768569082639, 31.45190208], [120.58800157581501, 31.45144976]]], [[[120.59516163555725, 31.456877600000002], [120.59337162062168, 31.457601312], [120.59747812547384, 31.458144096], [120.59516163555725, 31.456877600000002]]], [[[120.59168690068233, 31.466466784], [120.59200278567097, 31.466557248], [120.59200278567097, 31.466376320000002], [120.59168690068233, 31.466466784]]], [[[120.58589567589082, 31.469361632000002], [120.58631685587567, 31.469723488], [120.58621156087946, 31.469180704], [120.58589567589082, 31.469361632000002]]], [[[120.59947873040183, 31.406308224], [120.59884696042457, 31.40667008], [120.59968932039425, 31.407303328], [120.59947873040183, 31.406308224]]], [[[120.6027428752843, 31.408117504], [120.6026375802881, 31.408117504], [120.6027428752843, 31.408207968], [120.6027428752843, 31.408117504]]], [[[120.60232169529948, 31.408117504], [120.60211110530706, 31.408207968], [120.60242699029568, 31.408298432], [120.60232169529948, 31.408117504]]], [[[120.6027428752843, 31.408298432], [120.60284817028052, 31.40847936], [120.60284817028052, 31.408298432], [120.6027428752843, 31.408298432]]], [[[120.60295346527673, 31.40847936], [120.60284817028052, 31.40847936], [120.60295346527673, 31.408569824], [120.60295346527673, 31.40847936]]], [[[120.60358523525399, 31.409293536], [120.60211110530706, 31.409926784], [120.60411171023503, 31.41028864], [120.60358523525399, 31.409293536]]], [[[120.59747812547384, 31.422682208], [120.5980046004549, 31.422591744], [120.59758342047006, 31.42250128], [120.59747812547384, 31.422682208]]], [[[120.59874166542836, 31.4229536], [120.59905755041699, 31.423224992], [120.59916284541319, 31.423044064], [120.59874166542836, 31.4229536]]], [[[120.60347994025777, 31.42340592], [120.6027428752843, 31.423315456], [120.60337464526157, 31.423586848], [120.60347994025777, 31.42340592]]], [[[120.60432230022745, 31.423315456], [120.60737585511751, 31.424853344], [120.60863939507203, 31.425034272], [120.60432230022745, 31.423315456]]], [[[120.59705694548902, 31.424943808000002], [120.59737283047764, 31.425034272], [120.59726753548144, 31.424853344], [120.59705694548902, 31.424943808000002]]], [[[120.60200581031084, 31.425938912], [120.59926814040941, 31.424581952], [120.60063697536013, 31.425577056], [120.60200581031084, 31.425938912]]], [[[120.60569113517816, 31.427567264], [120.60579643017438, 31.427838656], [120.60895528006066, 31.427657728], [120.60569113517816, 31.427567264]]], [[[120.59926814040941, 31.436432736], [120.59916284541319, 31.436885056], [120.59979461539045, 31.4365232], [120.59926814040941, 31.436432736]]], [[[120.59895225542078, 31.438422944], [120.60011050037907, 31.438513408000002], [120.59916284541319, 31.437518304], [120.59895225542078, 31.438422944]]], [[[120.60390112024261, 31.439146656000002], [120.60558584018196, 31.437065984], [120.60305876027294, 31.437608768], [120.60390112024261, 31.439146656000002]]], [[[120.60990293502654, 31.439508512], [120.60927116504928, 31.439418048], [120.60979764003034, 31.439689440000002], [120.60990293502654, 31.439508512]]], [[[120.60316405526915, 31.44059408], [120.60358523525399, 31.440684544], [120.60347994025777, 31.440413152], [120.60316405526915, 31.44059408]]], [[[120.6060070201668, 31.440503616], [120.606112315163, 31.440865472], [120.60642820015164, 31.440503616], [120.6060070201668, 31.440503616]]], [[[120.59968932039425, 31.440503616], [120.59947873040183, 31.440775008], [120.60011050037907, 31.441408256], [120.59968932039425, 31.440503616]]], [[[120.59495104556483, 31.441227328], [120.59621458551933, 31.441589184], [120.59568811053829, 31.44059408], [120.59495104556483, 31.441227328]]], [[[120.60505936520092, 31.441136864], [120.60537525018954, 31.441227328], [120.60526995519334, 31.4410464], [120.60505936520092, 31.441136864]]], [[[120.606112315163, 31.44240336], [120.60590172517058, 31.442674752000002], [120.60695467513268, 31.442584288], [120.606112315163, 31.44240336]]], [[[120.60421700523123, 31.442584288], [120.60390112024261, 31.442493824], [120.60411171023503, 31.442765216], [120.60421700523123, 31.442584288]]], [[[120.60095286034876, 31.443127072], [120.60074227035633, 31.443217536], [120.60105815534496, 31.443488928], [120.60095286034876, 31.443127072]]], [[[120.60695467513268, 31.444574496], [120.60779703510235, 31.444303104], [120.60705997012889, 31.443850784000002], [120.60695467513268, 31.444574496]]], [[[120.60168992532222, 31.4455696], [120.60232169529948, 31.44511728], [120.6014793353298, 31.444031712], [120.60168992532222, 31.4455696]]], [[[120.60253228529189, 31.446745632], [120.60242699029568, 31.44692656], [120.60337464526157, 31.447288416], [120.60253228529189, 31.446745632]]], [[[120.60000520538287, 31.452173472000002], [120.60021579537529, 31.452444864], [120.6003210903715, 31.452263936], [120.60000520538287, 31.452173472000002]]], [[[120.59853107543594, 31.45642528], [120.59884696042457, 31.456787136], [120.59895225542078, 31.456606208], [120.59853107543594, 31.45642528]]], [[[120.59747812547384, 31.458777344], [120.59716224048522, 31.458867808], [120.59758342047006, 31.458958272], [120.59747812547384, 31.458777344]]], [[[120.59663576550417, 31.461129408], [120.59716224048522, 31.461219872], [120.59674106050038, 31.46094848], [120.59663576550417, 31.461129408]]], [[[120.59547752054587, 31.461943584], [120.59568811053829, 31.462214976000002], [120.5957934055345, 31.462034048], [120.59547752054587, 31.461943584]]]]}}]}